"cbsa10","state","county","tract","zcta5","ur","ua","puma12","metdiv10","stab","cntyname","cbsaname10","mdivname10","zipname","PUMAname","uaname","pop10","afact"
"cbsa10","FIPS state","county","2010 Tract","ZIP Census Tabulation Area","Urban/Rural","ua","puma12","metdiv10","State Postal Code","cntyname","2010 CBSA Name","2010 Metro Div Name","zipname","PUMA12 Name","UA/Urban Cluster Name","Total Pop, 2010 census","cbsa10 to metdiv10 alloc factor"
"33340","55","55079","0001.01","53223","U","57466","41001","99999","WI","Milwaukee WI","Milwaukee-Waukesha-West Allis, WI Metropolitan Statistical Area","99999","Milwaukee, WI","Milwaukee City (North)","Milwaukee, WI Urbanized Area",3425,0.002 
"33340","55","55079","0001.01","53224","U","57466","41001","99999","WI","Milwaukee WI","Milwaukee-Waukesha-West Allis, WI Metropolitan Statistical Area","99999","Milwaukee, WI","Milwaukee City (North)","Milwaukee, WI Urbanized Area",1397,0.001 
"33340","55","55079","0001.02","53223","U","57466","41001","99999","WI","Milwaukee WI","Milwaukee-Waukesha-West Allis, WI Metropolitan Statistical Area","99999","Milwaukee, WI","Milwaukee City (North)","Milwaukee, WI Urbanized Area",2542,0.002 
"33340","55","55079","0001.02","53224","U","57466","41001","99999","WI","Milwaukee WI","Milwaukee-Waukesha-West Allis, WI Metropolitan Statistical Area","99999","Milwaukee, WI","Milwaukee City (North)","Milwaukee, WI Urbanized Area",965,0.001 
"33340","55","55079","0002.01","53224","U","57466","41001","99999","WI","Milwaukee WI","Milwaukee-Waukesha-West Allis, WI Metropolitan Statistical Area","99999","Milwaukee, WI","Milwaukee City (North)","Milwaukee, WI Urbanized Area",5450,0.004 
"33340","55","55079","0002.02","53224","U","57466","41001","99999","WI","Milwaukee WI","Milwaukee-Waukesha-West Allis, WI Metropolitan Statistical Area","99999","Milwaukee, WI","Milwaukee City (North)","Milwaukee, WI Urbanized Area",6101,0.004 
"33340","55","55079","0003.01","53224","U","57466","41001","99999","WI","Milwaukee WI","Milwaukee-Waukesha-West Allis, WI Metropolitan Statistical Area","99999","Milwaukee, WI","Milwaukee City (North)","Milwaukee, WI Urbanized Area",483,0 
"33340","55","55079","0003.01","53225","U","57466","41001","99999","WI","Milwaukee WI","Milwaukee-Waukesha-West Allis, WI Metropolitan Statistical Area","99999","Milwaukee, WI","Milwaukee City (North)","Milwaukee, WI Urbanized Area",1000,0.001 
"33340","55","55079","0003.02","53224","U","57466","41001","99999","WI","Milwaukee WI","Milwaukee-Waukesha-West Allis, WI Metropolitan Statistical Area","99999","Milwaukee, WI","Milwaukee City (North)","Milwaukee, WI Urbanized Area",3028,0.002 
"33340","55","55079","0003.03","53225","U","57466","41001","99999","WI","Milwaukee WI","Milwaukee-Waukesha-West Allis, WI Metropolitan Statistical Area","99999","Milwaukee, WI","Milwaukee City (North)","Milwaukee, WI Urbanized Area",1873,0.001 
"33340","55","55079","0003.04","53223","U","57466","41001","99999","WI","Milwaukee WI","Milwaukee-Waukesha-West Allis, WI Metropolitan Statistical Area","99999","Milwaukee, WI","Milwaukee City (North)","Milwaukee, WI Urbanized Area",916,0.001 
"33340","55","55079","0003.04","53224","U","57466","41001","99999","WI","Milwaukee WI","Milwaukee-Waukesha-West Allis, WI Metropolitan Statistical Area","99999","Milwaukee, WI","Milwaukee City (North)","Milwaukee, WI Urbanized Area",2466,0.002 
"33340","55","55079","0004.00","53225","U","57466","41001","99999","WI","Milwaukee WI","Milwaukee-Waukesha-West Allis, WI Metropolitan Statistical Area","99999","Milwaukee, WI","Milwaukee City (North)","Milwaukee, WI Urbanized Area",2439,0.002 
"33340","55","55079","0005.01","53225","U","57466","41001","99999","WI","Milwaukee WI","Milwaukee-Waukesha-West Allis, WI Metropolitan Statistical Area","99999","Milwaukee, WI","Milwaukee City (North)","Milwaukee, WI Urbanized Area",3450,0.002 
"33340","55","55079","0005.02","53225","U","57466","41001","99999","WI","Milwaukee WI","Milwaukee-Waukesha-West Allis, WI Metropolitan Statistical Area","99999","Milwaukee, WI","Milwaukee City (North)","Milwaukee, WI Urbanized Area",4878,0.003 
"33340","55","55079","0006.00","53218","U","57466","41001","99999","WI","Milwaukee WI","Milwaukee-Waukesha-West Allis, WI Metropolitan Statistical Area","99999","Milwaukee, WI","Milwaukee City (North)","Milwaukee, WI Urbanized Area",191,0 
"33340","55","55079","0006.00","53223","U","57466","41001","99999","WI","Milwaukee WI","Milwaukee-Waukesha-West Allis, WI Metropolitan Statistical Area","99999","Milwaukee, WI","Milwaukee City (North)","Milwaukee, WI Urbanized Area",4509,0.003 
"33340","55","55079","0006.00","53224","U","57466","41001","99999","WI","Milwaukee WI","Milwaukee-Waukesha-West Allis, WI Metropolitan Statistical Area","99999","Milwaukee, WI","Milwaukee City (North)","Milwaukee, WI Urbanized Area",1394,0.001 
"33340","55","55079","0006.00","53225","U","57466","41001","99999","WI","Milwaukee WI","Milwaukee-Waukesha-West Allis, WI Metropolitan Statistical Area","99999","Milwaukee, WI","Milwaukee City (North)","Milwaukee, WI Urbanized Area",196,0 
"33340","55","55079","0007.00","53223","U","57466","41001","99999","WI","Milwaukee WI","Milwaukee-Waukesha-West Allis, WI Metropolitan Statistical Area","99999","Milwaukee, WI","Milwaukee City (North)","Milwaukee, WI Urbanized Area",3580,0.002 
"33340","55","55079","0008.00","53209","U","57466","41001","99999","WI","Milwaukee WI","Milwaukee-Waukesha-West Allis, WI Metropolitan Statistical Area","99999","Milwaukee, WI","Milwaukee City (North)","Milwaukee, WI Urbanized Area",519,0 
"33340","55","55079","0008.00","53218","U","57466","41001","99999","WI","Milwaukee WI","Milwaukee-Waukesha-West Allis, WI Metropolitan Statistical Area","99999","Milwaukee, WI","Milwaukee City (North)","Milwaukee, WI Urbanized Area",49,0 
"33340","55","55079","0008.00","53223","U","57466","41001","99999","WI","Milwaukee WI","Milwaukee-Waukesha-West Allis, WI Metropolitan Statistical Area","99999","Milwaukee, WI","Milwaukee City (North)","Milwaukee, WI Urbanized Area",4561,0.003 
"33340","55","55079","0009.00","53209","U","57466","41001","99999","WI","Milwaukee WI","Milwaukee-Waukesha-West Allis, WI Metropolitan Statistical Area","99999","Milwaukee, WI","Milwaukee City (North)","Milwaukee, WI Urbanized Area",3694,0.002 
"33340","55","55079","0010.00","53209","U","57466","41001","99999","WI","Milwaukee WI","Milwaukee-Waukesha-West Allis, WI Metropolitan Statistical Area","99999","Milwaukee, WI","Milwaukee City (North)","Milwaukee, WI Urbanized Area",3654,0.002 
"33340","55","55079","0011.00","53209","U","57466","41001","99999","WI","Milwaukee WI","Milwaukee-Waukesha-West Allis, WI Metropolitan Statistical Area","99999","Milwaukee, WI","Milwaukee City (North)","Milwaukee, WI Urbanized Area",2760,0.002 
"33340","55","55079","0011.00","53218","U","57466","41001","99999","WI","Milwaukee WI","Milwaukee-Waukesha-West Allis, WI Metropolitan Statistical Area","99999","Milwaukee, WI","Milwaukee City (North)","Milwaukee, WI Urbanized Area",40,0 
"33340","55","55079","0012.00","53218","U","57466","41001","99999","WI","Milwaukee WI","Milwaukee-Waukesha-West Allis, WI Metropolitan Statistical Area","99999","Milwaukee, WI","Milwaukee City (North)","Milwaukee, WI Urbanized Area",2985,0.002 
"33340","55","55079","0013.00","53218","U","57466","41001","99999","WI","Milwaukee WI","Milwaukee-Waukesha-West Allis, WI Metropolitan Statistical Area","99999","Milwaukee, WI","Milwaukee City (North)","Milwaukee, WI Urbanized Area",3733,0.002 
"33340","55","55079","0014.00","53218","U","57466","41001","99999","WI","Milwaukee WI","Milwaukee-Waukesha-West Allis, WI Metropolitan Statistical Area","99999","Milwaukee, WI","Milwaukee City (North)","Milwaukee, WI Urbanized Area",1081,0.001 
"33340","55","55079","0014.00","53225","U","57466","41001","99999","WI","Milwaukee WI","Milwaukee-Waukesha-West Allis, WI Metropolitan Statistical Area","99999","Milwaukee, WI","Milwaukee City (North)","Milwaukee, WI Urbanized Area",1514,0.001 
"33340","55","55079","0015.00","53218","U","57466","41001","99999","WI","Milwaukee WI","Milwaukee-Waukesha-West Allis, WI Metropolitan Statistical Area","99999","Milwaukee, WI","Milwaukee City (North)","Milwaukee, WI Urbanized Area",1852,0.001 
"33340","55","55079","0015.00","53225","U","57466","41001","99999","WI","Milwaukee WI","Milwaukee-Waukesha-West Allis, WI Metropolitan Statistical Area","99999","Milwaukee, WI","Milwaukee City (North)","Milwaukee, WI Urbanized Area",1321,0.001 
"33340","55","55079","0016.00","53218","U","57466","41001","99999","WI","Milwaukee WI","Milwaukee-Waukesha-West Allis, WI Metropolitan Statistical Area","99999","Milwaukee, WI","Milwaukee City (North)","Milwaukee, WI Urbanized Area",2111,0.001 
"33340","55","55079","0016.00","53225","U","57466","41001","99999","WI","Milwaukee WI","Milwaukee-Waukesha-West Allis, WI Metropolitan Statistical Area","99999","Milwaukee, WI","Milwaukee City (North)","Milwaukee, WI Urbanized Area",879,0.001 
"33340","55","55079","0017.00","53218","U","57466","41001","99999","WI","Milwaukee WI","Milwaukee-Waukesha-West Allis, WI Metropolitan Statistical Area","99999","Milwaukee, WI","Milwaukee City (North)","Milwaukee, WI Urbanized Area",1825,0.001 
"33340","55","55079","0017.00","53225","U","57466","41001","99999","WI","Milwaukee WI","Milwaukee-Waukesha-West Allis, WI Metropolitan Statistical Area","99999","Milwaukee, WI","Milwaukee City (North)","Milwaukee, WI Urbanized Area",2633,0.002 
"33340","55","55079","0018.00","53218","U","57466","41001","99999","WI","Milwaukee WI","Milwaukee-Waukesha-West Allis, WI Metropolitan Statistical Area","99999","Milwaukee, WI","Milwaukee City (North)","Milwaukee, WI Urbanized Area",3153,0.002 
"33340","55","55079","0019.00","53218","U","57466","41001","99999","WI","Milwaukee WI","Milwaukee-Waukesha-West Allis, WI Metropolitan Statistical Area","99999","Milwaukee, WI","Milwaukee City (North)","Milwaukee, WI Urbanized Area",3518,0.002 
"33340","55","55079","0020.00","53209","U","57466","41001","99999","WI","Milwaukee WI","Milwaukee-Waukesha-West Allis, WI Metropolitan Statistical Area","99999","Milwaukee, WI","Milwaukee City (North)","Milwaukee, WI Urbanized Area",1501,0.001 
"33340","55","55079","0020.00","53218","U","57466","41001","99999","WI","Milwaukee WI","Milwaukee-Waukesha-West Allis, WI Metropolitan Statistical Area","99999","Milwaukee, WI","Milwaukee City (North)","Milwaukee, WI Urbanized Area",969,0.001 
"33340","55","55079","0021.00","53209","U","57466","41001","99999","WI","Milwaukee WI","Milwaukee-Waukesha-West Allis, WI Metropolitan Statistical Area","99999","Milwaukee, WI","Milwaukee City (North)","Milwaukee, WI Urbanized Area",2474,0.002 
"33340","55","55079","0022.00","53209","U","57466","41002","99999","WI","Milwaukee WI","Milwaukee-Waukesha-West Allis, WI Metropolitan Statistical Area","99999","Milwaukee, WI","Milwaukee City (North Central)","Milwaukee, WI Urbanized Area",1790,0.001 
"33340","55","55079","0023.00","53209","U","57466","41002","99999","WI","Milwaukee WI","Milwaukee-Waukesha-West Allis, WI Metropolitan Statistical Area","99999","Milwaukee, WI","Milwaukee City (North Central)","Milwaukee, WI Urbanized Area",4406,0.003 
"33340","55","55079","0024.00","53209","U","57466","41002","99999","WI","Milwaukee WI","Milwaukee-Waukesha-West Allis, WI Metropolitan Statistical Area","99999","Milwaukee, WI","Milwaukee City (North Central)","Milwaukee, WI Urbanized Area",2244,0.001 
"33340","55","55079","0025.00","53209","U","57466","41002","99999","WI","Milwaukee WI","Milwaukee-Waukesha-West Allis, WI Metropolitan Statistical Area","99999","Milwaukee, WI","Milwaukee City (North Central)","Milwaukee, WI Urbanized Area",2195,0.001 
"33340","55","55079","0026.00","53209","U","57466","41002","99999","WI","Milwaukee WI","Milwaukee-Waukesha-West Allis, WI Metropolitan Statistical Area","99999","Milwaukee, WI","Milwaukee City (North Central)","Milwaukee, WI Urbanized Area",2829,0.002 
"33340","55","55079","0027.00","53209","U","57466","41002","99999","WI","Milwaukee WI","Milwaukee-Waukesha-West Allis, WI Metropolitan Statistical Area","99999","Milwaukee, WI","Milwaukee City (North Central)","Milwaukee, WI Urbanized Area",163,0 
"33340","55","55079","0027.00","53218","U","57466","41002","99999","WI","Milwaukee WI","Milwaukee-Waukesha-West Allis, WI Metropolitan Statistical Area","99999","Milwaukee, WI","Milwaukee City (North Central)","Milwaukee, WI Urbanized Area",1832,0.001 
"33340","55","55079","0028.00","53209","U","57466","41002","99999","WI","Milwaukee WI","Milwaukee-Waukesha-West Allis, WI Metropolitan Statistical Area","99999","Milwaukee, WI","Milwaukee City (North Central)","Milwaukee, WI Urbanized Area",112,0 
"33340","55","55079","0028.00","53218","U","57466","41002","99999","WI","Milwaukee WI","Milwaukee-Waukesha-West Allis, WI Metropolitan Statistical Area","99999","Milwaukee, WI","Milwaukee City (North Central)","Milwaukee, WI Urbanized Area",2140,0.001 
"33340","55","55079","0029.00","53218","U","57466","41002","99999","WI","Milwaukee WI","Milwaukee-Waukesha-West Allis, WI Metropolitan Statistical Area","99999","Milwaukee, WI","Milwaukee City (North Central)","Milwaukee, WI Urbanized Area",2179,0.001 
"33340","55","55079","0030.00","53218","U","57466","41001","99999","WI","Milwaukee WI","Milwaukee-Waukesha-West Allis, WI Metropolitan Statistical Area","99999","Milwaukee, WI","Milwaukee City (North)","Milwaukee, WI Urbanized Area",3782,0.002 
"33340","55","55079","0031.00","53218","U","57466","41002","99999","WI","Milwaukee WI","Milwaukee-Waukesha-West Allis, WI Metropolitan Statistical Area","99999","Milwaukee, WI","Milwaukee City (North Central)","Milwaukee, WI Urbanized Area",3572,0.002 
"33340","55","55079","0032.00","53218","U","57466","41001","99999","WI","Milwaukee WI","Milwaukee-Waukesha-West Allis, WI Metropolitan Statistical Area","99999","Milwaukee, WI","Milwaukee City (North)","Milwaukee, WI Urbanized Area",2819,0.002 
"33340","55","55079","0033.00","53218","U","57466","41001","99999","WI","Milwaukee WI","Milwaukee-Waukesha-West Allis, WI Metropolitan Statistical Area","99999","Milwaukee, WI","Milwaukee City (North)","Milwaukee, WI Urbanized Area",2663,0.002 
"33340","55","55079","0033.00","53225","U","57466","41001","99999","WI","Milwaukee WI","Milwaukee-Waukesha-West Allis, WI Metropolitan Statistical Area","99999","Milwaukee, WI","Milwaukee City (North)","Milwaukee, WI Urbanized Area",2519,0.002 
"33340","55","55079","0034.00","53218","U","57466","41002","99999","WI","Milwaukee WI","Milwaukee-Waukesha-West Allis, WI Metropolitan Statistical Area","99999","Milwaukee, WI","Milwaukee City (North Central)","Milwaukee, WI Urbanized Area",99,0 
"33340","55","55079","0034.00","53222","U","57466","41002","99999","WI","Milwaukee WI","Milwaukee-Waukesha-West Allis, WI Metropolitan Statistical Area","99999","Milwaukee, WI","Milwaukee City (North Central)","Milwaukee, WI Urbanized Area",5332,0.003 
"33340","55","55079","0034.00","53225","U","57466","41002","99999","WI","Milwaukee WI","Milwaukee-Waukesha-West Allis, WI Metropolitan Statistical Area","99999","Milwaukee, WI","Milwaukee City (North Central)","Milwaukee, WI Urbanized Area",102,0 
"33340","55","55079","0035.00","53216","U","57466","41002","99999","WI","Milwaukee WI","Milwaukee-Waukesha-West Allis, WI Metropolitan Statistical Area","99999","Milwaukee, WI","Milwaukee City (North Central)","Milwaukee, WI Urbanized Area",3340,0.002 
"33340","55","55079","0035.00","53222","U","57466","41002","99999","WI","Milwaukee WI","Milwaukee-Waukesha-West Allis, WI Metropolitan Statistical Area","99999","Milwaukee, WI","Milwaukee City (North Central)","Milwaukee, WI Urbanized Area",70,0 
"33340","55","55079","0036.00","53216","U","57466","41002","99999","WI","Milwaukee WI","Milwaukee-Waukesha-West Allis, WI Metropolitan Statistical Area","99999","Milwaukee, WI","Milwaukee City (North Central)","Milwaukee, WI Urbanized Area",1861,0.001 
"33340","55","55079","0036.00","53218","U","57466","41002","99999","WI","Milwaukee WI","Milwaukee-Waukesha-West Allis, WI Metropolitan Statistical Area","99999","Milwaukee, WI","Milwaukee City (North Central)","Milwaukee, WI Urbanized Area",32,0 
"33340","55","55079","0037.00","53216","U","57466","41002","99999","WI","Milwaukee WI","Milwaukee-Waukesha-West Allis, WI Metropolitan Statistical Area","99999","Milwaukee, WI","Milwaukee City (North Central)","Milwaukee, WI Urbanized Area",2315,0.001 
"33340","55","55079","0038.00","53216","U","57466","41002","99999","WI","Milwaukee WI","Milwaukee-Waukesha-West Allis, WI Metropolitan Statistical Area","99999","Milwaukee, WI","Milwaukee City (North Central)","Milwaukee, WI Urbanized Area",2196,0.001 
"33340","55","55079","0039.00","53216","U","57466","41002","99999","WI","Milwaukee WI","Milwaukee-Waukesha-West Allis, WI Metropolitan Statistical Area","99999","Milwaukee, WI","Milwaukee City (North Central)","Milwaukee, WI Urbanized Area",2630,0.002 
"33340","55","55079","0040.00","53216","U","57466","41002","99999","WI","Milwaukee WI","Milwaukee-Waukesha-West Allis, WI Metropolitan Statistical Area","99999","Milwaukee, WI","Milwaukee City (North Central)","Milwaukee, WI Urbanized Area",2662,0.002 
"33340","55","55079","0041.00","53209","U","57466","41002","99999","WI","Milwaukee WI","Milwaukee-Waukesha-West Allis, WI Metropolitan Statistical Area","99999","Milwaukee, WI","Milwaukee City (North Central)","Milwaukee, WI Urbanized Area",99,0 
"33340","55","55079","0041.00","53216","U","57466","41002","99999","WI","Milwaukee WI","Milwaukee-Waukesha-West Allis, WI Metropolitan Statistical Area","99999","Milwaukee, WI","Milwaukee City (North Central)","Milwaukee, WI Urbanized Area",2466,0.002 
"33340","55","55079","0042.00","53206","U","57466","41002","99999","WI","Milwaukee WI","Milwaukee-Waukesha-West Allis, WI Metropolitan Statistical Area","99999","Milwaukee, WI","Milwaukee City (North Central)","Milwaukee, WI Urbanized Area",163,0 
"33340","55","55079","0042.00","53209","U","57466","41002","99999","WI","Milwaukee WI","Milwaukee-Waukesha-West Allis, WI Metropolitan Statistical Area","99999","Milwaukee, WI","Milwaukee City (North Central)","Milwaukee, WI Urbanized Area",2367,0.002 
"33340","55","55079","0042.00","53216","U","57466","41002","99999","WI","Milwaukee WI","Milwaukee-Waukesha-West Allis, WI Metropolitan Statistical Area","99999","Milwaukee, WI","Milwaukee City (North Central)","Milwaukee, WI Urbanized Area",517,0 
"33340","55","55079","0043.00","53209","U","57466","41002","99999","WI","Milwaukee WI","Milwaukee-Waukesha-West Allis, WI Metropolitan Statistical Area","99999","Milwaukee, WI","Milwaukee City (North Central)","Milwaukee, WI Urbanized Area",5187,0.003 
"33340","55","55079","0043.00","53212","U","57466","41002","99999","WI","Milwaukee WI","Milwaukee-Waukesha-West Allis, WI Metropolitan Statistical Area","99999","Milwaukee, WI","Milwaukee City (North Central)","Milwaukee, WI Urbanized Area",162,0 
"33340","55","55079","0044.00","53212","U","57466","41003","99999","WI","Milwaukee WI","Milwaukee-Waukesha-West Allis, WI Metropolitan Statistical Area","99999","Milwaukee, WI","Milwaukee City (Central)","Milwaukee, WI Urbanized Area",2775,0.002 
"33340","55","55079","0044.00","53217","U","57466","41003","99999","WI","Milwaukee WI","Milwaukee-Waukesha-West Allis, WI Metropolitan Statistical Area","99999","Whitefish Bay, WI","Milwaukee City (Central)","Milwaukee, WI Urbanized Area",558,0 
"33340","55","55079","0045.00","53206","U","57466","41003","99999","WI","Milwaukee WI","Milwaukee-Waukesha-West Allis, WI Metropolitan Statistical Area","99999","Milwaukee, WI","Milwaukee City (Central)","Milwaukee, WI Urbanized Area",1787,0.001 
"33340","55","55079","0045.00","53212","U","57466","41003","99999","WI","Milwaukee WI","Milwaukee-Waukesha-West Allis, WI Metropolitan Statistical Area","99999","Milwaukee, WI","Milwaukee City (Central)","Milwaukee, WI Urbanized Area",691,0 
"33340","55","55079","0046.00","53206","U","57466","41003","99999","WI","Milwaukee WI","Milwaukee-Waukesha-West Allis, WI Metropolitan Statistical Area","99999","Milwaukee, WI","Milwaukee City (Central)","Milwaukee, WI Urbanized Area",2984,0.002 
"33340","55","55079","0047.00","53206","U","57466","41003","99999","WI","Milwaukee WI","Milwaukee-Waukesha-West Allis, WI Metropolitan Statistical Area","99999","Milwaukee, WI","Milwaukee City (Central)","Milwaukee, WI Urbanized Area",3249,0.002 
"33340","55","55079","0047.00","53216","U","57466","41003","99999","WI","Milwaukee WI","Milwaukee-Waukesha-West Allis, WI Metropolitan Statistical Area","99999","Milwaukee, WI","Milwaukee City (Central)","Milwaukee, WI Urbanized Area",772,0 
"33340","55","55079","0048.00","53210","U","57466","41002","99999","WI","Milwaukee WI","Milwaukee-Waukesha-West Allis, WI Metropolitan Statistical Area","99999","Milwaukee, WI","Milwaukee City (North Central)","Milwaukee, WI Urbanized Area",1294,0.001 
"33340","55","55079","0048.00","53216","U","57466","41002","99999","WI","Milwaukee WI","Milwaukee-Waukesha-West Allis, WI Metropolitan Statistical Area","99999","Milwaukee, WI","Milwaukee City (North Central)","Milwaukee, WI Urbanized Area",2708,0.002 
"33340","55","55079","0049.00","53210","U","57466","41002","99999","WI","Milwaukee WI","Milwaukee-Waukesha-West Allis, WI Metropolitan Statistical Area","99999","Milwaukee, WI","Milwaukee City (North Central)","Milwaukee, WI Urbanized Area",1602,0.001 
"33340","55","55079","0049.00","53216","U","57466","41002","99999","WI","Milwaukee WI","Milwaukee-Waukesha-West Allis, WI Metropolitan Statistical Area","99999","Milwaukee, WI","Milwaukee City (North Central)","Milwaukee, WI Urbanized Area",2904,0.002 
"33340","55","55079","0050.00","53210","U","57466","41002","99999","WI","Milwaukee WI","Milwaukee-Waukesha-West Allis, WI Metropolitan Statistical Area","99999","Milwaukee, WI","Milwaukee City (North Central)","Milwaukee, WI Urbanized Area",2075,0.001 
"33340","55","55079","0050.00","53216","U","57466","41002","99999","WI","Milwaukee WI","Milwaukee-Waukesha-West Allis, WI Metropolitan Statistical Area","99999","Milwaukee, WI","Milwaukee City (North Central)","Milwaukee, WI Urbanized Area",2632,0.002 
"33340","55","55079","0051.00","53216","U","57466","41002","99999","WI","Milwaukee WI","Milwaukee-Waukesha-West Allis, WI Metropolitan Statistical Area","99999","Milwaukee, WI","Milwaukee City (North Central)","Milwaukee, WI Urbanized Area",3278,0.002 
"33340","55","55079","0051.00","53222","U","57466","41002","99999","WI","Milwaukee WI","Milwaukee-Waukesha-West Allis, WI Metropolitan Statistical Area","99999","Milwaukee, WI","Milwaukee City (North Central)","Milwaukee, WI Urbanized Area",123,0 
"33340","55","55079","0052.00","53222","U","57466","41002","99999","WI","Milwaukee WI","Milwaukee-Waukesha-West Allis, WI Metropolitan Statistical Area","99999","Milwaukee, WI","Milwaukee City (North Central)","Milwaukee, WI Urbanized Area",1657,0.001 
"33340","55","55079","0053.00","53222","U","57466","41002","99999","WI","Milwaukee WI","Milwaukee-Waukesha-West Allis, WI Metropolitan Statistical Area","99999","Milwaukee, WI","Milwaukee City (North Central)","Milwaukee, WI Urbanized Area",1920,0.001 
"33340","55","55079","0054.00","53222","U","57466","41002","99999","WI","Milwaukee WI","Milwaukee-Waukesha-West Allis, WI Metropolitan Statistical Area","99999","Milwaukee, WI","Milwaukee City (North Central)","Milwaukee, WI Urbanized Area",3690,0.002 
"33340","55","55079","0055.00","53222","U","57466","41002","99999","WI","Milwaukee WI","Milwaukee-Waukesha-West Allis, WI Metropolitan Statistical Area","99999","Milwaukee, WI","Milwaukee City (North Central)","Milwaukee, WI Urbanized Area",3318,0.002 
"33340","55","55079","0056.00","53222","U","57466","41002","99999","WI","Milwaukee WI","Milwaukee-Waukesha-West Allis, WI Metropolitan Statistical Area","99999","Milwaukee, WI","Milwaukee City (North Central)","Milwaukee, WI Urbanized Area",2186,0.001 
"33340","55","55079","0056.00","53226","U","57466","41002","99999","WI","Milwaukee WI","Milwaukee-Waukesha-West Allis, WI Metropolitan Statistical Area","99999","Wauwatosa, WI","Milwaukee City (North Central)","Milwaukee, WI Urbanized Area",12,0 
"33340","55","55079","0057.00","53213","U","57466","41002","99999","WI","Milwaukee WI","Milwaukee-Waukesha-West Allis, WI Metropolitan Statistical Area","99999","Wauwatosa, WI","Milwaukee City (North Central)","Milwaukee, WI Urbanized Area",16,0 
"33340","55","55079","0057.00","53222","U","57466","41002","99999","WI","Milwaukee WI","Milwaukee-Waukesha-West Allis, WI Metropolitan Statistical Area","99999","Milwaukee, WI","Milwaukee City (North Central)","Milwaukee, WI Urbanized Area",2355,0.002 
"33340","55","55079","0058.00","53210","U","57466","41002","99999","WI","Milwaukee WI","Milwaukee-Waukesha-West Allis, WI Metropolitan Statistical Area","99999","Milwaukee, WI","Milwaukee City (North Central)","Milwaukee, WI Urbanized Area",3089,0.002 
"33340","55","55079","0058.00","53216","U","57466","41002","99999","WI","Milwaukee WI","Milwaukee-Waukesha-West Allis, WI Metropolitan Statistical Area","99999","Milwaukee, WI","Milwaukee City (North Central)","Milwaukee, WI Urbanized Area",108,0 
"33340","55","55079","0058.00","53222","U","57466","41002","99999","WI","Milwaukee WI","Milwaukee-Waukesha-West Allis, WI Metropolitan Statistical Area","99999","Milwaukee, WI","Milwaukee City (North Central)","Milwaukee, WI Urbanized Area",233,0 
"33340","55","55079","0059.00","53210","U","57466","41002","99999","WI","Milwaukee WI","Milwaukee-Waukesha-West Allis, WI Metropolitan Statistical Area","99999","Milwaukee, WI","Milwaukee City (North Central)","Milwaukee, WI Urbanized Area",3408,0.002 
"33340","55","55079","0059.00","53213","U","57466","41002","99999","WI","Milwaukee WI","Milwaukee-Waukesha-West Allis, WI Metropolitan Statistical Area","99999","Wauwatosa, WI","Milwaukee City (North Central)","Milwaukee, WI Urbanized Area",206,0 
"33340","55","55079","0060.00","53210","U","57466","41002","99999","WI","Milwaukee WI","Milwaukee-Waukesha-West Allis, WI Metropolitan Statistical Area","99999","Milwaukee, WI","Milwaukee City (North Central)","Milwaukee, WI Urbanized Area",2658,0.002 
"33340","55","55079","0061.00","53210","U","57466","41002","99999","WI","Milwaukee WI","Milwaukee-Waukesha-West Allis, WI Metropolitan Statistical Area","99999","Milwaukee, WI","Milwaukee City (North Central)","Milwaukee, WI Urbanized Area",2320,0.001 
"33340","55","55079","0062.00","53210","U","57466","41002","99999","WI","Milwaukee WI","Milwaukee-Waukesha-West Allis, WI Metropolitan Statistical Area","99999","Milwaukee, WI","Milwaukee City (North Central)","Milwaukee, WI Urbanized Area",2923,0.002 
"33340","55","55079","0063.00","53210","U","57466","41003","99999","WI","Milwaukee WI","Milwaukee-Waukesha-West Allis, WI Metropolitan Statistical Area","99999","Milwaukee, WI","Milwaukee City (Central)","Milwaukee, WI Urbanized Area",771,0 
"33340","55","55079","0063.00","53216","U","57466","41003","99999","WI","Milwaukee WI","Milwaukee-Waukesha-West Allis, WI Metropolitan Statistical Area","99999","Milwaukee, WI","Milwaukee City (Central)","Milwaukee, WI Urbanized Area",1691,0.001 
"33340","55","55079","0064.00","53206","U","57466","41003","99999","WI","Milwaukee WI","Milwaukee-Waukesha-West Allis, WI Metropolitan Statistical Area","99999","Milwaukee, WI","Milwaukee City (Central)","Milwaukee, WI Urbanized Area",2380,0.002 
"33340","55","55079","0064.00","53210","U","57466","41003","99999","WI","Milwaukee WI","Milwaukee-Waukesha-West Allis, WI Metropolitan Statistical Area","99999","Milwaukee, WI","Milwaukee City (Central)","Milwaukee, WI Urbanized Area",105,0 
"33340","55","55079","0064.00","53216","U","57466","41003","99999","WI","Milwaukee WI","Milwaukee-Waukesha-West Allis, WI Metropolitan Statistical Area","99999","Milwaukee, WI","Milwaukee City (Central)","Milwaukee, WI Urbanized Area",25,0 
"33340","55","55079","0065.00","53206","U","57466","41003","99999","WI","Milwaukee WI","Milwaukee-Waukesha-West Allis, WI Metropolitan Statistical Area","99999","Milwaukee, WI","Milwaukee City (Central)","Milwaukee, WI Urbanized Area",2469,0.002 
"33340","55","55079","0065.00","53216","U","57466","41003","99999","WI","Milwaukee WI","Milwaukee-Waukesha-West Allis, WI Metropolitan Statistical Area","99999","Milwaukee, WI","Milwaukee City (Central)","Milwaukee, WI Urbanized Area",159,0 
"33340","55","55079","0066.00","53206","U","57466","41003","99999","WI","Milwaukee WI","Milwaukee-Waukesha-West Allis, WI Metropolitan Statistical Area","99999","Milwaukee, WI","Milwaukee City (Central)","Milwaukee, WI Urbanized Area",3053,0.002 
"33340","55","55079","0067.00","53206","U","57466","41003","99999","WI","Milwaukee WI","Milwaukee-Waukesha-West Allis, WI Metropolitan Statistical Area","99999","Milwaukee, WI","Milwaukee City (Central)","Milwaukee, WI Urbanized Area",576,0 
"33340","55","55079","0067.00","53212","U","57466","41003","99999","WI","Milwaukee WI","Milwaukee-Waukesha-West Allis, WI Metropolitan Statistical Area","99999","Milwaukee, WI","Milwaukee City (Central)","Milwaukee, WI Urbanized Area",916,0.001 
"33340","55","55079","0068.00","53206","U","57466","41003","99999","WI","Milwaukee WI","Milwaukee-Waukesha-West Allis, WI Metropolitan Statistical Area","99999","Milwaukee, WI","Milwaukee City (Central)","Milwaukee, WI Urbanized Area",2409,0.002 
"33340","55","55079","0068.00","53212","U","57466","41003","99999","WI","Milwaukee WI","Milwaukee-Waukesha-West Allis, WI Metropolitan Statistical Area","99999","Milwaukee, WI","Milwaukee City (Central)","Milwaukee, WI Urbanized Area",404,0 
"33340","55","55079","0069.00","53212","U","57466","41003","99999","WI","Milwaukee WI","Milwaukee-Waukesha-West Allis, WI Metropolitan Statistical Area","99999","Milwaukee, WI","Milwaukee City (Central)","Milwaukee, WI Urbanized Area",2585,0.002 
"33340","55","55079","0070.00","53212","U","57466","41003","99999","WI","Milwaukee WI","Milwaukee-Waukesha-West Allis, WI Metropolitan Statistical Area","99999","Milwaukee, WI","Milwaukee City (Central)","Milwaukee, WI Urbanized Area",3020,0.002 
"33340","55","55079","0071.00","53212","U","57466","41003","99999","WI","Milwaukee WI","Milwaukee-Waukesha-West Allis, WI Metropolitan Statistical Area","99999","Milwaukee, WI","Milwaukee City (Central)","Milwaukee, WI Urbanized Area",1912,0.001 
"33340","55","55079","0072.00","53212","U","57466","41003","99999","WI","Milwaukee WI","Milwaukee-Waukesha-West Allis, WI Metropolitan Statistical Area","99999","Milwaukee, WI","Milwaukee City (Central)","Milwaukee, WI Urbanized Area",2791,0.002 
"33340","55","55079","0073.00","53211","U","57466","40101","99999","WI","Milwaukee WI","Milwaukee-Waukesha-West Allis, WI Metropolitan Statistical Area","99999","Milwaukee, WI","Milwaukee County (Northeast)","Milwaukee, WI Urbanized Area",2477,0.002 
"33340","55","55079","0074.00","53211","U","57466","40101","99999","WI","Milwaukee WI","Milwaukee-Waukesha-West Allis, WI Metropolitan Statistical Area","99999","Milwaukee, WI","Milwaukee County (Northeast)","Milwaukee, WI Urbanized Area",4122,0.003 
"33340","55","55079","0075.00","53211","U","57466","40101","99999","WI","Milwaukee WI","Milwaukee-Waukesha-West Allis, WI Metropolitan Statistical Area","99999","Milwaukee, WI","Milwaukee County (Northeast)","Milwaukee, WI Urbanized Area",2706,0.002 
"33340","55","55079","0076.00","53211","U","57466","40101","99999","WI","Milwaukee WI","Milwaukee-Waukesha-West Allis, WI Metropolitan Statistical Area","99999","Milwaukee, WI","Milwaukee County (Northeast)","Milwaukee, WI Urbanized Area",3275,0.002 
"33340","55","55079","0077.00","53211","U","57466","40101","99999","WI","Milwaukee WI","Milwaukee-Waukesha-West Allis, WI Metropolitan Statistical Area","99999","Milwaukee, WI","Milwaukee County (Northeast)","Milwaukee, WI Urbanized Area",3807,0.002 
"33340","55","55079","0078.00","53211","U","57466","40101","99999","WI","Milwaukee WI","Milwaukee-Waukesha-West Allis, WI Metropolitan Statistical Area","99999","Milwaukee, WI","Milwaukee County (Northeast)","Milwaukee, WI Urbanized Area",3446,0.002 
"33340","55","55079","0079.00","53212","U","57466","41003","99999","WI","Milwaukee WI","Milwaukee-Waukesha-West Allis, WI Metropolitan Statistical Area","99999","Milwaukee, WI","Milwaukee City (Central)","Milwaukee, WI Urbanized Area",2224,0.001 
"33340","55","55079","0080.00","53212","U","57466","41003","99999","WI","Milwaukee WI","Milwaukee-Waukesha-West Allis, WI Metropolitan Statistical Area","99999","Milwaukee, WI","Milwaukee City (Central)","Milwaukee, WI Urbanized Area",1951,0.001 
"33340","55","55079","0081.00","53212","U","57466","41003","99999","WI","Milwaukee WI","Milwaukee-Waukesha-West Allis, WI Metropolitan Statistical Area","99999","Milwaukee, WI","Milwaukee City (Central)","Milwaukee, WI Urbanized Area",1331,0.001 
"33340","55","55079","0084.00","53206","U","57466","41003","99999","WI","Milwaukee WI","Milwaukee-Waukesha-West Allis, WI Metropolitan Statistical Area","99999","Milwaukee, WI","Milwaukee City (Central)","Milwaukee, WI Urbanized Area",1315,0.001 
"33340","55","55079","0085.00","53206","U","57466","41003","99999","WI","Milwaukee WI","Milwaukee-Waukesha-West Allis, WI Metropolitan Statistical Area","99999","Milwaukee, WI","Milwaukee City (Central)","Milwaukee, WI Urbanized Area",1309,0.001 
"33340","55","55079","0086.00","53206","U","57466","41003","99999","WI","Milwaukee WI","Milwaukee-Waukesha-West Allis, WI Metropolitan Statistical Area","99999","Milwaukee, WI","Milwaukee City (Central)","Milwaukee, WI Urbanized Area",1500,0.001 
"33340","55","55079","0087.00","53206","U","57466","41003","99999","WI","Milwaukee WI","Milwaukee-Waukesha-West Allis, WI Metropolitan Statistical Area","99999","Milwaukee, WI","Milwaukee City (Central)","Milwaukee, WI Urbanized Area",1410,0.001 
"33340","55","55079","0088.00","53206","U","57466","41003","99999","WI","Milwaukee WI","Milwaukee-Waukesha-West Allis, WI Metropolitan Statistical Area","99999","Milwaukee, WI","Milwaukee City (Central)","Milwaukee, WI Urbanized Area",1345,0.001 
"33340","55","55079","0088.00","53210","U","57466","41003","99999","WI","Milwaukee WI","Milwaukee-Waukesha-West Allis, WI Metropolitan Statistical Area","99999","Milwaukee, WI","Milwaukee City (Central)","Milwaukee, WI Urbanized Area",776,0 
"33340","55","55079","0089.00","53210","U","57466","41003","99999","WI","Milwaukee WI","Milwaukee-Waukesha-West Allis, WI Metropolitan Statistical Area","99999","Milwaukee, WI","Milwaukee City (Central)","Milwaukee, WI Urbanized Area",1462,0.001 
"33340","55","55079","0090.00","53208","U","57466","41002","99999","WI","Milwaukee WI","Milwaukee-Waukesha-West Allis, WI Metropolitan Statistical Area","99999","Milwaukee, WI","Milwaukee City (North Central)","Milwaukee, WI Urbanized Area",1375,0.001 
"33340","55","55079","0090.00","53210","U","57466","41002","99999","WI","Milwaukee WI","Milwaukee-Waukesha-West Allis, WI Metropolitan Statistical Area","99999","Milwaukee, WI","Milwaukee City (North Central)","Milwaukee, WI Urbanized Area",1169,0.001 
"33340","55","55079","0091.00","53208","U","57466","41002","99999","WI","Milwaukee WI","Milwaukee-Waukesha-West Allis, WI Metropolitan Statistical Area","99999","Milwaukee, WI","Milwaukee City (North Central)","Milwaukee, WI Urbanized Area",1195,0.001 
"33340","55","55079","0091.00","53210","U","57466","41002","99999","WI","Milwaukee WI","Milwaukee-Waukesha-West Allis, WI Metropolitan Statistical Area","99999","Milwaukee, WI","Milwaukee City (North Central)","Milwaukee, WI Urbanized Area",1230,0.001 
"33340","55","55079","0092.00","53208","U","57466","41002","99999","WI","Milwaukee WI","Milwaukee-Waukesha-West Allis, WI Metropolitan Statistical Area","99999","Milwaukee, WI","Milwaukee City (North Central)","Milwaukee, WI Urbanized Area",1025,0.001 
"33340","55","55079","0092.00","53210","U","57466","41002","99999","WI","Milwaukee WI","Milwaukee-Waukesha-West Allis, WI Metropolitan Statistical Area","99999","Milwaukee, WI","Milwaukee City (North Central)","Milwaukee, WI Urbanized Area",876,0.001 
"33340","55","55079","0093.00","53208","U","57466","41002","99999","WI","Milwaukee WI","Milwaukee-Waukesha-West Allis, WI Metropolitan Statistical Area","99999","Milwaukee, WI","Milwaukee City (North Central)","Milwaukee, WI Urbanized Area",1172,0.001 
"33340","55","55079","0093.00","53210","U","57466","41002","99999","WI","Milwaukee WI","Milwaukee-Waukesha-West Allis, WI Metropolitan Statistical Area","99999","Milwaukee, WI","Milwaukee City (North Central)","Milwaukee, WI Urbanized Area",1363,0.001 
"33340","55","55079","0094.00","53208","U","57466","41002","99999","WI","Milwaukee WI","Milwaukee-Waukesha-West Allis, WI Metropolitan Statistical Area","99999","Milwaukee, WI","Milwaukee City (North Central)","Milwaukee, WI Urbanized Area",2423,0.002 
"33340","55","55079","0095.00","53208","U","57466","41002","99999","WI","Milwaukee WI","Milwaukee-Waukesha-West Allis, WI Metropolitan Statistical Area","99999","Milwaukee, WI","Milwaukee City (North Central)","Milwaukee, WI Urbanized Area",2121,0.001 
"33340","55","55079","0096.00","53208","U","57466","41002","99999","WI","Milwaukee WI","Milwaukee-Waukesha-West Allis, WI Metropolitan Statistical Area","99999","Milwaukee, WI","Milwaukee City (North Central)","Milwaukee, WI Urbanized Area",2317,0.001 
"33340","55","55079","0097.00","53208","U","57466","41003","99999","WI","Milwaukee WI","Milwaukee-Waukesha-West Allis, WI Metropolitan Statistical Area","99999","Milwaukee, WI","Milwaukee City (Central)","Milwaukee, WI Urbanized Area",1939,0.001 
"33340","55","55079","0098.00","53208","U","57466","41003","99999","WI","Milwaukee WI","Milwaukee-Waukesha-West Allis, WI Metropolitan Statistical Area","99999","Milwaukee, WI","Milwaukee City (Central)","Milwaukee, WI Urbanized Area",1041,0.001 
"33340","55","55079","0098.00","53210","U","57466","41003","99999","WI","Milwaukee WI","Milwaukee-Waukesha-West Allis, WI Metropolitan Statistical Area","99999","Milwaukee, WI","Milwaukee City (Central)","Milwaukee, WI Urbanized Area",392,0 
"33340","55","55079","0099.00","53205","U","57466","41003","99999","WI","Milwaukee WI","Milwaukee-Waukesha-West Allis, WI Metropolitan Statistical Area","99999","Milwaukee, WI","Milwaukee City (Central)","Milwaukee, WI Urbanized Area",530,0 
"33340","55","55079","0099.00","53206","U","57466","41003","99999","WI","Milwaukee WI","Milwaukee-Waukesha-West Allis, WI Metropolitan Statistical Area","99999","Milwaukee, WI","Milwaukee City (Central)","Milwaukee, WI Urbanized Area",265,0 
"33340","55","55079","0099.00","53208","U","57466","41003","99999","WI","Milwaukee WI","Milwaukee-Waukesha-West Allis, WI Metropolitan Statistical Area","99999","Milwaukee, WI","Milwaukee City (Central)","Milwaukee, WI Urbanized Area",409,0 
"33340","55","55079","0099.00","53210","U","57466","41003","99999","WI","Milwaukee WI","Milwaukee-Waukesha-West Allis, WI Metropolitan Statistical Area","99999","Milwaukee, WI","Milwaukee City (Central)","Milwaukee, WI Urbanized Area",254,0 
"33340","55","55079","0106.00","53212","U","57466","41003","99999","WI","Milwaukee WI","Milwaukee-Waukesha-West Allis, WI Metropolitan Statistical Area","99999","Milwaukee, WI","Milwaukee City (Central)","Milwaukee, WI Urbanized Area",1192,0.001 
"33340","55","55079","0107.00","53212","U","57466","41003","99999","WI","Milwaukee WI","Milwaukee-Waukesha-West Allis, WI Metropolitan Statistical Area","99999","Milwaukee, WI","Milwaukee City (Central)","Milwaukee, WI Urbanized Area",2208,0.001 
"33340","55","55079","0108.00","53202","U","57466","40101","99999","WI","Milwaukee WI","Milwaukee-Waukesha-West Allis, WI Metropolitan Statistical Area","99999","Milwaukee, WI","Milwaukee County (Northeast)","Milwaukee, WI Urbanized Area",2469,0.002 
"33340","55","55079","0110.00","53202","U","57466","40101","99999","WI","Milwaukee WI","Milwaukee-Waukesha-West Allis, WI Metropolitan Statistical Area","99999","Milwaukee, WI","Milwaukee County (Northeast)","Milwaukee, WI Urbanized Area",3428,0.002 
"33340","55","55079","0111.00","53202","U","57466","40101","99999","WI","Milwaukee WI","Milwaukee-Waukesha-West Allis, WI Metropolitan Statistical Area","99999","Milwaukee, WI","Milwaukee County (Northeast)","Milwaukee, WI Urbanized Area",1481,0.001 
"33340","55","55079","0112.00","53202","U","57466","40101","99999","WI","Milwaukee WI","Milwaukee-Waukesha-West Allis, WI Metropolitan Statistical Area","99999","Milwaukee, WI","Milwaukee County (Northeast)","Milwaukee, WI Urbanized Area",2219,0.001 
"33340","55","55079","0113.00","53202","U","57466","40101","99999","WI","Milwaukee WI","Milwaukee-Waukesha-West Allis, WI Metropolitan Statistical Area","99999","Milwaukee, WI","Milwaukee County (Northeast)","Milwaukee, WI Urbanized Area",1829,0.001 
"33340","55","55079","0114.00","53212","U","57466","41003","99999","WI","Milwaukee WI","Milwaukee-Waukesha-West Allis, WI Metropolitan Statistical Area","99999","Milwaukee, WI","Milwaukee City (Central)","Milwaukee, WI Urbanized Area",1137,0.001 
"33340","55","55079","0122.00","53208","U","57466","41003","99999","WI","Milwaukee WI","Milwaukee-Waukesha-West Allis, WI Metropolitan Statistical Area","99999","Milwaukee, WI","Milwaukee City (Central)","Milwaukee, WI Urbanized Area",2557,0.002 
"33340","55","55079","0123.00","53208","U","57466","41003","99999","WI","Milwaukee WI","Milwaukee-Waukesha-West Allis, WI Metropolitan Statistical Area","99999","Milwaukee, WI","Milwaukee City (Central)","Milwaukee, WI Urbanized Area",1122,0.001 
"33340","55","55079","0124.00","53208","U","57466","41004","99999","WI","Milwaukee WI","Milwaukee-Waukesha-West Allis, WI Metropolitan Statistical Area","99999","Milwaukee, WI","Milwaukee City (South Central)","Milwaukee, WI Urbanized Area",2592,0.002 
"33340","55","55079","0125.00","53208","U","57466","41004","99999","WI","Milwaukee WI","Milwaukee-Waukesha-West Allis, WI Metropolitan Statistical Area","99999","Milwaukee, WI","Milwaukee City (South Central)","Milwaukee, WI Urbanized Area",1501,0.001 
"33340","55","55079","0125.00","53213","U","57466","41004","99999","WI","Milwaukee WI","Milwaukee-Waukesha-West Allis, WI Metropolitan Statistical Area","99999","Wauwatosa, WI","Milwaukee City (South Central)","Milwaukee, WI Urbanized Area",508,0 
"33340","55","55079","0125.00","53214","U","57466","41004","99999","WI","Milwaukee WI","Milwaukee-Waukesha-West Allis, WI Metropolitan Statistical Area","99999","West Allis, WI","Milwaukee City (South Central)","Milwaukee, WI Urbanized Area",5,0 
"33340","55","55079","0126.00","53213","U","57466","41004","99999","WI","Milwaukee WI","Milwaukee-Waukesha-West Allis, WI Metropolitan Statistical Area","99999","Wauwatosa, WI","Milwaukee City (South Central)","Milwaukee, WI Urbanized Area",2169,0.001 
"33340","55","55079","0127.00","53213","U","57466","41004","99999","WI","Milwaukee WI","Milwaukee-Waukesha-West Allis, WI Metropolitan Statistical Area","99999","Wauwatosa, WI","Milwaukee City (South Central)","Milwaukee, WI Urbanized Area",396,0 
"33340","55","55079","0127.00","53214","U","57466","41004","99999","WI","Milwaukee WI","Milwaukee-Waukesha-West Allis, WI Metropolitan Statistical Area","99999","West Allis, WI","Milwaukee City (South Central)","Milwaukee, WI Urbanized Area",793,0.001 
"33340","55","55079","0128.00","53214","U","57466","41004","99999","WI","Milwaukee WI","Milwaukee-Waukesha-West Allis, WI Metropolitan Statistical Area","99999","West Allis, WI","Milwaukee City (South Central)","Milwaukee, WI Urbanized Area",1140,0.001 
"33340","55","55079","0128.00","53226","U","57466","41004","99999","WI","Milwaukee WI","Milwaukee-Waukesha-West Allis, WI Metropolitan Statistical Area","99999","Wauwatosa, WI","Milwaukee City (South Central)","Milwaukee, WI Urbanized Area",1818,0.001 
"33340","55","55079","0129.00","53213","U","57466","41004","99999","WI","Milwaukee WI","Milwaukee-Waukesha-West Allis, WI Metropolitan Statistical Area","99999","Wauwatosa, WI","Milwaukee City (South Central)","Milwaukee, WI Urbanized Area",418,0 
"33340","55","55079","0129.00","53214","U","57466","41004","99999","WI","Milwaukee WI","Milwaukee-Waukesha-West Allis, WI Metropolitan Statistical Area","99999","West Allis, WI","Milwaukee City (South Central)","Milwaukee, WI Urbanized Area",2524,0.002 
"33340","55","55079","0130.00","53213","U","57466","41004","99999","WI","Milwaukee WI","Milwaukee-Waukesha-West Allis, WI Metropolitan Statistical Area","99999","Wauwatosa, WI","Milwaukee City (South Central)","Milwaukee, WI Urbanized Area",156,0 
"33340","55","55079","0130.00","53214","U","57466","41004","99999","WI","Milwaukee WI","Milwaukee-Waukesha-West Allis, WI Metropolitan Statistical Area","99999","West Allis, WI","Milwaukee City (South Central)","Milwaukee, WI Urbanized Area",1644,0.001 
"33340","55","55079","0133.00","53208","U","57466","41003","99999","WI","Milwaukee WI","Milwaukee-Waukesha-West Allis, WI Metropolitan Statistical Area","99999","Milwaukee, WI","Milwaukee City (Central)","Milwaukee, WI Urbanized Area",1066,0.001 
"33340","55","55079","0134.00","53208","U","57466","41003","99999","WI","Milwaukee WI","Milwaukee-Waukesha-West Allis, WI Metropolitan Statistical Area","99999","Milwaukee, WI","Milwaukee City (Central)","Milwaukee, WI Urbanized Area",2335,0.002 
"33340","55","55079","0135.00","53208","U","57466","41003","99999","WI","Milwaukee WI","Milwaukee-Waukesha-West Allis, WI Metropolitan Statistical Area","99999","Milwaukee, WI","Milwaukee City (Central)","Milwaukee, WI Urbanized Area",1911,0.001 
"33340","55","55079","0136.00","53208","U","57466","41003","99999","WI","Milwaukee WI","Milwaukee-Waukesha-West Allis, WI Metropolitan Statistical Area","99999","Milwaukee, WI","Milwaukee City (Central)","Milwaukee, WI Urbanized Area",2489,0.002 
"33340","55","55079","0137.00","53208","U","57466","41003","99999","WI","Milwaukee WI","Milwaukee-Waukesha-West Allis, WI Metropolitan Statistical Area","99999","Milwaukee, WI","Milwaukee City (Central)","Milwaukee, WI Urbanized Area",22,0 
"33340","55","55079","0137.00","53233","U","57466","41003","99999","WI","Milwaukee WI","Milwaukee-Waukesha-West Allis, WI Metropolitan Statistical Area","99999","Milwaukee, WI","Milwaukee City (Central)","Milwaukee, WI Urbanized Area",1556,0.001 
"33340","55","55079","0141.00","53205","U","57466","41003","99999","WI","Milwaukee WI","Milwaukee-Waukesha-West Allis, WI Metropolitan Statistical Area","99999","Milwaukee, WI","Milwaukee City (Central)","Milwaukee, WI Urbanized Area",970,0.001 
"33340","55","55079","0141.00","53212","U","57466","41003","99999","WI","Milwaukee WI","Milwaukee-Waukesha-West Allis, WI Metropolitan Statistical Area","99999","Milwaukee, WI","Milwaukee City (Central)","Milwaukee, WI Urbanized Area",581,0 
"33340","55","55079","0143.00","53202","U","57466","40101","99999","WI","Milwaukee WI","Milwaukee-Waukesha-West Allis, WI Metropolitan Statistical Area","99999","Milwaukee, WI","Milwaukee County (Northeast)","Milwaukee, WI Urbanized Area",2297,0.001 
"33340","55","55079","0144.00","53202","U","57466","40101","99999","WI","Milwaukee WI","Milwaukee-Waukesha-West Allis, WI Metropolitan Statistical Area","99999","Milwaukee, WI","Milwaukee County (Northeast)","Milwaukee, WI Urbanized Area",2612,0.002 
"33340","55","55079","0146.00","53233","U","57466","41003","99999","WI","Milwaukee WI","Milwaukee-Waukesha-West Allis, WI Metropolitan Statistical Area","99999","Milwaukee, WI","Milwaukee City (Central)","Milwaukee, WI Urbanized Area",3946,0.003 
"33340","55","55079","0147.00","53233","U","57466","41003","99999","WI","Milwaukee WI","Milwaukee-Waukesha-West Allis, WI Metropolitan Statistical Area","99999","Milwaukee, WI","Milwaukee City (Central)","Milwaukee, WI Urbanized Area",3291,0.002 
"33340","55","55079","0148.00","53233","U","57466","41003","99999","WI","Milwaukee WI","Milwaukee-Waukesha-West Allis, WI Metropolitan Statistical Area","99999","Milwaukee, WI","Milwaukee City (Central)","Milwaukee, WI Urbanized Area",2403,0.002 
"33340","55","55079","0149.00","53208","U","57466","41003","99999","WI","Milwaukee WI","Milwaukee-Waukesha-West Allis, WI Metropolitan Statistical Area","99999","Milwaukee, WI","Milwaukee City (Central)","Milwaukee, WI Urbanized Area",335,0 
"33340","55","55079","0149.00","53233","U","57466","41003","99999","WI","Milwaukee WI","Milwaukee-Waukesha-West Allis, WI Metropolitan Statistical Area","99999","Milwaukee, WI","Milwaukee City (Central)","Milwaukee, WI Urbanized Area",1148,0.001 
"33340","55","55079","0157.00","53204","U","57466","41004","99999","WI","Milwaukee WI","Milwaukee-Waukesha-West Allis, WI Metropolitan Statistical Area","99999","Milwaukee, WI","Milwaukee City (South Central)","Milwaukee, WI Urbanized Area",3231,0.002 
"33340","55","55079","0158.00","53204","U","57466","41004","99999","WI","Milwaukee WI","Milwaukee-Waukesha-West Allis, WI Metropolitan Statistical Area","99999","Milwaukee, WI","Milwaukee City (South Central)","Milwaukee, WI Urbanized Area",3058,0.002 
"33340","55","55079","0159.00","53204","U","57466","41004","99999","WI","Milwaukee WI","Milwaukee-Waukesha-West Allis, WI Metropolitan Statistical Area","99999","Milwaukee, WI","Milwaukee City (South Central)","Milwaukee, WI Urbanized Area",2037,0.001 
"33340","55","55079","0159.00","53215","U","57466","41004","99999","WI","Milwaukee WI","Milwaukee-Waukesha-West Allis, WI Metropolitan Statistical Area","99999","Milwaukee, WI","Milwaukee City (South Central)","Milwaukee, WI Urbanized Area",1782,0.001 
"33340","55","55079","0160.00","53215","U","57466","41004","99999","WI","Milwaukee WI","Milwaukee-Waukesha-West Allis, WI Metropolitan Statistical Area","99999","Milwaukee, WI","Milwaukee City (South Central)","Milwaukee, WI Urbanized Area",3310,0.002 
"33340","55","55079","0161.00","53215","U","57466","41004","99999","WI","Milwaukee WI","Milwaukee-Waukesha-West Allis, WI Metropolitan Statistical Area","99999","Milwaukee, WI","Milwaukee City (South Central)","Milwaukee, WI Urbanized Area",3574,0.002 
"33340","55","55079","0162.00","53204","U","57466","41004","99999","WI","Milwaukee WI","Milwaukee-Waukesha-West Allis, WI Metropolitan Statistical Area","99999","Milwaukee, WI","Milwaukee City (South Central)","Milwaukee, WI Urbanized Area",2027,0.001 
"33340","55","55079","0162.00","53215","U","57466","41004","99999","WI","Milwaukee WI","Milwaukee-Waukesha-West Allis, WI Metropolitan Statistical Area","99999","Milwaukee, WI","Milwaukee City (South Central)","Milwaukee, WI Urbanized Area",1339,0.001 
"33340","55","55079","0163.00","53204","U","57466","41004","99999","WI","Milwaukee WI","Milwaukee-Waukesha-West Allis, WI Metropolitan Statistical Area","99999","Milwaukee, WI","Milwaukee City (South Central)","Milwaukee, WI Urbanized Area",5124,0.003 
"33340","55","55079","0164.00","53204","U","57466","41004","99999","WI","Milwaukee WI","Milwaukee-Waukesha-West Allis, WI Metropolitan Statistical Area","99999","Milwaukee, WI","Milwaukee City (South Central)","Milwaukee, WI Urbanized Area",4948,0.003 
"33340","55","55079","0165.00","53204","U","57466","41004","99999","WI","Milwaukee WI","Milwaukee-Waukesha-West Allis, WI Metropolitan Statistical Area","99999","Milwaukee, WI","Milwaukee City (South Central)","Milwaukee, WI Urbanized Area",2695,0.002 
"33340","55","55079","0166.00","53204","U","57466","41004","99999","WI","Milwaukee WI","Milwaukee-Waukesha-West Allis, WI Metropolitan Statistical Area","99999","Milwaukee, WI","Milwaukee City (South Central)","Milwaukee, WI Urbanized Area",2313,0.001 
"33340","55","55079","0167.00","53204","U","57466","41004","99999","WI","Milwaukee WI","Milwaukee-Waukesha-West Allis, WI Metropolitan Statistical Area","99999","Milwaukee, WI","Milwaukee City (South Central)","Milwaukee, WI Urbanized Area",3355,0.002 
"33340","55","55079","0168.00","53204","U","57466","41004","99999","WI","Milwaukee WI","Milwaukee-Waukesha-West Allis, WI Metropolitan Statistical Area","99999","Milwaukee, WI","Milwaukee City (South Central)","Milwaukee, WI Urbanized Area",3450,0.002 
"33340","55","55079","0169.00","53204","U","57466","41004","99999","WI","Milwaukee WI","Milwaukee-Waukesha-West Allis, WI Metropolitan Statistical Area","99999","Milwaukee, WI","Milwaukee City (South Central)","Milwaukee, WI Urbanized Area",3895,0.003 
"33340","55","55079","0169.00","53215","U","57466","41004","99999","WI","Milwaukee WI","Milwaukee-Waukesha-West Allis, WI Metropolitan Statistical Area","99999","Milwaukee, WI","Milwaukee City (South Central)","Milwaukee, WI Urbanized Area",235,0 
"33340","55","55079","0170.00","53204","U","57466","41004","99999","WI","Milwaukee WI","Milwaukee-Waukesha-West Allis, WI Metropolitan Statistical Area","99999","Milwaukee, WI","Milwaukee City (South Central)","Milwaukee, WI Urbanized Area",3242,0.002 
"33340","55","55079","0170.00","53215","U","57466","41004","99999","WI","Milwaukee WI","Milwaukee-Waukesha-West Allis, WI Metropolitan Statistical Area","99999","Milwaukee, WI","Milwaukee City (South Central)","Milwaukee, WI Urbanized Area",2870,0.002 
"33340","55","55079","0171.00","53215","U","57466","41004","99999","WI","Milwaukee WI","Milwaukee-Waukesha-West Allis, WI Metropolitan Statistical Area","99999","Milwaukee, WI","Milwaukee City (South Central)","Milwaukee, WI Urbanized Area",2937,0.002 
"33340","55","55079","0172.00","53215","U","57466","41004","99999","WI","Milwaukee WI","Milwaukee-Waukesha-West Allis, WI Metropolitan Statistical Area","99999","Milwaukee, WI","Milwaukee City (South Central)","Milwaukee, WI Urbanized Area",2509,0.002 
"33340","55","55079","0173.00","53215","U","57466","41004","99999","WI","Milwaukee WI","Milwaukee-Waukesha-West Allis, WI Metropolitan Statistical Area","99999","Milwaukee, WI","Milwaukee City (South Central)","Milwaukee, WI Urbanized Area",3894,0.003 
"33340","55","55079","0174.00","53215","U","57466","41004","99999","WI","Milwaukee WI","Milwaukee-Waukesha-West Allis, WI Metropolitan Statistical Area","99999","Milwaukee, WI","Milwaukee City (South Central)","Milwaukee, WI Urbanized Area",2953,0.002 
"33340","55","55079","0175.00","53215","U","57466","41004","99999","WI","Milwaukee WI","Milwaukee-Waukesha-West Allis, WI Metropolitan Statistical Area","99999","Milwaukee, WI","Milwaukee City (South Central)","Milwaukee, WI Urbanized Area",4185,0.003 
"33340","55","55079","0176.00","53215","U","57466","41004","99999","WI","Milwaukee WI","Milwaukee-Waukesha-West Allis, WI Metropolitan Statistical Area","99999","Milwaukee, WI","Milwaukee City (South Central)","Milwaukee, WI Urbanized Area",3195,0.002 
"33340","55","55079","0179.00","53207","U","57466","41005","99999","WI","Milwaukee WI","Milwaukee-Waukesha-West Allis, WI Metropolitan Statistical Area","99999","Milwaukee, WI","Milwaukee City (South)","Milwaukee, WI Urbanized Area",3003,0.002 
"33340","55","55079","0180.00","53207","U","57466","41005","99999","WI","Milwaukee WI","Milwaukee-Waukesha-West Allis, WI Metropolitan Statistical Area","99999","Milwaukee, WI","Milwaukee City (South)","Milwaukee, WI Urbanized Area",2749,0.002 
"33340","55","55079","0181.00","53207","U","57466","41005","99999","WI","Milwaukee WI","Milwaukee-Waukesha-West Allis, WI Metropolitan Statistical Area","99999","Milwaukee, WI","Milwaukee City (South)","Milwaukee, WI Urbanized Area",1637,0.001 
"33340","55","55079","0182.00","53207","U","57466","41005","99999","WI","Milwaukee WI","Milwaukee-Waukesha-West Allis, WI Metropolitan Statistical Area","99999","Milwaukee, WI","Milwaukee City (South)","Milwaukee, WI Urbanized Area",1608,0.001 
"33340","55","55079","0183.00","53207","U","57466","41005","99999","WI","Milwaukee WI","Milwaukee-Waukesha-West Allis, WI Metropolitan Statistical Area","99999","Milwaukee, WI","Milwaukee City (South)","Milwaukee, WI Urbanized Area",2344,0.002 
"33340","55","55079","0184.00","53207","U","57466","41005","99999","WI","Milwaukee WI","Milwaukee-Waukesha-West Allis, WI Metropolitan Statistical Area","99999","Milwaukee, WI","Milwaukee City (South)","Milwaukee, WI Urbanized Area",1404,0.001 
"33340","55","55079","0185.00","53207","U","57466","41005","99999","WI","Milwaukee WI","Milwaukee-Waukesha-West Allis, WI Metropolitan Statistical Area","99999","Milwaukee, WI","Milwaukee City (South)","Milwaukee, WI Urbanized Area",1633,0.001 
"33340","55","55079","0186.00","53215","U","57466","41004","99999","WI","Milwaukee WI","Milwaukee-Waukesha-West Allis, WI Metropolitan Statistical Area","99999","Milwaukee, WI","Milwaukee City (South Central)","Milwaukee, WI Urbanized Area",3000,0.002 
"33340","55","55079","0187.00","53215","U","57466","41004","99999","WI","Milwaukee WI","Milwaukee-Waukesha-West Allis, WI Metropolitan Statistical Area","99999","Milwaukee, WI","Milwaukee City (South Central)","Milwaukee, WI Urbanized Area",3876,0.002 
"33340","55","55079","0188.00","53215","U","57466","41004","99999","WI","Milwaukee WI","Milwaukee-Waukesha-West Allis, WI Metropolitan Statistical Area","99999","Milwaukee, WI","Milwaukee City (South Central)","Milwaukee, WI Urbanized Area",2066,0.001 
"33340","55","55079","0189.00","53215","U","57466","41004","99999","WI","Milwaukee WI","Milwaukee-Waukesha-West Allis, WI Metropolitan Statistical Area","99999","Milwaukee, WI","Milwaukee City (South Central)","Milwaukee, WI Urbanized Area",1635,0.001 
"33340","55","55079","0190.00","53215","U","57466","41005","99999","WI","Milwaukee WI","Milwaukee-Waukesha-West Allis, WI Metropolitan Statistical Area","99999","Milwaukee, WI","Milwaukee City (South)","Milwaukee, WI Urbanized Area",870,0.001 
"33340","55","55079","0190.00","53219","U","57466","41005","99999","WI","Milwaukee WI","Milwaukee-Waukesha-West Allis, WI Metropolitan Statistical Area","99999","Milwaukee, WI","Milwaukee City (South)","Milwaukee, WI Urbanized Area",3675,0.002 
"33340","55","55079","0191.00","53215","U","57466","41005","99999","WI","Milwaukee WI","Milwaukee-Waukesha-West Allis, WI Metropolitan Statistical Area","99999","Milwaukee, WI","Milwaukee City (South)","Milwaukee, WI Urbanized Area",1512,0.001 
"33340","55","55079","0191.00","53219","U","57466","41005","99999","WI","Milwaukee WI","Milwaukee-Waukesha-West Allis, WI Metropolitan Statistical Area","99999","Milwaukee, WI","Milwaukee City (South)","Milwaukee, WI Urbanized Area",996,0.001 
"33340","55","55079","0191.00","53220","U","57466","41005","99999","WI","Milwaukee WI","Milwaukee-Waukesha-West Allis, WI Metropolitan Statistical Area","99999","Greenfield, WI","Milwaukee City (South)","Milwaukee, WI Urbanized Area",618,0 
"33340","55","55079","0191.00","53221","U","57466","41005","99999","WI","Milwaukee WI","Milwaukee-Waukesha-West Allis, WI Metropolitan Statistical Area","99999","Milwaukee, WI","Milwaukee City (South)","Milwaukee, WI Urbanized Area",458,0 
"33340","55","55079","0192.00","53219","U","57466","41005","99999","WI","Milwaukee WI","Milwaukee-Waukesha-West Allis, WI Metropolitan Statistical Area","99999","Milwaukee, WI","Milwaukee City (South)","Milwaukee, WI Urbanized Area",3186,0.002 
"33340","55","55079","0193.00","53219","U","57466","41005","99999","WI","Milwaukee WI","Milwaukee-Waukesha-West Allis, WI Metropolitan Statistical Area","99999","Milwaukee, WI","Milwaukee City (South)","Milwaukee, WI Urbanized Area",2557,0.002 
"33340","55","55079","0194.00","53227","U","57466","41005","99999","WI","Milwaukee WI","Milwaukee-Waukesha-West Allis, WI Metropolitan Statistical Area","99999","West Allis, WI","Milwaukee City (South)","Milwaukee, WI Urbanized Area",3651,0.002 
"33340","55","55079","0194.00","53228","U","57466","41005","99999","WI","Milwaukee WI","Milwaukee-Waukesha-West Allis, WI Metropolitan Statistical Area","99999","Greenfield, WI","Milwaukee City (South)","Milwaukee, WI Urbanized Area",81,0 
"33340","55","55079","0195.00","53228","U","57466","41005","99999","WI","Milwaukee WI","Milwaukee-Waukesha-West Allis, WI Metropolitan Statistical Area","99999","Greenfield, WI","Milwaukee City (South)","Milwaukee, WI Urbanized Area",3350,0.002 
"33340","55","55079","0196.00","53219","U","57466","41005","99999","WI","Milwaukee WI","Milwaukee-Waukesha-West Allis, WI Metropolitan Statistical Area","99999","Milwaukee, WI","Milwaukee City (South)","Milwaukee, WI Urbanized Area",3354,0.002 
"33340","55","55079","0196.00","53220","U","57466","41005","99999","WI","Milwaukee WI","Milwaukee-Waukesha-West Allis, WI Metropolitan Statistical Area","99999","Greenfield, WI","Milwaukee City (South)","Milwaukee, WI Urbanized Area",144,0 
"33340","55","55079","0196.00","53227","U","57466","41005","99999","WI","Milwaukee WI","Milwaukee-Waukesha-West Allis, WI Metropolitan Statistical Area","99999","West Allis, WI","Milwaukee City (South)","Milwaukee, WI Urbanized Area",118,0 
"33340","55","55079","0197.00","53220","U","57466","41005","99999","WI","Milwaukee WI","Milwaukee-Waukesha-West Allis, WI Metropolitan Statistical Area","99999","Greenfield, WI","Milwaukee City (South)","Milwaukee, WI Urbanized Area",5175,0.003 
"33340","55","55079","0197.00","53228","U","57466","41005","99999","WI","Milwaukee WI","Milwaukee-Waukesha-West Allis, WI Metropolitan Statistical Area","99999","Greenfield, WI","Milwaukee City (South)","Milwaukee, WI Urbanized Area",169,0 
"33340","55","55079","0198.00","53219","U","57466","41005","99999","WI","Milwaukee WI","Milwaukee-Waukesha-West Allis, WI Metropolitan Statistical Area","99999","Milwaukee, WI","Milwaukee City (South)","Milwaukee, WI Urbanized Area",3006,0.002 
"33340","55","55079","0198.00","53220","U","57466","41005","99999","WI","Milwaukee WI","Milwaukee-Waukesha-West Allis, WI Metropolitan Statistical Area","99999","Greenfield, WI","Milwaukee City (South)","Milwaukee, WI Urbanized Area",1907,0.001 
"33340","55","55079","0199.00","53220","U","57466","41005","99999","WI","Milwaukee WI","Milwaukee-Waukesha-West Allis, WI Metropolitan Statistical Area","99999","Greenfield, WI","Milwaukee City (South)","Milwaukee, WI Urbanized Area",3479,0.002 
"33340","55","55079","0200.00","53215","U","57466","41005","99999","WI","Milwaukee WI","Milwaukee-Waukesha-West Allis, WI Metropolitan Statistical Area","99999","Milwaukee, WI","Milwaukee City (South)","Milwaukee, WI Urbanized Area",1901,0.001 
"33340","55","55079","0200.00","53221","U","57466","41005","99999","WI","Milwaukee WI","Milwaukee-Waukesha-West Allis, WI Metropolitan Statistical Area","99999","Milwaukee, WI","Milwaukee City (South)","Milwaukee, WI Urbanized Area",1510,0.001 
"33340","55","55079","0201.00","53215","U","57466","41005","99999","WI","Milwaukee WI","Milwaukee-Waukesha-West Allis, WI Metropolitan Statistical Area","99999","Milwaukee, WI","Milwaukee City (South)","Milwaukee, WI Urbanized Area",3424,0.002 
"33340","55","55079","0201.00","53221","U","57466","41005","99999","WI","Milwaukee WI","Milwaukee-Waukesha-West Allis, WI Metropolitan Statistical Area","99999","Milwaukee, WI","Milwaukee City (South)","Milwaukee, WI Urbanized Area",105,0 
"33340","55","55079","0202.00","53221","U","57466","41005","99999","WI","Milwaukee WI","Milwaukee-Waukesha-West Allis, WI Metropolitan Statistical Area","99999","Milwaukee, WI","Milwaukee City (South)","Milwaukee, WI Urbanized Area",3024,0.002 
"33340","55","55079","0203.00","53215","U","57466","41005","99999","WI","Milwaukee WI","Milwaukee-Waukesha-West Allis, WI Metropolitan Statistical Area","99999","Milwaukee, WI","Milwaukee City (South)","Milwaukee, WI Urbanized Area",2129,0.001 
"33340","55","55079","0203.00","53221","U","57466","41005","99999","WI","Milwaukee WI","Milwaukee-Waukesha-West Allis, WI Metropolitan Statistical Area","99999","Milwaukee, WI","Milwaukee City (South)","Milwaukee, WI Urbanized Area",1644,0.001 
"33340","55","55079","0204.00","53215","U","57466","41005","99999","WI","Milwaukee WI","Milwaukee-Waukesha-West Allis, WI Metropolitan Statistical Area","99999","Milwaukee, WI","Milwaukee City (South)","Milwaukee, WI Urbanized Area",3216,0.002 
"33340","55","55079","0205.00","53215","U","57466","41005","99999","WI","Milwaukee WI","Milwaukee-Waukesha-West Allis, WI Metropolitan Statistical Area","99999","Milwaukee, WI","Milwaukee City (South)","Milwaukee, WI Urbanized Area",2921,0.002 
"33340","55","55079","0206.00","53207","U","57466","41005","99999","WI","Milwaukee WI","Milwaukee-Waukesha-West Allis, WI Metropolitan Statistical Area","99999","Milwaukee, WI","Milwaukee City (South)","Milwaukee, WI Urbanized Area",3525,0.002 
"33340","55","55079","0207.00","53207","U","57466","41005","99999","WI","Milwaukee WI","Milwaukee-Waukesha-West Allis, WI Metropolitan Statistical Area","99999","Milwaukee, WI","Milwaukee City (South)","Milwaukee, WI Urbanized Area",4311,0.003 
"33340","55","55079","0208.00","53207","U","57466","41005","99999","WI","Milwaukee WI","Milwaukee-Waukesha-West Allis, WI Metropolitan Statistical Area","99999","Milwaukee, WI","Milwaukee City (South)","Milwaukee, WI Urbanized Area",2982,0.002 
"33340","55","55079","0208.00","53235","U","57466","41005","99999","WI","Milwaukee WI","Milwaukee-Waukesha-West Allis, WI Metropolitan Statistical Area","99999","St. Francis, WI","Milwaukee City (South)","Milwaukee, WI Urbanized Area",27,0 
"33340","55","55079","0209.00","53207","U","57466","41005","99999","WI","Milwaukee WI","Milwaukee-Waukesha-West Allis, WI Metropolitan Statistical Area","99999","Milwaukee, WI","Milwaukee City (South)","Milwaukee, WI Urbanized Area",2553,0.002 
"33340","55","55079","0210.00","53207","U","57466","41005","99999","WI","Milwaukee WI","Milwaukee-Waukesha-West Allis, WI Metropolitan Statistical Area","99999","Milwaukee, WI","Milwaukee City (South)","Milwaukee, WI Urbanized Area",2189,0.001 
"33340","55","55079","0211.00","53207","U","57466","41005","99999","WI","Milwaukee WI","Milwaukee-Waukesha-West Allis, WI Metropolitan Statistical Area","99999","Milwaukee, WI","Milwaukee City (South)","Milwaukee, WI Urbanized Area",1364,0.001 
"33340","55","55079","0212.00","53207","U","57466","41005","99999","WI","Milwaukee WI","Milwaukee-Waukesha-West Allis, WI Metropolitan Statistical Area","99999","Milwaukee, WI","Milwaukee City (South)","Milwaukee, WI Urbanized Area",1437,0.001 
"33340","55","55079","0212.00","53221","U","57466","41005","99999","WI","Milwaukee WI","Milwaukee-Waukesha-West Allis, WI Metropolitan Statistical Area","99999","Milwaukee, WI","Milwaukee City (South)","Milwaukee, WI Urbanized Area",660,0 
"33340","55","55079","0213.00","53221","U","57466","41005","99999","WI","Milwaukee WI","Milwaukee-Waukesha-West Allis, WI Metropolitan Statistical Area","99999","Milwaukee, WI","Milwaukee City (South)","Milwaukee, WI Urbanized Area",1631,0.001 
"33340","55","55079","0214.00","53221","U","57466","41005","99999","WI","Milwaukee WI","Milwaukee-Waukesha-West Allis, WI Metropolitan Statistical Area","99999","Milwaukee, WI","Milwaukee City (South)","Milwaukee, WI Urbanized Area",3288,0.002 
"33340","55","55079","0215.00","53221","U","57466","41005","99999","WI","Milwaukee WI","Milwaukee-Waukesha-West Allis, WI Metropolitan Statistical Area","99999","Milwaukee, WI","Milwaukee City (South)","Milwaukee, WI Urbanized Area",2824,0.002 
"33340","55","55079","0216.00","53207","U","57466","41005","99999","WI","Milwaukee WI","Milwaukee-Waukesha-West Allis, WI Metropolitan Statistical Area","99999","Milwaukee, WI","Milwaukee City (South)","Milwaukee, WI Urbanized Area",4,0 
"33340","55","55079","0216.00","53221","U","57466","41005","99999","WI","Milwaukee WI","Milwaukee-Waukesha-West Allis, WI Metropolitan Statistical Area","99999","Milwaukee, WI","Milwaukee City (South)","Milwaukee, WI Urbanized Area",4361,0.003 
"33340","55","55079","0217.00","53207","U","57466","41005","99999","WI","Milwaukee WI","Milwaukee-Waukesha-West Allis, WI Metropolitan Statistical Area","99999","Milwaukee, WI","Milwaukee City (South)","Milwaukee, WI Urbanized Area",519,0 
"33340","55","55079","0217.00","53221","U","57466","41005","99999","WI","Milwaukee WI","Milwaukee-Waukesha-West Allis, WI Metropolitan Statistical Area","99999","Milwaukee, WI","Milwaukee City (South)","Milwaukee, WI Urbanized Area",5623,0.004 
"33340","55","55079","0218.00","53221","U","57466","41005","99999","WI","Milwaukee WI","Milwaukee-Waukesha-West Allis, WI Metropolitan Statistical Area","99999","Milwaukee, WI","Milwaukee City (South)","Milwaukee, WI Urbanized Area",2223,0.001 
"33340","55","55079","0301.00","53217","U","57466","40101","99999","WI","Milwaukee WI","Milwaukee-Waukesha-West Allis, WI Metropolitan Statistical Area","99999","Whitefish Bay, WI","Milwaukee County (Northeast)","Milwaukee, WI Urbanized Area",4300,0.003 
"33340","55","55079","0351.00","53217","U","57466","40101","99999","WI","Milwaukee WI","Milwaukee-Waukesha-West Allis, WI Metropolitan Statistical Area","99999","Whitefish Bay, WI","Milwaukee County (Northeast)","Milwaukee, WI Urbanized Area",2257,0.001 
"33340","55","55079","0352.00","53217","U","57466","40101","99999","WI","Milwaukee WI","Milwaukee-Waukesha-West Allis, WI Metropolitan Statistical Area","99999","Whitefish Bay, WI","Milwaukee County (Northeast)","Milwaukee, WI Urbanized Area",4435,0.003 
"33340","55","55079","0401.00","53217","U","57466","40101","99999","WI","Milwaukee WI","Milwaukee-Waukesha-West Allis, WI Metropolitan Statistical Area","99999","Whitefish Bay, WI","Milwaukee County (Northeast)","Milwaukee, WI Urbanized Area",1597,0.001 
"33340","55","55079","0501.01","53223","U","57466","40101","99999","WI","Milwaukee WI","Milwaukee-Waukesha-West Allis, WI Metropolitan Statistical Area","99999","Milwaukee, WI","Milwaukee County (Northeast)","Milwaukee, WI Urbanized Area",5990,0.004 
"33340","55","55079","0501.02","53209","U","57466","40101","99999","WI","Milwaukee WI","Milwaukee-Waukesha-West Allis, WI Metropolitan Statistical Area","99999","Milwaukee, WI","Milwaukee County (Northeast)","Milwaukee, WI Urbanized Area",2302,0.001 
"33340","55","55079","0501.02","53223","U","57466","40101","99999","WI","Milwaukee WI","Milwaukee-Waukesha-West Allis, WI Metropolitan Statistical Area","99999","Milwaukee, WI","Milwaukee County (Northeast)","Milwaukee, WI Urbanized Area",3707,0.002 
"33340","55","55079","0601.01","53209","U","57466","40101","99999","WI","Milwaukee WI","Milwaukee-Waukesha-West Allis, WI Metropolitan Statistical Area","99999","Milwaukee, WI","Milwaukee County (Northeast)","Milwaukee, WI Urbanized Area",1720,0.001 
"33340","55","55079","0601.01","53217","U","57466","40101","99999","WI","Milwaukee WI","Milwaukee-Waukesha-West Allis, WI Metropolitan Statistical Area","99999","Whitefish Bay, WI","Milwaukee County (Northeast)","Milwaukee, WI Urbanized Area",2318,0.001 
"33340","55","55079","0601.02","53209","U","57466","40101","99999","WI","Milwaukee WI","Milwaukee-Waukesha-West Allis, WI Metropolitan Statistical Area","99999","Milwaukee, WI","Milwaukee County (Northeast)","Milwaukee, WI Urbanized Area",3138,0.002 
"33340","55","55079","0602.00","53209","U","57466","40101","99999","WI","Milwaukee WI","Milwaukee-Waukesha-West Allis, WI Metropolitan Statistical Area","99999","Milwaukee, WI","Milwaukee County (Northeast)","Milwaukee, WI Urbanized Area",3763,0.002 
"33340","55","55079","0602.00","53212","U","57466","40101","99999","WI","Milwaukee WI","Milwaukee-Waukesha-West Allis, WI Metropolitan Statistical Area","99999","Milwaukee, WI","Milwaukee County (Northeast)","Milwaukee, WI Urbanized Area",3,0 
"33340","55","55079","0602.00","53217","U","57466","40101","99999","WI","Milwaukee WI","Milwaukee-Waukesha-West Allis, WI Metropolitan Statistical Area","99999","Whitefish Bay, WI","Milwaukee County (Northeast)","Milwaukee, WI Urbanized Area",1939,0.001 
"33340","55","55079","0701.00","53217","U","57466","40101","99999","WI","Milwaukee WI","Milwaukee-Waukesha-West Allis, WI Metropolitan Statistical Area","99999","Whitefish Bay, WI","Milwaukee County (Northeast)","Milwaukee, WI Urbanized Area",4373,0.003 
"33340","55","55079","0702.00","53211","U","57466","40101","99999","WI","Milwaukee WI","Milwaukee-Waukesha-West Allis, WI Metropolitan Statistical Area","99999","Milwaukee, WI","Milwaukee County (Northeast)","Milwaukee, WI Urbanized Area",1472,0.001 
"33340","55","55079","0702.00","53217","U","57466","40101","99999","WI","Milwaukee WI","Milwaukee-Waukesha-West Allis, WI Metropolitan Statistical Area","99999","Whitefish Bay, WI","Milwaukee County (Northeast)","Milwaukee, WI Urbanized Area",3700,0.002 
"33340","55","55079","0703.00","53211","U","57466","40101","99999","WI","Milwaukee WI","Milwaukee-Waukesha-West Allis, WI Metropolitan Statistical Area","99999","Milwaukee, WI","Milwaukee County (Northeast)","Milwaukee, WI Urbanized Area",915,0.001 
"33340","55","55079","0703.00","53217","U","57466","40101","99999","WI","Milwaukee WI","Milwaukee-Waukesha-West Allis, WI Metropolitan Statistical Area","99999","Whitefish Bay, WI","Milwaukee County (Northeast)","Milwaukee, WI Urbanized Area",3626,0.002 
"33340","55","55079","0801.00","53211","U","57466","40101","99999","WI","Milwaukee WI","Milwaukee-Waukesha-West Allis, WI Metropolitan Statistical Area","99999","Milwaukee, WI","Milwaukee County (Northeast)","Milwaukee, WI Urbanized Area",2680,0.002 
"33340","55","55079","0802.00","53211","U","57466","40101","99999","WI","Milwaukee WI","Milwaukee-Waukesha-West Allis, WI Metropolitan Statistical Area","99999","Milwaukee, WI","Milwaukee County (Northeast)","Milwaukee, WI Urbanized Area",3368,0.002 
"33340","55","55079","0803.00","53211","U","57466","40101","99999","WI","Milwaukee WI","Milwaukee-Waukesha-West Allis, WI Metropolitan Statistical Area","99999","Milwaukee, WI","Milwaukee County (Northeast)","Milwaukee, WI Urbanized Area",3884,0.002 
"33340","55","55079","0804.00","53211","U","57466","40101","99999","WI","Milwaukee WI","Milwaukee-Waukesha-West Allis, WI Metropolitan Statistical Area","99999","Milwaukee, WI","Milwaukee County (Northeast)","Milwaukee, WI Urbanized Area",3254,0.002 
"33340","55","55079","0901.00","53222","U","57466","40701","99999","WI","Milwaukee WI","Milwaukee-Waukesha-West Allis, WI Metropolitan Statistical Area","99999","Milwaukee, WI","Milwaukee County (West)","Milwaukee, WI Urbanized Area",1662,0.001 
"33340","55","55079","0901.00","53225","U","57466","40701","99999","WI","Milwaukee WI","Milwaukee-Waukesha-West Allis, WI Metropolitan Statistical Area","99999","Milwaukee, WI","Milwaukee County (West)","Milwaukee, WI Urbanized Area",2896,0.002 
"33340","55","55079","0902.00","53222","U","57466","40701","99999","WI","Milwaukee WI","Milwaukee-Waukesha-West Allis, WI Metropolitan Statistical Area","99999","Milwaukee, WI","Milwaukee County (West)","Milwaukee, WI Urbanized Area",1800,0.001 
"33340","55","55079","0903.00","53222","U","57466","40701","99999","WI","Milwaukee WI","Milwaukee-Waukesha-West Allis, WI Metropolitan Statistical Area","99999","Milwaukee, WI","Milwaukee County (West)","Milwaukee, WI Urbanized Area",819,0.001 
"33340","55","55079","0903.00","53226","U","57466","40701","99999","WI","Milwaukee WI","Milwaukee-Waukesha-West Allis, WI Metropolitan Statistical Area","99999","Wauwatosa, WI","Milwaukee County (West)","Milwaukee, WI Urbanized Area",2478,0.002 
"33340","55","55079","0906.00","53226","U","57466","40701","99999","WI","Milwaukee WI","Milwaukee-Waukesha-West Allis, WI Metropolitan Statistical Area","99999","Wauwatosa, WI","Milwaukee County (West)","Milwaukee, WI Urbanized Area",4642,0.003 
"33340","55","55079","0907.00","53213","U","57466","40701","99999","WI","Milwaukee WI","Milwaukee-Waukesha-West Allis, WI Metropolitan Statistical Area","99999","Wauwatosa, WI","Milwaukee County (West)","Milwaukee, WI Urbanized Area",107,0 
"33340","55","55079","0907.00","53226","U","57466","40701","99999","WI","Milwaukee WI","Milwaukee-Waukesha-West Allis, WI Metropolitan Statistical Area","99999","Wauwatosa, WI","Milwaukee County (West)","Milwaukee, WI Urbanized Area",3052,0.002 
"33340","55","55079","0908.00","53213","U","57466","40701","99999","WI","Milwaukee WI","Milwaukee-Waukesha-West Allis, WI Metropolitan Statistical Area","99999","Wauwatosa, WI","Milwaukee County (West)","Milwaukee, WI Urbanized Area",1115,0.001 
"33340","55","55079","0908.00","53226","U","57466","40701","99999","WI","Milwaukee WI","Milwaukee-Waukesha-West Allis, WI Metropolitan Statistical Area","99999","Wauwatosa, WI","Milwaukee County (West)","Milwaukee, WI Urbanized Area",1248,0.001 
"33340","55","55079","0909.00","53208","U","57466","40701","99999","WI","Milwaukee WI","Milwaukee-Waukesha-West Allis, WI Metropolitan Statistical Area","99999","Milwaukee, WI","Milwaukee County (West)","Milwaukee, WI Urbanized Area",34,0 
"33340","55","55079","0909.00","53210","U","57466","40701","99999","WI","Milwaukee WI","Milwaukee-Waukesha-West Allis, WI Metropolitan Statistical Area","99999","Milwaukee, WI","Milwaukee County (West)","Milwaukee, WI Urbanized Area",131,0 
"33340","55","55079","0909.00","53213","U","57466","40701","99999","WI","Milwaukee WI","Milwaukee-Waukesha-West Allis, WI Metropolitan Statistical Area","99999","Wauwatosa, WI","Milwaukee County (West)","Milwaukee, WI Urbanized Area",3672,0.002 
"33340","55","55079","0910.00","53210","U","57466","40701","99999","WI","Milwaukee WI","Milwaukee-Waukesha-West Allis, WI Metropolitan Statistical Area","99999","Milwaukee, WI","Milwaukee County (West)","Milwaukee, WI Urbanized Area",228,0 
"33340","55","55079","0910.00","53213","U","57466","40701","99999","WI","Milwaukee WI","Milwaukee-Waukesha-West Allis, WI Metropolitan Statistical Area","99999","Wauwatosa, WI","Milwaukee County (West)","Milwaukee, WI Urbanized Area",4210,0.003 
"33340","55","55079","0911.00","53208","U","57466","40701","99999","WI","Milwaukee WI","Milwaukee-Waukesha-West Allis, WI Metropolitan Statistical Area","99999","Milwaukee, WI","Milwaukee County (West)","Milwaukee, WI Urbanized Area",95,0 
"33340","55","55079","0911.00","53213","U","57466","40701","99999","WI","Milwaukee WI","Milwaukee-Waukesha-West Allis, WI Metropolitan Statistical Area","99999","Wauwatosa, WI","Milwaukee County (West)","Milwaukee, WI Urbanized Area",3559,0.002 
"33340","55","55079","0911.00","53226","U","57466","40701","99999","WI","Milwaukee WI","Milwaukee-Waukesha-West Allis, WI Metropolitan Statistical Area","99999","Wauwatosa, WI","Milwaukee County (West)","Milwaukee, WI Urbanized Area",596,0 
"33340","55","55079","0912.00","53208","U","57466","40701","99999","WI","Milwaukee WI","Milwaukee-Waukesha-West Allis, WI Metropolitan Statistical Area","99999","Milwaukee, WI","Milwaukee County (West)","Milwaukee, WI Urbanized Area",57,0 
"33340","55","55079","0912.00","53213","U","57466","40701","99999","WI","Milwaukee WI","Milwaukee-Waukesha-West Allis, WI Metropolitan Statistical Area","99999","Wauwatosa, WI","Milwaukee County (West)","Milwaukee, WI Urbanized Area",4533,0.003 
"33340","55","55079","0912.00","53226","U","57466","40701","99999","WI","Milwaukee WI","Milwaukee-Waukesha-West Allis, WI Metropolitan Statistical Area","99999","Wauwatosa, WI","Milwaukee County (West)","Milwaukee, WI Urbanized Area",109,0 
"33340","55","55079","0913.00","53213","U","57466","40701","99999","WI","Milwaukee WI","Milwaukee-Waukesha-West Allis, WI Metropolitan Statistical Area","99999","Wauwatosa, WI","Milwaukee County (West)","Milwaukee, WI Urbanized Area",2760,0.002 
"33340","55","55079","0913.00","53226","U","57466","40701","99999","WI","Milwaukee WI","Milwaukee-Waukesha-West Allis, WI Metropolitan Statistical Area","99999","Wauwatosa, WI","Milwaukee County (West)","Milwaukee, WI Urbanized Area",977,0.001 
"33340","55","55079","0914.00","53213","U","57466","40701","99999","WI","Milwaukee WI","Milwaukee-Waukesha-West Allis, WI Metropolitan Statistical Area","99999","Wauwatosa, WI","Milwaukee County (West)","Milwaukee, WI Urbanized Area",2195,0.001 
"33340","55","55079","1001.00","53214","U","57466","40701","99999","WI","Milwaukee WI","Milwaukee-Waukesha-West Allis, WI Metropolitan Statistical Area","99999","West Allis, WI","Milwaukee County (West)","Milwaukee, WI Urbanized Area",3635,0.002 
"33340","55","55079","1001.00","53219","U","57466","40701","99999","WI","Milwaukee WI","Milwaukee-Waukesha-West Allis, WI Metropolitan Statistical Area","99999","Milwaukee, WI","Milwaukee County (West)","Milwaukee, WI Urbanized Area",58,0 
"33340","55","55079","1002.00","53214","U","57466","40701","99999","WI","Milwaukee WI","Milwaukee-Waukesha-West Allis, WI Metropolitan Statistical Area","99999","West Allis, WI","Milwaukee County (West)","Milwaukee, WI Urbanized Area",2698,0.002 
"33340","55","55079","1002.00","53219","U","57466","40701","99999","WI","Milwaukee WI","Milwaukee-Waukesha-West Allis, WI Metropolitan Statistical Area","99999","Milwaukee, WI","Milwaukee County (West)","Milwaukee, WI Urbanized Area",1026,0.001 
"33340","55","55079","1003.00","53214","U","57466","40701","99999","WI","Milwaukee WI","Milwaukee-Waukesha-West Allis, WI Metropolitan Statistical Area","99999","West Allis, WI","Milwaukee County (West)","Milwaukee, WI Urbanized Area",3067,0.002 
"33340","55","55079","1004.00","53214","U","57466","40701","99999","WI","Milwaukee WI","Milwaukee-Waukesha-West Allis, WI Metropolitan Statistical Area","99999","West Allis, WI","Milwaukee County (West)","Milwaukee, WI Urbanized Area",2801,0.002 
"33340","55","55079","1005.00","53214","U","57466","40701","99999","WI","Milwaukee WI","Milwaukee-Waukesha-West Allis, WI Metropolitan Statistical Area","99999","West Allis, WI","Milwaukee County (West)","Milwaukee, WI Urbanized Area",3557,0.002 
"33340","55","55079","1006.00","53214","U","57466","40701","99999","WI","Milwaukee WI","Milwaukee-Waukesha-West Allis, WI Metropolitan Statistical Area","99999","West Allis, WI","Milwaukee County (West)","Milwaukee, WI Urbanized Area",2103,0.001 
"33340","55","55079","1007.00","53214","U","57466","40701","99999","WI","Milwaukee WI","Milwaukee-Waukesha-West Allis, WI Metropolitan Statistical Area","99999","West Allis, WI","Milwaukee County (West)","Milwaukee, WI Urbanized Area",2834,0.002 
"33340","55","55079","1008.00","53214","U","57466","40701","99999","WI","Milwaukee WI","Milwaukee-Waukesha-West Allis, WI Metropolitan Statistical Area","99999","West Allis, WI","Milwaukee County (West)","Milwaukee, WI Urbanized Area",2975,0.002 
"33340","55","55079","1009.00","53214","U","57466","40701","99999","WI","Milwaukee WI","Milwaukee-Waukesha-West Allis, WI Metropolitan Statistical Area","99999","West Allis, WI","Milwaukee County (West)","Milwaukee, WI Urbanized Area",1490,0.001 
"33340","55","55079","1009.00","53227","U","57466","40701","99999","WI","Milwaukee WI","Milwaukee-Waukesha-West Allis, WI Metropolitan Statistical Area","99999","West Allis, WI","Milwaukee County (West)","Milwaukee, WI Urbanized Area",2172,0.001 
"33340","55","55079","1010.00","53227","U","57466","40701","99999","WI","Milwaukee WI","Milwaukee-Waukesha-West Allis, WI Metropolitan Statistical Area","99999","West Allis, WI","Milwaukee County (West)","Milwaukee, WI Urbanized Area",5093,0.003 
"33340","55","55079","1010.00","53228","U","57466","40701","99999","WI","Milwaukee WI","Milwaukee-Waukesha-West Allis, WI Metropolitan Statistical Area","99999","Greenfield, WI","Milwaukee County (West)","Milwaukee, WI Urbanized Area",28,0 
"33340","55","55079","1011.00","53227","U","57466","40701","99999","WI","Milwaukee WI","Milwaukee-Waukesha-West Allis, WI Metropolitan Statistical Area","99999","West Allis, WI","Milwaukee County (West)","Milwaukee, WI Urbanized Area",1812,0.001 
"33340","55","55079","1012.00","53227","U","57466","40701","99999","WI","Milwaukee WI","Milwaukee-Waukesha-West Allis, WI Metropolitan Statistical Area","99999","West Allis, WI","Milwaukee County (West)","Milwaukee, WI Urbanized Area",3240,0.002 
"33340","55","55079","1013.00","53227","U","57466","40701","99999","WI","Milwaukee WI","Milwaukee-Waukesha-West Allis, WI Metropolitan Statistical Area","99999","West Allis, WI","Milwaukee County (West)","Milwaukee, WI Urbanized Area",3142,0.002 
"33340","55","55079","1014.00","53227","U","57466","40701","99999","WI","Milwaukee WI","Milwaukee-Waukesha-West Allis, WI Metropolitan Statistical Area","99999","West Allis, WI","Milwaukee County (West)","Milwaukee, WI Urbanized Area",3660,0.002 
"33340","55","55079","1015.00","53219","U","57466","40701","99999","WI","Milwaukee WI","Milwaukee-Waukesha-West Allis, WI Metropolitan Statistical Area","99999","Milwaukee, WI","Milwaukee County (West)","Milwaukee, WI Urbanized Area",4365,0.003 
"33340","55","55079","1015.00","53227","U","57466","40701","99999","WI","Milwaukee WI","Milwaukee-Waukesha-West Allis, WI Metropolitan Statistical Area","99999","West Allis, WI","Milwaukee County (West)","Milwaukee, WI Urbanized Area",55,0 
"33340","55","55079","1016.00","53219","U","57466","40701","99999","WI","Milwaukee WI","Milwaukee-Waukesha-West Allis, WI Metropolitan Statistical Area","99999","Milwaukee, WI","Milwaukee County (West)","Milwaukee, WI Urbanized Area",4582,0.003 
"33340","55","55079","1017.00","53219","U","57466","40701","99999","WI","Milwaukee WI","Milwaukee-Waukesha-West Allis, WI Metropolitan Statistical Area","99999","Milwaukee, WI","Milwaukee County (West)","Milwaukee, WI Urbanized Area",3314,0.002 
"33340","55","55079","1017.00","53227","U","57466","40701","99999","WI","Milwaukee WI","Milwaukee-Waukesha-West Allis, WI Metropolitan Statistical Area","99999","West Allis, WI","Milwaukee County (West)","Milwaukee, WI Urbanized Area",55,0 
"33340","55","55079","1018.00","53219","U","57466","40701","99999","WI","Milwaukee WI","Milwaukee-Waukesha-West Allis, WI Metropolitan Statistical Area","99999","Milwaukee, WI","Milwaukee County (West)","Milwaukee, WI Urbanized Area",2557,0.002 
"33340","55","55079","1018.00","53227","U","57466","40701","99999","WI","Milwaukee WI","Milwaukee-Waukesha-West Allis, WI Metropolitan Statistical Area","99999","West Allis, WI","Milwaukee County (West)","Milwaukee, WI Urbanized Area",92,0 
"33340","55","55079","1101.00","53214","U","57466","40701","99999","WI","Milwaukee WI","Milwaukee-Waukesha-West Allis, WI Metropolitan Statistical Area","99999","West Allis, WI","Milwaukee County (West)","Milwaukee, WI Urbanized Area",3444,0.002 
"33340","55","55079","1101.00","53215","U","57466","40701","99999","WI","Milwaukee WI","Milwaukee-Waukesha-West Allis, WI Metropolitan Statistical Area","99999","Milwaukee, WI","Milwaukee County (West)","Milwaukee, WI Urbanized Area",574,0 
"33340","55","55079","1101.00","53219","U","57466","40701","99999","WI","Milwaukee WI","Milwaukee-Waukesha-West Allis, WI Metropolitan Statistical Area","99999","Milwaukee, WI","Milwaukee County (West)","Milwaukee, WI Urbanized Area",287,0 
"33340","55","55079","1201.01","53228","U","57466","40701","99999","WI","Milwaukee WI","Milwaukee-Waukesha-West Allis, WI Metropolitan Statistical Area","99999","Greenfield, WI","Milwaukee County (West)","Milwaukee, WI Urbanized Area",3953,0.003 
"33340","55","55079","1201.02","53227","U","57466","40701","99999","WI","Milwaukee WI","Milwaukee-Waukesha-West Allis, WI Metropolitan Statistical Area","99999","West Allis, WI","Milwaukee County (West)","Milwaukee, WI Urbanized Area",267,0 
"33340","55","55079","1201.02","53228","U","57466","40701","99999","WI","Milwaukee WI","Milwaukee-Waukesha-West Allis, WI Metropolitan Statistical Area","99999","Greenfield, WI","Milwaukee County (West)","Milwaukee, WI Urbanized Area",3624,0.002 
"33340","55","55079","1202.01","53220","U","57466","40701","99999","WI","Milwaukee WI","Milwaukee-Waukesha-West Allis, WI Metropolitan Statistical Area","99999","Greenfield, WI","Milwaukee County (West)","Milwaukee, WI Urbanized Area",982,0.001 
"33340","55","55079","1202.01","53228","U","57466","40701","99999","WI","Milwaukee WI","Milwaukee-Waukesha-West Allis, WI Metropolitan Statistical Area","99999","Greenfield, WI","Milwaukee County (West)","Milwaukee, WI Urbanized Area",2624,0.002 
"33340","55","55079","1202.02","53220","U","57466","40701","99999","WI","Milwaukee WI","Milwaukee-Waukesha-West Allis, WI Metropolitan Statistical Area","99999","Greenfield, WI","Milwaukee County (West)","Milwaukee, WI Urbanized Area",3173,0.002 
"33340","55","55079","1202.03","53220","U","57466","40701","99999","WI","Milwaukee WI","Milwaukee-Waukesha-West Allis, WI Metropolitan Statistical Area","99999","Greenfield, WI","Milwaukee County (West)","Milwaukee, WI Urbanized Area",2989,0.002 
"33340","55","55079","1202.03","53228","U","57466","40701","99999","WI","Milwaukee WI","Milwaukee-Waukesha-West Allis, WI Metropolitan Statistical Area","99999","Greenfield, WI","Milwaukee County (West)","Milwaukee, WI Urbanized Area",540,0 
"33340","55","55079","1203.00","53219","U","57466","40701","99999","WI","Milwaukee WI","Milwaukee-Waukesha-West Allis, WI Metropolitan Statistical Area","99999","Milwaukee, WI","Milwaukee County (West)","Milwaukee, WI Urbanized Area",917,0.001 
"33340","55","55079","1203.00","53220","U","57466","40701","99999","WI","Milwaukee WI","Milwaukee-Waukesha-West Allis, WI Metropolitan Statistical Area","99999","Greenfield, WI","Milwaukee County (West)","Milwaukee, WI Urbanized Area",1070,0.001 
"33340","55","55079","1204.00","53220","U","57466","40701","99999","WI","Milwaukee WI","Milwaukee-Waukesha-West Allis, WI Metropolitan Statistical Area","99999","Greenfield, WI","Milwaukee County (West)","Milwaukee, WI Urbanized Area",3723,0.002 
"33340","55","55079","1204.00","53221","U","57466","40701","99999","WI","Milwaukee WI","Milwaukee-Waukesha-West Allis, WI Metropolitan Statistical Area","99999","Milwaukee, WI","Milwaukee County (West)","Milwaukee, WI Urbanized Area",3589,0.002 
"33340","55","55079","1205.01","53129","U","57466","40701","99999","WI","Milwaukee WI","Milwaukee-Waukesha-West Allis, WI Metropolitan Statistical Area","99999","Greendale, WI","Milwaukee County (West)","Milwaukee, WI Urbanized Area",27,0 
"33340","55","55079","1205.01","53220","U","57466","40701","99999","WI","Milwaukee WI","Milwaukee-Waukesha-West Allis, WI Metropolitan Statistical Area","99999","Greenfield, WI","Milwaukee County (West)","Milwaukee, WI Urbanized Area",1202,0.001 
"33340","55","55079","1205.01","53221","U","57466","40701","99999","WI","Milwaukee WI","Milwaukee-Waukesha-West Allis, WI Metropolitan Statistical Area","99999","Milwaukee, WI","Milwaukee County (West)","Milwaukee, WI Urbanized Area",2731,0.002 
"33340","55","55079","1205.02","53220","U","57466","40701","99999","WI","Milwaukee WI","Milwaukee-Waukesha-West Allis, WI Metropolitan Statistical Area","99999","Greenfield, WI","Milwaukee County (West)","Milwaukee, WI Urbanized Area",1819,0.001 
"33340","55","55079","1205.02","53221","U","57466","40701","99999","WI","Milwaukee WI","Milwaukee-Waukesha-West Allis, WI Metropolitan Statistical Area","99999","Milwaukee, WI","Milwaukee County (West)","Milwaukee, WI Urbanized Area",3427,0.002 
"33340","55","55079","1301.00","53130","U","57466","40701","99999","WI","Milwaukee WI","Milwaukee-Waukesha-West Allis, WI Metropolitan Statistical Area","99999","Hales Corners, WI","Milwaukee County (West)","Milwaukee, WI Urbanized Area",4862,0.003 
"33340","55","55079","1301.00","53132","U","57466","40701","99999","WI","Milwaukee WI","Milwaukee-Waukesha-West Allis, WI Metropolitan Statistical Area","99999","Franklin, WI","Milwaukee County (West)","Milwaukee, WI Urbanized Area",7,0 
"33340","55","55079","1302.00","53130","U","57466","40701","99999","WI","Milwaukee WI","Milwaukee-Waukesha-West Allis, WI Metropolitan Statistical Area","99999","Hales Corners, WI","Milwaukee County (West)","Milwaukee, WI Urbanized Area",2822,0.002 
"33340","55","55079","1401.00","53129","U","57466","40701","99999","WI","Milwaukee WI","Milwaukee-Waukesha-West Allis, WI Metropolitan Statistical Area","99999","Greendale, WI","Milwaukee County (West)","Milwaukee, WI Urbanized Area",2899,0.002 
"33340","55","55079","1401.00","53130","U","57466","40701","99999","WI","Milwaukee WI","Milwaukee-Waukesha-West Allis, WI Metropolitan Statistical Area","99999","Hales Corners, WI","Milwaukee County (West)","Milwaukee, WI Urbanized Area",71,0 
"33340","55","55079","1401.00","53132","U","57466","40701","99999","WI","Milwaukee WI","Milwaukee-Waukesha-West Allis, WI Metropolitan Statistical Area","99999","Franklin, WI","Milwaukee County (West)","Milwaukee, WI Urbanized Area",7,0 
"33340","55","55079","1401.00","53220","U","57466","40701","99999","WI","Milwaukee WI","Milwaukee-Waukesha-West Allis, WI Metropolitan Statistical Area","99999","Greenfield, WI","Milwaukee County (West)","Milwaukee, WI Urbanized Area",22,0 
"33340","55","55079","1402.01","53129","U","57466","40701","99999","WI","Milwaukee WI","Milwaukee-Waukesha-West Allis, WI Metropolitan Statistical Area","99999","Greendale, WI","Milwaukee County (West)","Milwaukee, WI Urbanized Area",5235,0.003 
"33340","55","55079","1402.02","53129","U","57466","40701","99999","WI","Milwaukee WI","Milwaukee-Waukesha-West Allis, WI Metropolitan Statistical Area","99999","Greendale, WI","Milwaukee County (West)","Milwaukee, WI Urbanized Area",5812,0.004 
"33340","55","55079","1501.00","53132","U","57466","40301","99999","WI","Milwaukee WI","Milwaukee-Waukesha-West Allis, WI Metropolitan Statistical Area","99999","Franklin, WI","Milwaukee County (South)","Milwaukee, WI Urbanized Area",8369,0.005 
"33340","55","55079","1501.00","53221","U","57466","40301","99999","WI","Milwaukee WI","Milwaukee-Waukesha-West Allis, WI Metropolitan Statistical Area","99999","Milwaukee, WI","Milwaukee County (South)","Milwaukee, WI Urbanized Area",603,0 
"33340","55","55079","1503.01","53132","R"," ","40301","99999","WI","Milwaukee WI","Milwaukee-Waukesha-West Allis, WI Metropolitan Statistical Area","99999","Franklin, WI","Milwaukee County (South)"," ",893,0.001 
"33340","55","55079","1503.01","53132","U","57466","40301","99999","WI","Milwaukee WI","Milwaukee-Waukesha-West Allis, WI Metropolitan Statistical Area","99999","Franklin, WI","Milwaukee County (South)","Milwaukee, WI Urbanized Area",5013,0.003 
"33340","55","55079","1503.03","53132","U","57466","40301","99999","WI","Milwaukee WI","Milwaukee-Waukesha-West Allis, WI Metropolitan Statistical Area","99999","Franklin, WI","Milwaukee County (South)","Milwaukee, WI Urbanized Area",4856,0.003 
"33340","55","55079","1503.04","53132","U","57466","40301","99999","WI","Milwaukee WI","Milwaukee-Waukesha-West Allis, WI Metropolitan Statistical Area","99999","Franklin, WI","Milwaukee County (South)","Milwaukee, WI Urbanized Area",4041,0.003 
"33340","55","55079","1601.00","53154","U","57466","40301","99999","WI","Milwaukee WI","Milwaukee-Waukesha-West Allis, WI Metropolitan Statistical Area","99999","Oak Creek, WI","Milwaukee County (South)","Milwaukee, WI Urbanized Area",6528,0.004 
"33340","55","55079","1602.02","53154","U","57466","40301","99999","WI","Milwaukee WI","Milwaukee-Waukesha-West Allis, WI Metropolitan Statistical Area","99999","Oak Creek, WI","Milwaukee County (South)","Milwaukee, WI Urbanized Area",7310,0.005 
"33340","55","55079","1602.03","53154","U","57466","40301","99999","WI","Milwaukee WI","Milwaukee-Waukesha-West Allis, WI Metropolitan Statistical Area","99999","Oak Creek, WI","Milwaukee County (South)","Milwaukee, WI Urbanized Area",6069,0.004 
"33340","55","55079","1602.04","53154","U","57466","40301","99999","WI","Milwaukee WI","Milwaukee-Waukesha-West Allis, WI Metropolitan Statistical Area","99999","Oak Creek, WI","Milwaukee County (South)","Milwaukee, WI Urbanized Area",4962,0.003 
"33340","55","55079","1603.00","53154","R"," ","40301","99999","WI","Milwaukee WI","Milwaukee-Waukesha-West Allis, WI Metropolitan Statistical Area","99999","Oak Creek, WI","Milwaukee County (South)"," ",291,0 
"33340","55","55079","1603.00","53154","U","57466","40301","99999","WI","Milwaukee WI","Milwaukee-Waukesha-West Allis, WI Metropolitan Statistical Area","99999","Oak Creek, WI","Milwaukee County (South)","Milwaukee, WI Urbanized Area",9291,0.006 
"33340","55","55079","1701.00","53172","U","57466","40301","99999","WI","Milwaukee WI","Milwaukee-Waukesha-West Allis, WI Metropolitan Statistical Area","99999","South Milwaukee, WI","Milwaukee County (South)","Milwaukee, WI Urbanized Area",2689,0.002 
"33340","55","55079","1702.00","53172","U","57466","40301","99999","WI","Milwaukee WI","Milwaukee-Waukesha-West Allis, WI Metropolitan Statistical Area","99999","South Milwaukee, WI","Milwaukee County (South)","Milwaukee, WI Urbanized Area",3869,0.002 
"33340","55","55079","1703.00","53172","U","57466","40301","99999","WI","Milwaukee WI","Milwaukee-Waukesha-West Allis, WI Metropolitan Statistical Area","99999","South Milwaukee, WI","Milwaukee County (South)","Milwaukee, WI Urbanized Area",2662,0.002 
"33340","55","55079","1704.00","53172","U","57466","40301","99999","WI","Milwaukee WI","Milwaukee-Waukesha-West Allis, WI Metropolitan Statistical Area","99999","South Milwaukee, WI","Milwaukee County (South)","Milwaukee, WI Urbanized Area",3362,0.002 
"33340","55","55079","1705.00","53172","U","57466","40301","99999","WI","Milwaukee WI","Milwaukee-Waukesha-West Allis, WI Metropolitan Statistical Area","99999","South Milwaukee, WI","Milwaukee County (South)","Milwaukee, WI Urbanized Area",2471,0.002 
"33340","55","55079","1706.00","53172","U","57466","40301","99999","WI","Milwaukee WI","Milwaukee-Waukesha-West Allis, WI Metropolitan Statistical Area","99999","South Milwaukee, WI","Milwaukee County (South)","Milwaukee, WI Urbanized Area",3384,0.002 
"33340","55","55079","1707.00","53172","U","57466","40301","99999","WI","Milwaukee WI","Milwaukee-Waukesha-West Allis, WI Metropolitan Statistical Area","99999","South Milwaukee, WI","Milwaukee County (South)","Milwaukee, WI Urbanized Area",2719,0.002 
"33340","55","55079","1801.00","53110","U","57466","40301","99999","WI","Milwaukee WI","Milwaukee-Waukesha-West Allis, WI Metropolitan Statistical Area","99999","Cudahy, WI","Milwaukee County (South)","Milwaukee, WI Urbanized Area",3029,0.002 
"33340","55","55079","1802.00","53110","U","57466","40301","99999","WI","Milwaukee WI","Milwaukee-Waukesha-West Allis, WI Metropolitan Statistical Area","99999","Cudahy, WI","Milwaukee County (South)","Milwaukee, WI Urbanized Area",4536,0.003 
"33340","55","55079","1803.00","53110","U","57466","40301","99999","WI","Milwaukee WI","Milwaukee-Waukesha-West Allis, WI Metropolitan Statistical Area","99999","Cudahy, WI","Milwaukee County (South)","Milwaukee, WI Urbanized Area",3371,0.002 
"33340","55","55079","1804.00","53110","U","57466","40301","99999","WI","Milwaukee WI","Milwaukee-Waukesha-West Allis, WI Metropolitan Statistical Area","99999","Cudahy, WI","Milwaukee County (South)","Milwaukee, WI Urbanized Area",2735,0.002 
"33340","55","55079","1805.00","53110","U","57466","40301","99999","WI","Milwaukee WI","Milwaukee-Waukesha-West Allis, WI Metropolitan Statistical Area","99999","Cudahy, WI","Milwaukee County (South)","Milwaukee, WI Urbanized Area",4596,0.003 
"33340","55","55079","1851.00","53235","U","57466","40301","99999","WI","Milwaukee WI","Milwaukee-Waukesha-West Allis, WI Metropolitan Statistical Area","99999","St. Francis, WI","Milwaukee County (South)","Milwaukee, WI Urbanized Area",4210,0.003 
"33340","55","55079","1852.00","53110","U","57466","40301","99999","WI","Milwaukee WI","Milwaukee-Waukesha-West Allis, WI Metropolitan Statistical Area","99999","Cudahy, WI","Milwaukee County (South)","Milwaukee, WI Urbanized Area",53,0 
"33340","55","55079","1852.00","53207","U","57466","40301","99999","WI","Milwaukee WI","Milwaukee-Waukesha-West Allis, WI Metropolitan Statistical Area","99999","Milwaukee, WI","Milwaukee County (South)","Milwaukee, WI Urbanized Area",63,0 
"33340","55","55079","1852.00","53235","U","57466","40301","99999","WI","Milwaukee WI","Milwaukee-Waukesha-West Allis, WI Metropolitan Statistical Area","99999","St. Francis, WI","Milwaukee County (South)","Milwaukee, WI Urbanized Area",5033,0.003 
"33340","55","55079","1853.00","53226","U","57466","40701","99999","WI","Milwaukee WI","Milwaukee-Waukesha-West Allis, WI Metropolitan Statistical Area","99999","Wauwatosa, WI","Milwaukee County (West)","Milwaukee, WI Urbanized Area",3438,0.002 
"33340","55","55079","1854.00","53205","U","57466","41003","99999","WI","Milwaukee WI","Milwaukee-Waukesha-West Allis, WI Metropolitan Statistical Area","99999","Milwaukee, WI","Milwaukee City (Central)","Milwaukee, WI Urbanized Area",661,0 
"33340","55","55079","1854.00","53206","U","57466","41003","99999","WI","Milwaukee WI","Milwaukee-Waukesha-West Allis, WI Metropolitan Statistical Area","99999","Milwaukee, WI","Milwaukee City (Central)","Milwaukee, WI Urbanized Area",978,0.001 
"33340","55","55079","1855.00","53205","U","57466","41003","99999","WI","Milwaukee WI","Milwaukee-Waukesha-West Allis, WI Metropolitan Statistical Area","99999","Milwaukee, WI","Milwaukee City (Central)","Milwaukee, WI Urbanized Area",691,0 
"33340","55","55079","1855.00","53206","U","57466","41003","99999","WI","Milwaukee WI","Milwaukee-Waukesha-West Allis, WI Metropolitan Statistical Area","99999","Milwaukee, WI","Milwaukee City (Central)","Milwaukee, WI Urbanized Area",1018,0.001 
"33340","55","55079","1856.00","53212","U","57466","41003","99999","WI","Milwaukee WI","Milwaukee-Waukesha-West Allis, WI Metropolitan Statistical Area","99999","Milwaukee, WI","Milwaukee City (Central)","Milwaukee, WI Urbanized Area",1776,0.001 
"33340","55","55079","1857.00","53212","U","57466","41003","99999","WI","Milwaukee WI","Milwaukee-Waukesha-West Allis, WI Metropolitan Statistical Area","99999","Milwaukee, WI","Milwaukee City (Central)","Milwaukee, WI Urbanized Area",2124,0.001 
"33340","55","55079","1858.00","53205","U","57466","41003","99999","WI","Milwaukee WI","Milwaukee-Waukesha-West Allis, WI Metropolitan Statistical Area","99999","Milwaukee, WI","Milwaukee City (Central)","Milwaukee, WI Urbanized Area",1606,0.001 
"33340","55","55079","1859.00","53205","U","57466","41003","99999","WI","Milwaukee WI","Milwaukee-Waukesha-West Allis, WI Metropolitan Statistical Area","99999","Milwaukee, WI","Milwaukee City (Central)","Milwaukee, WI Urbanized Area",1213,0.001 
"33340","55","55079","1860.00","53205","U","57466","41003","99999","WI","Milwaukee WI","Milwaukee-Waukesha-West Allis, WI Metropolitan Statistical Area","99999","Milwaukee, WI","Milwaukee City (Central)","Milwaukee, WI Urbanized Area",818,0.001 
"33340","55","55079","1860.00","53212","U","57466","41003","99999","WI","Milwaukee WI","Milwaukee-Waukesha-West Allis, WI Metropolitan Statistical Area","99999","Milwaukee, WI","Milwaukee City (Central)","Milwaukee, WI Urbanized Area",633,0 
"33340","55","55079","1861.00","53205","U","57466","41003","99999","WI","Milwaukee WI","Milwaukee-Waukesha-West Allis, WI Metropolitan Statistical Area","99999","Milwaukee, WI","Milwaukee City (Central)","Milwaukee, WI Urbanized Area",2275,0.001 
"33340","55","55079","1862.00","53205","U","57466","41003","99999","WI","Milwaukee WI","Milwaukee-Waukesha-West Allis, WI Metropolitan Statistical Area","99999","Milwaukee, WI","Milwaukee City (Central)","Milwaukee, WI Urbanized Area",1286,0.001 
"33340","55","55079","1862.00","53233","U","57466","41003","99999","WI","Milwaukee WI","Milwaukee-Waukesha-West Allis, WI Metropolitan Statistical Area","99999","Milwaukee, WI","Milwaukee City (Central)","Milwaukee, WI Urbanized Area",136,0 
"33340","55","55079","1863.00","53203","U","57466","41003","99999","WI","Milwaukee WI","Milwaukee-Waukesha-West Allis, WI Metropolitan Statistical Area","99999","Milwaukee, WI","Milwaukee City (Central)","Milwaukee, WI Urbanized Area",938,0.001 
"33340","55","55079","1863.00","53233","U","57466","41003","99999","WI","Milwaukee WI","Milwaukee-Waukesha-West Allis, WI Metropolitan Statistical Area","99999","Milwaukee, WI","Milwaukee City (Central)","Milwaukee, WI Urbanized Area",2330,0.001 
"33340","55","55079","1864.00","53233","U","57466","41004","99999","WI","Milwaukee WI","Milwaukee-Waukesha-West Allis, WI Metropolitan Statistical Area","99999","Milwaukee, WI","Milwaukee City (South Central)","Milwaukee, WI Urbanized Area",1643,0.001 
"33340","55","55079","1865.00","53204","U","57466","41004","99999","WI","Milwaukee WI","Milwaukee-Waukesha-West Allis, WI Metropolitan Statistical Area","99999","Milwaukee, WI","Milwaukee City (South Central)","Milwaukee, WI Urbanized Area",1667,0.001 
"33340","55","55079","1866.00","53207","U","57466","41004","99999","WI","Milwaukee WI","Milwaukee-Waukesha-West Allis, WI Metropolitan Statistical Area","99999","Milwaukee, WI","Milwaukee City (South Central)","Milwaukee, WI Urbanized Area",1824,0.001 
"33340","55","55079","1866.00","53215","U","57466","41004","99999","WI","Milwaukee WI","Milwaukee-Waukesha-West Allis, WI Metropolitan Statistical Area","99999","Milwaukee, WI","Milwaukee City (South Central)","Milwaukee, WI Urbanized Area",328,0 
"33340","55","55079","1868.00","53204","U","57466","41004","99999","WI","Milwaukee WI","Milwaukee-Waukesha-West Allis, WI Metropolitan Statistical Area","99999","Milwaukee, WI","Milwaukee City (South Central)","Milwaukee, WI Urbanized Area",522,0 
"33340","55","55079","1868.00","53214","U","57466","41004","99999","WI","Milwaukee WI","Milwaukee-Waukesha-West Allis, WI Metropolitan Statistical Area","99999","West Allis, WI","Milwaukee City (South Central)","Milwaukee, WI Urbanized Area",15,0 
"33340","55","55079","1868.00","53215","U","57466","41004","99999","WI","Milwaukee WI","Milwaukee-Waukesha-West Allis, WI Metropolitan Statistical Area","99999","Milwaukee, WI","Milwaukee City (South Central)","Milwaukee, WI Urbanized Area",718,0 
"33340","55","55079","1868.00","53295","U","57466","41004","99999","WI","Milwaukee WI","Milwaukee-Waukesha-West Allis, WI Metropolitan Statistical Area","99999","Milwaukee, WI","Milwaukee City (South Central)","Milwaukee, WI Urbanized Area",359,0 
"33340","55","55079","1869.00","53202","U","57466","40101","99999","WI","Milwaukee WI","Milwaukee-Waukesha-West Allis, WI Metropolitan Statistical Area","99999","Milwaukee, WI","Milwaukee County (Northeast)","Milwaukee, WI Urbanized Area",2213,0.001 
"33340","55","55079","1870.00","53202","U","57466","40101","99999","WI","Milwaukee WI","Milwaukee-Waukesha-West Allis, WI Metropolitan Statistical Area","99999","Milwaukee, WI","Milwaukee County (Northeast)","Milwaukee, WI Urbanized Area",3288,0.002 
"33340","55","55079","1872.00","53132","R"," ","40301","99999","WI","Milwaukee WI","Milwaukee-Waukesha-West Allis, WI Metropolitan Statistical Area","99999","Franklin, WI","Milwaukee County (South)"," ",636,0 
"33340","55","55079","1872.00","53132","U","57466","40301","99999","WI","Milwaukee WI","Milwaukee-Waukesha-West Allis, WI Metropolitan Statistical Area","99999","Franklin, WI","Milwaukee County (South)","Milwaukee, WI Urbanized Area",4748,0.003 
"33340","55","55079","1873.00","53132","U","57466","40301","99999","WI","Milwaukee WI","Milwaukee-Waukesha-West Allis, WI Metropolitan Statistical Area","99999","Franklin, WI","Milwaukee County (South)","Milwaukee, WI Urbanized Area",6293,0.004 
"33340","55","55079","1874.00","53202","U","57466","40101","99999","WI","Milwaukee WI","Milwaukee-Waukesha-West Allis, WI Metropolitan Statistical Area","99999","Milwaukee, WI","Milwaukee County (Northeast)","Milwaukee, WI Urbanized Area",1550,0.001 
"33340","55","55079","1874.00","53204","U","57466","40101","99999","WI","Milwaukee WI","Milwaukee-Waukesha-West Allis, WI Metropolitan Statistical Area","99999","Milwaukee, WI","Milwaukee County (Northeast)","Milwaukee, WI Urbanized Area",791,0.001 
"33340","55","55089","6101.01","53004","R"," ","20000","99999","WI","Ozaukee WI","Milwaukee-Waukesha-West Allis, WI Metropolitan Statistical Area","99999","Belgium, WI","Washington & Ozaukee Counties"," ",156,0 
"33340","55","55089","6101.01","53021","R"," ","20000","99999","WI","Ozaukee WI","Milwaukee-Waukesha-West Allis, WI Metropolitan Statistical Area","99999","Fredonia, WI","Washington & Ozaukee Counties"," ",3857,0.002 
"33340","55","55089","6101.01","53075","R"," ","20000","99999","WI","Ozaukee WI","Milwaukee-Waukesha-West Allis, WI Metropolitan Statistical Area","99999","Random Lake, WI","Washington & Ozaukee Counties"," ",87,0 
"33340","55","55089","6101.01","53080","R"," ","20000","99999","WI","Ozaukee WI","Milwaukee-Waukesha-West Allis, WI Metropolitan Statistical Area","99999","Saukville, WI","Washington & Ozaukee Counties"," ",231,0 
"33340","55","55089","6101.02","53004","R"," ","20000","99999","WI","Ozaukee WI","Milwaukee-Waukesha-West Allis, WI Metropolitan Statistical Area","99999","Belgium, WI","Washington & Ozaukee Counties"," ",3174,0.002 
"33340","55","55089","6101.02","53013","R"," ","20000","99999","WI","Ozaukee WI","Milwaukee-Waukesha-West Allis, WI Metropolitan Statistical Area","99999","Cedar Grove, WI","Washington & Ozaukee Counties"," ",311,0 
"33340","55","55089","6101.02","53074","R"," ","20000","99999","WI","Ozaukee WI","Milwaukee-Waukesha-West Allis, WI Metropolitan Statistical Area","99999","Port Washington, WI","Washington & Ozaukee Counties"," ",108,0 
"33340","55","55089","6101.02","53075","R"," ","20000","99999","WI","Ozaukee WI","Milwaukee-Waukesha-West Allis, WI Metropolitan Statistical Area","99999","Random Lake, WI","Washington & Ozaukee Counties"," ",67,0 
"33340","55","55089","6201.00","53021","R"," ","20000","99999","WI","Ozaukee WI","Milwaukee-Waukesha-West Allis, WI Metropolitan Statistical Area","99999","Fredonia, WI","Washington & Ozaukee Counties"," ",167,0 
"33340","55","55089","6201.00","53024","R"," ","20000","99999","WI","Ozaukee WI","Milwaukee-Waukesha-West Allis, WI Metropolitan Statistical Area","99999","Grafton, WI","Washington & Ozaukee Counties"," ",26,0 
"33340","55","55089","6201.00","53024","U","57466","20000","99999","WI","Ozaukee WI","Milwaukee-Waukesha-West Allis, WI Metropolitan Statistical Area","99999","Grafton, WI","Washington & Ozaukee Counties","Milwaukee, WI Urbanized Area",2,0 
"33340","55","55089","6201.00","53074","R"," ","20000","99999","WI","Ozaukee WI","Milwaukee-Waukesha-West Allis, WI Metropolitan Statistical Area","99999","Port Washington, WI","Washington & Ozaukee Counties"," ",175,0 
"33340","55","55089","6201.00","53074","U","57466","20000","99999","WI","Ozaukee WI","Milwaukee-Waukesha-West Allis, WI Metropolitan Statistical Area","99999","Port Washington, WI","Washington & Ozaukee Counties","Milwaukee, WI Urbanized Area",24,0 
"33340","55","55089","6201.00","53080","R"," ","20000","99999","WI","Ozaukee WI","Milwaukee-Waukesha-West Allis, WI Metropolitan Statistical Area","99999","Saukville, WI","Washington & Ozaukee Counties"," ",1166,0.001 
"33340","55","55089","6201.00","53080","U","57466","20000","99999","WI","Ozaukee WI","Milwaukee-Waukesha-West Allis, WI Metropolitan Statistical Area","99999","Saukville, WI","Washington & Ozaukee Counties","Milwaukee, WI Urbanized Area",4151,0.003 
"33340","55","55089","6201.00","53090","R"," ","20000","99999","WI","Ozaukee WI","Milwaukee-Waukesha-West Allis, WI Metropolitan Statistical Area","99999","West Bend, WI","Washington & Ozaukee Counties"," ",204,0 
"33340","55","55089","6201.00","53095","R"," ","20000","99999","WI","Ozaukee WI","Milwaukee-Waukesha-West Allis, WI Metropolitan Statistical Area","99999","West Bend, WI","Washington & Ozaukee Counties"," ",164,0 
"33340","55","55089","6301.00","53074","U","57466","20000","99999","WI","Ozaukee WI","Milwaukee-Waukesha-West Allis, WI Metropolitan Statistical Area","99999","Port Washington, WI","Washington & Ozaukee Counties","Milwaukee, WI Urbanized Area",2655,0.002 
"33340","55","55089","6302.01","53074","R"," ","20000","99999","WI","Ozaukee WI","Milwaukee-Waukesha-West Allis, WI Metropolitan Statistical Area","99999","Port Washington, WI","Washington & Ozaukee Counties"," ",892,0.001 
"33340","55","55089","6302.01","53074","U","57466","20000","99999","WI","Ozaukee WI","Milwaukee-Waukesha-West Allis, WI Metropolitan Statistical Area","99999","Port Washington, WI","Washington & Ozaukee Counties","Milwaukee, WI Urbanized Area",3851,0.002 
"33340","55","55089","6302.02","53024","R"," ","20000","99999","WI","Ozaukee WI","Milwaukee-Waukesha-West Allis, WI Metropolitan Statistical Area","99999","Grafton, WI","Washington & Ozaukee Counties"," ",13,0 
"33340","55","55089","6302.02","53024","U","57466","20000","99999","WI","Ozaukee WI","Milwaukee-Waukesha-West Allis, WI Metropolitan Statistical Area","99999","Grafton, WI","Washington & Ozaukee Counties","Milwaukee, WI Urbanized Area",14,0 
"33340","55","55089","6302.02","53074","R"," ","20000","99999","WI","Ozaukee WI","Milwaukee-Waukesha-West Allis, WI Metropolitan Statistical Area","99999","Port Washington, WI","Washington & Ozaukee Counties"," ",286,0 
"33340","55","55089","6302.02","53074","U","57466","20000","99999","WI","Ozaukee WI","Milwaukee-Waukesha-West Allis, WI Metropolitan Statistical Area","99999","Port Washington, WI","Washington & Ozaukee Counties","Milwaukee, WI Urbanized Area",4889,0.003 
"33340","55","55089","6401.00","53024","U","57466","20000","99999","WI","Ozaukee WI","Milwaukee-Waukesha-West Allis, WI Metropolitan Statistical Area","99999","Grafton, WI","Washington & Ozaukee Counties","Milwaukee, WI Urbanized Area",5700,0.004 
"33340","55","55089","6402.00","53012","R"," ","20000","99999","WI","Ozaukee WI","Milwaukee-Waukesha-West Allis, WI Metropolitan Statistical Area","99999","Cedarburg, WI","Washington & Ozaukee Counties"," ",62,0 
"33340","55","55089","6402.00","53012","U","57466","20000","99999","WI","Ozaukee WI","Milwaukee-Waukesha-West Allis, WI Metropolitan Statistical Area","99999","Cedarburg, WI","Washington & Ozaukee Counties","Milwaukee, WI Urbanized Area",454,0 
"33340","55","55089","6402.00","53024","R"," ","20000","99999","WI","Ozaukee WI","Milwaukee-Waukesha-West Allis, WI Metropolitan Statistical Area","99999","Grafton, WI","Washington & Ozaukee Counties"," ",2582,0.002 
"33340","55","55089","6402.00","53024","U","57466","20000","99999","WI","Ozaukee WI","Milwaukee-Waukesha-West Allis, WI Metropolitan Statistical Area","99999","Grafton, WI","Washington & Ozaukee Counties","Milwaukee, WI Urbanized Area",4692,0.003 
"33340","55","55089","6501.01","53012","U","57466","20000","99999","WI","Ozaukee WI","Milwaukee-Waukesha-West Allis, WI Metropolitan Statistical Area","99999","Cedarburg, WI","Washington & Ozaukee Counties","Milwaukee, WI Urbanized Area",3750,0.002 
"33340","55","55089","6501.01","53024","U","57466","20000","99999","WI","Ozaukee WI","Milwaukee-Waukesha-West Allis, WI Metropolitan Statistical Area","99999","Grafton, WI","Washington & Ozaukee Counties","Milwaukee, WI Urbanized Area",2766,0.002 
"33340","55","55089","6501.02","53012","U","57466","20000","99999","WI","Ozaukee WI","Milwaukee-Waukesha-West Allis, WI Metropolitan Statistical Area","99999","Cedarburg, WI","Washington & Ozaukee Counties","Milwaukee, WI Urbanized Area",2761,0.002 
"33340","55","55089","6502.00","53012","U","57466","20000","99999","WI","Ozaukee WI","Milwaukee-Waukesha-West Allis, WI Metropolitan Statistical Area","99999","Cedarburg, WI","Washington & Ozaukee Counties","Milwaukee, WI Urbanized Area",5038,0.003 
"33340","55","55089","6503.00","53012","R"," ","20000","99999","WI","Ozaukee WI","Milwaukee-Waukesha-West Allis, WI Metropolitan Statistical Area","99999","Cedarburg, WI","Washington & Ozaukee Counties"," ",3413,0.002 
"33340","55","55089","6503.00","53012","U","57466","20000","99999","WI","Ozaukee WI","Milwaukee-Waukesha-West Allis, WI Metropolitan Statistical Area","99999","Cedarburg, WI","Washington & Ozaukee Counties","Milwaukee, WI Urbanized Area",947,0.001 
"33340","55","55089","6503.00","53024","R"," ","20000","99999","WI","Ozaukee WI","Milwaukee-Waukesha-West Allis, WI Metropolitan Statistical Area","99999","Grafton, WI","Washington & Ozaukee Counties"," ",455,0 
"33340","55","55089","6503.00","53024","U","57466","20000","99999","WI","Ozaukee WI","Milwaukee-Waukesha-West Allis, WI Metropolitan Statistical Area","99999","Grafton, WI","Washington & Ozaukee Counties","Milwaukee, WI Urbanized Area",329,0 
"33340","55","55089","6503.00","53080","R"," ","20000","99999","WI","Ozaukee WI","Milwaukee-Waukesha-West Allis, WI Metropolitan Statistical Area","99999","Saukville, WI","Washington & Ozaukee Counties"," ",167,0 
"33340","55","55089","6503.00","53095","R"," ","20000","99999","WI","Ozaukee WI","Milwaukee-Waukesha-West Allis, WI Metropolitan Statistical Area","99999","West Bend, WI","Washington & Ozaukee Counties"," ",60,0 
"33340","55","55089","6601.00","53092","U","57466","20000","99999","WI","Ozaukee WI","Milwaukee-Waukesha-West Allis, WI Metropolitan Statistical Area","99999","Mequon, WI","Washington & Ozaukee Counties","Milwaukee, WI Urbanized Area",3235,0.002 
"33340","55","55089","6602.01","53097","R"," ","20000","99999","WI","Ozaukee WI","Milwaukee-Waukesha-West Allis, WI Metropolitan Statistical Area","99999","Mequon, WI","Washington & Ozaukee Counties"," ",2068,0.001 
"33340","55","55089","6602.01","53097","U","57466","20000","99999","WI","Ozaukee WI","Milwaukee-Waukesha-West Allis, WI Metropolitan Statistical Area","99999","Mequon, WI","Washington & Ozaukee Counties","Milwaukee, WI Urbanized Area",1886,0.001 
"33340","55","55089","6602.02","53012","U","57466","20000","99999","WI","Ozaukee WI","Milwaukee-Waukesha-West Allis, WI Metropolitan Statistical Area","99999","Cedarburg, WI","Washington & Ozaukee Counties","Milwaukee, WI Urbanized Area",117,0 
"33340","55","55089","6602.02","53092","R"," ","20000","99999","WI","Ozaukee WI","Milwaukee-Waukesha-West Allis, WI Metropolitan Statistical Area","99999","Mequon, WI","Washington & Ozaukee Counties"," ",534,0 
"33340","55","55089","6602.02","53092","U","57466","20000","99999","WI","Ozaukee WI","Milwaukee-Waukesha-West Allis, WI Metropolitan Statistical Area","99999","Mequon, WI","Washington & Ozaukee Counties","Milwaukee, WI Urbanized Area",2662,0.002 
"33340","55","55089","6602.02","53097","R"," ","20000","99999","WI","Ozaukee WI","Milwaukee-Waukesha-West Allis, WI Metropolitan Statistical Area","99999","Mequon, WI","Washington & Ozaukee Counties"," ",1053,0.001 
"33340","55","55089","6602.02","53097","U","57466","20000","99999","WI","Ozaukee WI","Milwaukee-Waukesha-West Allis, WI Metropolitan Statistical Area","99999","Mequon, WI","Washington & Ozaukee Counties","Milwaukee, WI Urbanized Area",1312,0.001 
"33340","55","55089","6603.01","53092","R"," ","20000","99999","WI","Ozaukee WI","Milwaukee-Waukesha-West Allis, WI Metropolitan Statistical Area","99999","Mequon, WI","Washington & Ozaukee Counties"," ",23,0 
"33340","55","55089","6603.01","53092","U","57466","20000","99999","WI","Ozaukee WI","Milwaukee-Waukesha-West Allis, WI Metropolitan Statistical Area","99999","Mequon, WI","Washington & Ozaukee Counties","Milwaukee, WI Urbanized Area",5676,0.004 
"33340","55","55089","6603.03","53092","U","57466","20000","99999","WI","Ozaukee WI","Milwaukee-Waukesha-West Allis, WI Metropolitan Statistical Area","99999","Mequon, WI","Washington & Ozaukee Counties","Milwaukee, WI Urbanized Area",4822,0.003 
"33340","55","55089","6603.04","53092","U","57466","20000","99999","WI","Ozaukee WI","Milwaukee-Waukesha-West Allis, WI Metropolitan Statistical Area","99999","Mequon, WI","Washington & Ozaukee Counties","Milwaukee, WI Urbanized Area",3072,0.002 
"33340","55","55089","6603.04","53217","U","57466","20000","99999","WI","Ozaukee WI","Milwaukee-Waukesha-West Allis, WI Metropolitan Statistical Area","99999","Whitefish Bay, WI","Washington & Ozaukee Counties","Milwaukee, WI Urbanized Area",89,0 
"33340","55","55131","4001.02","53090","R"," ","20000","99999","WI","Washington WI","Milwaukee-Waukesha-West Allis, WI Metropolitan Statistical Area","99999","West Bend, WI","Washington & Ozaukee Counties"," ",153,0 
"33340","55","55131","4001.02","53090","U","93916","20000","99999","WI","Washington WI","Milwaukee-Waukesha-West Allis, WI Metropolitan Statistical Area","99999","West Bend, WI","Washington & Ozaukee Counties","West Bend, WI Urbanized Area",3768,0.002 
"33340","55","55131","4001.02","53095","R"," ","20000","99999","WI","Washington WI","Milwaukee-Waukesha-West Allis, WI Metropolitan Statistical Area","99999","West Bend, WI","Washington & Ozaukee Counties"," ",10,0 
"33340","55","55131","4001.03","53021","R"," ","20000","99999","WI","Washington WI","Milwaukee-Waukesha-West Allis, WI Metropolitan Statistical Area","99999","Fredonia, WI","Washington & Ozaukee Counties"," ",685,0 
"33340","55","55131","4001.03","53040","R"," ","20000","99999","WI","Washington WI","Milwaukee-Waukesha-West Allis, WI Metropolitan Statistical Area","99999","Kewaskum, WI","Washington & Ozaukee Counties"," ",1528,0.001 
"33340","55","55131","4001.03","53090","R"," ","20000","99999","WI","Washington WI","Milwaukee-Waukesha-West Allis, WI Metropolitan Statistical Area","99999","West Bend, WI","Washington & Ozaukee Counties"," ",1801,0.001 
"33340","55","55131","4001.04","53090","R"," ","20000","99999","WI","Washington WI","Milwaukee-Waukesha-West Allis, WI Metropolitan Statistical Area","99999","West Bend, WI","Washington & Ozaukee Counties"," ",1212,0.001 
"33340","55","55131","4001.04","53095","R"," ","20000","99999","WI","Washington WI","Milwaukee-Waukesha-West Allis, WI Metropolitan Statistical Area","99999","West Bend, WI","Washington & Ozaukee Counties"," ",2657,0.002 
"33340","55","55131","4001.04","53095","U","93916","20000","99999","WI","Washington WI","Milwaukee-Waukesha-West Allis, WI Metropolitan Statistical Area","99999","West Bend, WI","Washington & Ozaukee Counties","West Bend, WI Urbanized Area",1846,0.001 
"33340","55","55131","4101.00","53040","R"," ","20000","99999","WI","Washington WI","Milwaukee-Waukesha-West Allis, WI Metropolitan Statistical Area","99999","Kewaskum, WI","Washington & Ozaukee Counties"," ",1051,0.001 
"33340","55","55131","4101.00","53040","U","93916","20000","99999","WI","Washington WI","Milwaukee-Waukesha-West Allis, WI Metropolitan Statistical Area","99999","Kewaskum, WI","Washington & Ozaukee Counties","West Bend, WI Urbanized Area",4006,0.003 
"33340","55","55131","4201.03","53027","U","93916","20000","99999","WI","Washington WI","Milwaukee-Waukesha-West Allis, WI Metropolitan Statistical Area","99999","Hartford, WI","Washington & Ozaukee Counties","West Bend, WI Urbanized Area",95,0 
"33340","55","55131","4201.03","53095","R"," ","20000","99999","WI","Washington WI","Milwaukee-Waukesha-West Allis, WI Metropolitan Statistical Area","99999","West Bend, WI","Washington & Ozaukee Counties"," ",1583,0.001 
"33340","55","55131","4201.03","53095","U","93916","20000","99999","WI","Washington WI","Milwaukee-Waukesha-West Allis, WI Metropolitan Statistical Area","99999","West Bend, WI","Washington & Ozaukee Counties","West Bend, WI Urbanized Area",4361,0.003 
"33340","55","55131","4201.04","53040","R"," ","20000","99999","WI","Washington WI","Milwaukee-Waukesha-West Allis, WI Metropolitan Statistical Area","99999","Kewaskum, WI","Washington & Ozaukee Counties"," ",364,0 
"33340","55","55131","4201.04","53040","U","93916","20000","99999","WI","Washington WI","Milwaukee-Waukesha-West Allis, WI Metropolitan Statistical Area","99999","Kewaskum, WI","Washington & Ozaukee Counties","West Bend, WI Urbanized Area",1,0 
"33340","55","55131","4201.04","53090","R"," ","20000","99999","WI","Washington WI","Milwaukee-Waukesha-West Allis, WI Metropolitan Statistical Area","99999","West Bend, WI","Washington & Ozaukee Counties"," ",1675,0.001 
"33340","55","55131","4201.04","53090","U","93916","20000","99999","WI","Washington WI","Milwaukee-Waukesha-West Allis, WI Metropolitan Statistical Area","99999","West Bend, WI","Washington & Ozaukee Counties","West Bend, WI Urbanized Area",1166,0.001 
"33340","55","55131","4201.04","53095","R"," ","20000","99999","WI","Washington WI","Milwaukee-Waukesha-West Allis, WI Metropolitan Statistical Area","99999","West Bend, WI","Washington & Ozaukee Counties"," ",174,0 
"33340","55","55131","4201.04","53095","U","93916","20000","99999","WI","Washington WI","Milwaukee-Waukesha-West Allis, WI Metropolitan Statistical Area","99999","West Bend, WI","Washington & Ozaukee Counties","West Bend, WI Urbanized Area",1716,0.001 
"33340","55","55131","4201.05","53090","U","93916","20000","99999","WI","Washington WI","Milwaukee-Waukesha-West Allis, WI Metropolitan Statistical Area","99999","West Bend, WI","Washington & Ozaukee Counties","West Bend, WI Urbanized Area",4664,0.003 
"33340","55","55131","4201.05","53095","U","93916","20000","99999","WI","Washington WI","Milwaukee-Waukesha-West Allis, WI Metropolitan Statistical Area","99999","West Bend, WI","Washington & Ozaukee Counties","West Bend, WI Urbanized Area",7,0 
"33340","55","55131","4201.06","53090","U","93916","20000","99999","WI","Washington WI","Milwaukee-Waukesha-West Allis, WI Metropolitan Statistical Area","99999","West Bend, WI","Washington & Ozaukee Counties","West Bend, WI Urbanized Area",3619,0.002 
"33340","55","55131","4202.00","53095","U","93916","20000","99999","WI","Washington WI","Milwaukee-Waukesha-West Allis, WI Metropolitan Statistical Area","99999","West Bend, WI","Washington & Ozaukee Counties","West Bend, WI Urbanized Area",5408,0.003 
"33340","55","55131","4203.00","53095","U","93916","20000","99999","WI","Washington WI","Milwaukee-Waukesha-West Allis, WI Metropolitan Statistical Area","99999","West Bend, WI","Washington & Ozaukee Counties","West Bend, WI Urbanized Area",5873,0.004 
"33340","55","55131","4204.01","53090","U","93916","20000","99999","WI","Washington WI","Milwaukee-Waukesha-West Allis, WI Metropolitan Statistical Area","99999","West Bend, WI","Washington & Ozaukee Counties","West Bend, WI Urbanized Area",578,0 
"33340","55","55131","4204.01","53095","U","93916","20000","99999","WI","Washington WI","Milwaukee-Waukesha-West Allis, WI Metropolitan Statistical Area","99999","West Bend, WI","Washington & Ozaukee Counties","West Bend, WI Urbanized Area",1355,0.001 
"33340","55","55131","4204.02","53090","U","93916","20000","99999","WI","Washington WI","Milwaukee-Waukesha-West Allis, WI Metropolitan Statistical Area","99999","West Bend, WI","Washington & Ozaukee Counties","West Bend, WI Urbanized Area",1984,0.001 
"33340","55","55131","4204.02","53095","U","93916","20000","99999","WI","Washington WI","Milwaukee-Waukesha-West Allis, WI Metropolitan Statistical Area","99999","West Bend, WI","Washington & Ozaukee Counties","West Bend, WI Urbanized Area",109,0 
"33340","55","55131","4301.00","53002","R"," ","20000","99999","WI","Washington WI","Milwaukee-Waukesha-West Allis, WI Metropolitan Statistical Area","99999","Allenton, WI","Washington & Ozaukee Counties"," ",2299,0.001 
"33340","55","55131","4301.00","53010","R"," ","20000","99999","WI","Washington WI","Milwaukee-Waukesha-West Allis, WI Metropolitan Statistical Area","99999","Campbellsport, WI","Washington & Ozaukee Counties"," ",306,0 
"33340","55","55131","4301.00","53027","R"," ","20000","99999","WI","Washington WI","Milwaukee-Waukesha-West Allis, WI Metropolitan Statistical Area","99999","Hartford, WI","Washington & Ozaukee Counties"," ",1163,0.001 
"33340","55","55131","4301.00","53040","R"," ","20000","99999","WI","Washington WI","Milwaukee-Waukesha-West Allis, WI Metropolitan Statistical Area","99999","Kewaskum, WI","Washington & Ozaukee Counties"," ",356,0 
"33340","55","55131","4301.00","53090","R"," ","20000","99999","WI","Washington WI","Milwaukee-Waukesha-West Allis, WI Metropolitan Statistical Area","99999","West Bend, WI","Washington & Ozaukee Counties"," ",1049,0.001 
"33340","55","55131","4301.00","53091","R"," ","20000","99999","WI","Washington WI","Milwaukee-Waukesha-West Allis, WI Metropolitan Statistical Area","99999","Theresa, WI","Washington & Ozaukee Counties"," ",52,0 
"33340","55","55131","4301.00","53095","R"," ","20000","99999","WI","Washington WI","Milwaukee-Waukesha-West Allis, WI Metropolitan Statistical Area","99999","West Bend, WI","Washington & Ozaukee Counties"," ",439,0 
"33340","55","55131","4401.03","53027","R"," ","20000","99999","WI","Washington WI","Milwaukee-Waukesha-West Allis, WI Metropolitan Statistical Area","99999","Hartford, WI","Washington & Ozaukee Counties"," ",644,0 
"33340","55","55131","4401.03","53027","U","93916","20000","99999","WI","Washington WI","Milwaukee-Waukesha-West Allis, WI Metropolitan Statistical Area","99999","Hartford, WI","Washington & Ozaukee Counties","West Bend, WI Urbanized Area",4183,0.003 
"33340","55","55131","4401.04","53027","R"," ","20000","99999","WI","Washington WI","Milwaukee-Waukesha-West Allis, WI Metropolitan Statistical Area","99999","Hartford, WI","Washington & Ozaukee Counties"," ",393,0 
"33340","55","55131","4401.04","53027","U","93916","20000","99999","WI","Washington WI","Milwaukee-Waukesha-West Allis, WI Metropolitan Statistical Area","99999","Hartford, WI","Washington & Ozaukee Counties","West Bend, WI Urbanized Area",5221,0.003 
"33340","55","55131","4401.05","53027","R"," ","20000","99999","WI","Washington WI","Milwaukee-Waukesha-West Allis, WI Metropolitan Statistical Area","99999","Hartford, WI","Washington & Ozaukee Counties"," ",1065,0.001 
"33340","55","55131","4401.05","53027","U","93916","20000","99999","WI","Washington WI","Milwaukee-Waukesha-West Allis, WI Metropolitan Statistical Area","99999","Hartford, WI","Washington & Ozaukee Counties","West Bend, WI Urbanized Area",885,0.001 
"33340","55","55131","4401.05","53086","R"," ","20000","99999","WI","Washington WI","Milwaukee-Waukesha-West Allis, WI Metropolitan Statistical Area","99999","Slinger, WI","Washington & Ozaukee Counties"," ",239,0 
"33340","55","55131","4401.05","53086","U","93916","20000","99999","WI","Washington WI","Milwaukee-Waukesha-West Allis, WI Metropolitan Statistical Area","99999","Slinger, WI","Washington & Ozaukee Counties","West Bend, WI Urbanized Area",1149,0.001 
"33340","55","55131","4401.06","53017","R"," ","20000","99999","WI","Washington WI","Milwaukee-Waukesha-West Allis, WI Metropolitan Statistical Area","99999","Richfield, WI","Washington & Ozaukee Counties"," ",203,0 
"33340","55","55131","4401.06","53027","R"," ","20000","99999","WI","Washington WI","Milwaukee-Waukesha-West Allis, WI Metropolitan Statistical Area","99999","Hartford, WI","Washington & Ozaukee Counties"," ",3332,0.002 
"33340","55","55131","4401.06","53029","R"," ","20000","99999","WI","Washington WI","Milwaukee-Waukesha-West Allis, WI Metropolitan Statistical Area","99999","Hartland, WI","Washington & Ozaukee Counties"," ",94,0 
"33340","55","55131","4401.06","53033","R"," ","20000","99999","WI","Washington WI","Milwaukee-Waukesha-West Allis, WI Metropolitan Statistical Area","99999","Richfield, WI","Washington & Ozaukee Counties"," ",118,0 
"33340","55","55131","4402.00","53027","U","93916","20000","99999","WI","Washington WI","Milwaukee-Waukesha-West Allis, WI Metropolitan Statistical Area","99999","Hartford, WI","Washington & Ozaukee Counties","West Bend, WI Urbanized Area",4040,0.003 
"33340","55","55131","4501.03","53012","R"," ","20000","99999","WI","Washington WI","Milwaukee-Waukesha-West Allis, WI Metropolitan Statistical Area","99999","Cedarburg, WI","Washington & Ozaukee Counties"," ",335,0 
"33340","55","55131","4501.03","53037","R"," ","20000","99999","WI","Washington WI","Milwaukee-Waukesha-West Allis, WI Metropolitan Statistical Area","99999","Jackson, WI","Washington & Ozaukee Counties"," ",427,0 
"33340","55","55131","4501.03","53037","U","93916","20000","99999","WI","Washington WI","Milwaukee-Waukesha-West Allis, WI Metropolitan Statistical Area","99999","Jackson, WI","Washington & Ozaukee Counties","West Bend, WI Urbanized Area",3768,0.002 
"33340","55","55131","4501.03","53095","R"," ","20000","99999","WI","Washington WI","Milwaukee-Waukesha-West Allis, WI Metropolitan Statistical Area","99999","West Bend, WI","Washington & Ozaukee Counties"," ",559,0 
"33340","55","55131","4501.03","53095","U","93916","20000","99999","WI","Washington WI","Milwaukee-Waukesha-West Allis, WI Metropolitan Statistical Area","99999","West Bend, WI","Washington & Ozaukee Counties","West Bend, WI Urbanized Area",20,0 
"33340","55","55131","4501.04","53012","R"," ","20000","99999","WI","Washington WI","Milwaukee-Waukesha-West Allis, WI Metropolitan Statistical Area","99999","Cedarburg, WI","Washington & Ozaukee Counties"," ",1220,0.001 
"33340","55","55131","4501.04","53037","R"," ","20000","99999","WI","Washington WI","Milwaukee-Waukesha-West Allis, WI Metropolitan Statistical Area","99999","Jackson, WI","Washington & Ozaukee Counties"," ",1189,0.001 
"33340","55","55131","4501.04","53037","U","93916","20000","99999","WI","Washington WI","Milwaukee-Waukesha-West Allis, WI Metropolitan Statistical Area","99999","Jackson, WI","Washington & Ozaukee Counties","West Bend, WI Urbanized Area",3671,0.002 
"33340","55","55131","4501.04","53076","R"," ","20000","99999","WI","Washington WI","Milwaukee-Waukesha-West Allis, WI Metropolitan Statistical Area","99999","Richfield, WI","Washington & Ozaukee Counties"," ",184,0 
"33340","55","55131","4501.05","53027","R"," ","20000","99999","WI","Washington WI","Milwaukee-Waukesha-West Allis, WI Metropolitan Statistical Area","99999","Hartford, WI","Washington & Ozaukee Counties"," ",88,0 
"33340","55","55131","4501.05","53037","R"," ","20000","99999","WI","Washington WI","Milwaukee-Waukesha-West Allis, WI Metropolitan Statistical Area","99999","Jackson, WI","Washington & Ozaukee Counties"," ",187,0 
"33340","55","55131","4501.05","53076","R"," ","20000","99999","WI","Washington WI","Milwaukee-Waukesha-West Allis, WI Metropolitan Statistical Area","99999","Richfield, WI","Washington & Ozaukee Counties"," ",23,0 
"33340","55","55131","4501.05","53086","R"," ","20000","99999","WI","Washington WI","Milwaukee-Waukesha-West Allis, WI Metropolitan Statistical Area","99999","Slinger, WI","Washington & Ozaukee Counties"," ",1089,0.001 
"33340","55","55131","4501.05","53086","U","93916","20000","99999","WI","Washington WI","Milwaukee-Waukesha-West Allis, WI Metropolitan Statistical Area","99999","Slinger, WI","Washington & Ozaukee Counties","West Bend, WI Urbanized Area",403,0 
"33340","55","55131","4501.05","53095","R"," ","20000","99999","WI","Washington WI","Milwaukee-Waukesha-West Allis, WI Metropolitan Statistical Area","99999","West Bend, WI","Washington & Ozaukee Counties"," ",798,0.001 
"33340","55","55131","4501.06","53027","R"," ","20000","99999","WI","Washington WI","Milwaukee-Waukesha-West Allis, WI Metropolitan Statistical Area","99999","Hartford, WI","Washington & Ozaukee Counties"," ",7,0 
"33340","55","55131","4501.06","53027","U","93916","20000","99999","WI","Washington WI","Milwaukee-Waukesha-West Allis, WI Metropolitan Statistical Area","99999","Hartford, WI","Washington & Ozaukee Counties","West Bend, WI Urbanized Area",242,0 
"33340","55","55131","4501.06","53076","R"," ","20000","99999","WI","Washington WI","Milwaukee-Waukesha-West Allis, WI Metropolitan Statistical Area","99999","Richfield, WI","Washington & Ozaukee Counties"," ",320,0 
"33340","55","55131","4501.06","53086","R"," ","20000","99999","WI","Washington WI","Milwaukee-Waukesha-West Allis, WI Metropolitan Statistical Area","99999","Slinger, WI","Washington & Ozaukee Counties"," ",1069,0.001 
"33340","55","55131","4501.06","53086","U","93916","20000","99999","WI","Washington WI","Milwaukee-Waukesha-West Allis, WI Metropolitan Statistical Area","99999","Slinger, WI","Washington & Ozaukee Counties","West Bend, WI Urbanized Area",4306,0.003 
"33340","55","55131","4601.01","53017","R"," ","20000","99999","WI","Washington WI","Milwaukee-Waukesha-West Allis, WI Metropolitan Statistical Area","99999","Richfield, WI","Washington & Ozaukee Counties"," ",664,0 
"33340","55","55131","4601.01","53017","U","57466","20000","99999","WI","Washington WI","Milwaukee-Waukesha-West Allis, WI Metropolitan Statistical Area","99999","Richfield, WI","Washington & Ozaukee Counties","Milwaukee, WI Urbanized Area",1394,0.001 
"33340","55","55131","4601.01","53027","R"," ","20000","99999","WI","Washington WI","Milwaukee-Waukesha-West Allis, WI Metropolitan Statistical Area","99999","Hartford, WI","Washington & Ozaukee Counties"," ",120,0 
"33340","55","55131","4601.01","53033","R"," ","20000","99999","WI","Washington WI","Milwaukee-Waukesha-West Allis, WI Metropolitan Statistical Area","99999","Richfield, WI","Washington & Ozaukee Counties"," ",974,0.001 
"33340","55","55131","4601.01","53033","U","57466","20000","99999","WI","Washington WI","Milwaukee-Waukesha-West Allis, WI Metropolitan Statistical Area","99999","Richfield, WI","Washington & Ozaukee Counties","Milwaukee, WI Urbanized Area",974,0.001 
"33340","55","55131","4601.01","53076","R"," ","20000","99999","WI","Washington WI","Milwaukee-Waukesha-West Allis, WI Metropolitan Statistical Area","99999","Richfield, WI","Washington & Ozaukee Counties"," ",1670,0.001 
"33340","55","55131","4601.01","53076","U","57466","20000","99999","WI","Washington WI","Milwaukee-Waukesha-West Allis, WI Metropolitan Statistical Area","99999","Richfield, WI","Washington & Ozaukee Counties","Milwaukee, WI Urbanized Area",466,0 
"33340","55","55131","4601.02","53017","R"," ","20000","99999","WI","Washington WI","Milwaukee-Waukesha-West Allis, WI Metropolitan Statistical Area","99999","Richfield, WI","Washington & Ozaukee Counties"," ",1338,0.001 
"33340","55","55131","4601.02","53017","U","57466","20000","99999","WI","Washington WI","Milwaukee-Waukesha-West Allis, WI Metropolitan Statistical Area","99999","Richfield, WI","Washington & Ozaukee Counties","Milwaukee, WI Urbanized Area",494,0 
"33340","55","55131","4601.02","53022","R"," ","20000","99999","WI","Washington WI","Milwaukee-Waukesha-West Allis, WI Metropolitan Statistical Area","99999","Germantown, WI","Washington & Ozaukee Counties"," ",100,0 
"33340","55","55131","4601.02","53033","R"," ","20000","99999","WI","Washington WI","Milwaukee-Waukesha-West Allis, WI Metropolitan Statistical Area","99999","Richfield, WI","Washington & Ozaukee Counties"," ",655,0 
"33340","55","55131","4601.02","53033","U","57466","20000","99999","WI","Washington WI","Milwaukee-Waukesha-West Allis, WI Metropolitan Statistical Area","99999","Richfield, WI","Washington & Ozaukee Counties","Milwaukee, WI Urbanized Area",2164,0.001 
"33340","55","55131","4601.02","53076","R"," ","20000","99999","WI","Washington WI","Milwaukee-Waukesha-West Allis, WI Metropolitan Statistical Area","99999","Richfield, WI","Washington & Ozaukee Counties"," ",117,0 
"33340","55","55131","4601.02","53076","U","57466","20000","99999","WI","Washington WI","Milwaukee-Waukesha-West Allis, WI Metropolitan Statistical Area","99999","Richfield, WI","Washington & Ozaukee Counties","Milwaukee, WI Urbanized Area",170,0 
"33340","55","55131","4701.00","53017","R"," ","20000","99999","WI","Washington WI","Milwaukee-Waukesha-West Allis, WI Metropolitan Statistical Area","99999","Richfield, WI","Washington & Ozaukee Counties"," ",377,0 
"33340","55","55131","4701.00","53017","U","57466","20000","99999","WI","Washington WI","Milwaukee-Waukesha-West Allis, WI Metropolitan Statistical Area","99999","Richfield, WI","Washington & Ozaukee Counties","Milwaukee, WI Urbanized Area",90,0 
"33340","55","55131","4701.00","53022","R"," ","20000","99999","WI","Washington WI","Milwaukee-Waukesha-West Allis, WI Metropolitan Statistical Area","99999","Germantown, WI","Washington & Ozaukee Counties"," ",1207,0.001 
"33340","55","55131","4701.00","53022","U","57466","20000","99999","WI","Washington WI","Milwaukee-Waukesha-West Allis, WI Metropolitan Statistical Area","99999","Germantown, WI","Washington & Ozaukee Counties","Milwaukee, WI Urbanized Area",2767,0.002 
"33340","55","55131","4701.00","53037","R"," ","20000","99999","WI","Washington WI","Milwaukee-Waukesha-West Allis, WI Metropolitan Statistical Area","99999","Jackson, WI","Washington & Ozaukee Counties"," ",18,0 
"33340","55","55131","4701.00","53076","R"," ","20000","99999","WI","Washington WI","Milwaukee-Waukesha-West Allis, WI Metropolitan Statistical Area","99999","Richfield, WI","Washington & Ozaukee Counties"," ",658,0 
"33340","55","55131","4701.00","53076","U","57466","20000","99999","WI","Washington WI","Milwaukee-Waukesha-West Allis, WI Metropolitan Statistical Area","99999","Richfield, WI","Washington & Ozaukee Counties","Milwaukee, WI Urbanized Area",40,0 
"33340","55","55131","4702.02","53022","U","57466","20000","99999","WI","Washington WI","Milwaukee-Waukesha-West Allis, WI Metropolitan Statistical Area","99999","Germantown, WI","Washington & Ozaukee Counties","Milwaukee, WI Urbanized Area",6278,0.004 
"33340","55","55131","4702.03","53022","R"," ","20000","99999","WI","Washington WI","Milwaukee-Waukesha-West Allis, WI Metropolitan Statistical Area","99999","Germantown, WI","Washington & Ozaukee Counties"," ",432,0 
"33340","55","55131","4702.03","53022","U","57466","20000","99999","WI","Washington WI","Milwaukee-Waukesha-West Allis, WI Metropolitan Statistical Area","99999","Germantown, WI","Washington & Ozaukee Counties","Milwaukee, WI Urbanized Area",3810,0.002 
"33340","55","55131","4702.04","53022","R"," ","20000","99999","WI","Washington WI","Milwaukee-Waukesha-West Allis, WI Metropolitan Statistical Area","99999","Germantown, WI","Washington & Ozaukee Counties"," ",131,0 
"33340","55","55131","4702.04","53022","U","57466","20000","99999","WI","Washington WI","Milwaukee-Waukesha-West Allis, WI Metropolitan Statistical Area","99999","Germantown, WI","Washington & Ozaukee Counties","Milwaukee, WI Urbanized Area",4195,0.003 
"33340","55","55133","2001.01","53051","U","57466","70201","99999","WI","Waukesha WI","Milwaukee-Waukesha-West Allis, WI Metropolitan Statistical Area","99999","Menomonee Falls, WI","Waukesha County (East)","Milwaukee, WI Urbanized Area",4480,0.003 
"33340","55","55133","2001.02","53051","U","57466","70201","99999","WI","Waukesha WI","Milwaukee-Waukesha-West Allis, WI Metropolitan Statistical Area","99999","Menomonee Falls, WI","Waukesha County (East)","Milwaukee, WI Urbanized Area",4852,0.003 
"33340","55","55133","2001.03","53051","U","57466","70201","99999","WI","Waukesha WI","Milwaukee-Waukesha-West Allis, WI Metropolitan Statistical Area","99999","Menomonee Falls, WI","Waukesha County (East)","Milwaukee, WI Urbanized Area",3122,0.002 
"33340","55","55133","2002.01","53051","U","57466","70201","99999","WI","Waukesha WI","Milwaukee-Waukesha-West Allis, WI Metropolitan Statistical Area","99999","Menomonee Falls, WI","Waukesha County (East)","Milwaukee, WI Urbanized Area",3595,0.002 
"33340","55","55133","2002.02","53051","U","57466","70201","99999","WI","Waukesha WI","Milwaukee-Waukesha-West Allis, WI Metropolitan Statistical Area","99999","Menomonee Falls, WI","Waukesha County (East)","Milwaukee, WI Urbanized Area",4206,0.003 
"33340","55","55133","2003.00","53046","R"," ","70201","99999","WI","Waukesha WI","Milwaukee-Waukesha-West Allis, WI Metropolitan Statistical Area","99999","Lannon, WI","Waukesha County (East)"," ",183,0 
"33340","55","55133","2003.00","53046","U","57466","70201","99999","WI","Waukesha WI","Milwaukee-Waukesha-West Allis, WI Metropolitan Statistical Area","99999","Lannon, WI","Waukesha County (East)","Milwaukee, WI Urbanized Area",924,0.001 
"33340","55","55133","2003.00","53051","R"," ","70201","99999","WI","Waukesha WI","Milwaukee-Waukesha-West Allis, WI Metropolitan Statistical Area","99999","Menomonee Falls, WI","Waukesha County (East)"," ",1794,0.001 
"33340","55","55133","2003.00","53051","U","57466","70201","99999","WI","Waukesha WI","Milwaukee-Waukesha-West Allis, WI Metropolitan Statistical Area","99999","Menomonee Falls, WI","Waukesha County (East)","Milwaukee, WI Urbanized Area",1277,0.001 
"33340","55","55133","2004.00","53051","R"," ","70201","99999","WI","Waukesha WI","Milwaukee-Waukesha-West Allis, WI Metropolitan Statistical Area","99999","Menomonee Falls, WI","Waukesha County (East)"," ",349,0 
"33340","55","55133","2004.00","53051","U","57466","70201","99999","WI","Waukesha WI","Milwaukee-Waukesha-West Allis, WI Metropolitan Statistical Area","99999","Menomonee Falls, WI","Waukesha County (East)","Milwaukee, WI Urbanized Area",6227,0.004 
"33340","55","55133","2004.00","53225","U","57466","70201","99999","WI","Waukesha WI","Milwaukee-Waukesha-West Allis, WI Metropolitan Statistical Area","99999","Milwaukee, WI","Waukesha County (East)","Milwaukee, WI Urbanized Area",6,0 
"33340","55","55133","2005.00","53051","U","57466","70201","99999","WI","Waukesha WI","Milwaukee-Waukesha-West Allis, WI Metropolitan Statistical Area","99999","Menomonee Falls, WI","Waukesha County (East)","Milwaukee, WI Urbanized Area",5667,0.004 
"33340","55","55133","2006.00","53007","U","57466","70201","99999","WI","Waukesha WI","Milwaukee-Waukesha-West Allis, WI Metropolitan Statistical Area","99999","Butler, WI","Waukesha County (East)","Milwaukee, WI Urbanized Area",1841,0.001 
"33340","55","55133","2007.00","53005","U","57466","70201","99999","WI","Waukesha WI","Milwaukee-Waukesha-West Allis, WI Metropolitan Statistical Area","99999","Brookfield, WI","Waukesha County (East)","Milwaukee, WI Urbanized Area",3808,0.002 
"33340","55","55133","2008.01","53045","U","57466","70201","99999","WI","Waukesha WI","Milwaukee-Waukesha-West Allis, WI Metropolitan Statistical Area","99999","Brookfield, WI","Waukesha County (East)","Milwaukee, WI Urbanized Area",2634,0.002 
"33340","55","55133","2008.01","53051","R"," ","70201","99999","WI","Waukesha WI","Milwaukee-Waukesha-West Allis, WI Metropolitan Statistical Area","99999","Menomonee Falls, WI","Waukesha County (East)"," ",18,0 
"33340","55","55133","2008.01","53051","U","57466","70201","99999","WI","Waukesha WI","Milwaukee-Waukesha-West Allis, WI Metropolitan Statistical Area","99999","Menomonee Falls, WI","Waukesha County (East)","Milwaukee, WI Urbanized Area",33,0 
"33340","55","55133","2008.01","53072","R"," ","70201","99999","WI","Waukesha WI","Milwaukee-Waukesha-West Allis, WI Metropolitan Statistical Area","99999","Pewaukee, WI","Waukesha County (East)"," ",136,0 
"33340","55","55133","2008.01","53072","U","57466","70201","99999","WI","Waukesha WI","Milwaukee-Waukesha-West Allis, WI Metropolitan Statistical Area","99999","Pewaukee, WI","Waukesha County (East)","Milwaukee, WI Urbanized Area",232,0 
"33340","55","55133","2008.01","53186","U","57466","70201","99999","WI","Waukesha WI","Milwaukee-Waukesha-West Allis, WI Metropolitan Statistical Area","99999","Waukesha, WI","Waukesha County (East)","Milwaukee, WI Urbanized Area",2061,0.001 
"33340","55","55133","2008.03","53045","R"," ","70201","99999","WI","Waukesha WI","Milwaukee-Waukesha-West Allis, WI Metropolitan Statistical Area","99999","Brookfield, WI","Waukesha County (East)"," ",171,0 
"33340","55","55133","2008.03","53045","U","57466","70201","99999","WI","Waukesha WI","Milwaukee-Waukesha-West Allis, WI Metropolitan Statistical Area","99999","Brookfield, WI","Waukesha County (East)","Milwaukee, WI Urbanized Area",4312,0.003 
"33340","55","55133","2008.03","53072","R"," ","70201","99999","WI","Waukesha WI","Milwaukee-Waukesha-West Allis, WI Metropolitan Statistical Area","99999","Pewaukee, WI","Waukesha County (East)"," ",10,0 
"33340","55","55133","2008.04","53045","U","57466","70201","99999","WI","Waukesha WI","Milwaukee-Waukesha-West Allis, WI Metropolitan Statistical Area","99999","Brookfield, WI","Waukesha County (East)","Milwaukee, WI Urbanized Area",3624,0.002 
"33340","55","55133","2009.01","53005","U","57466","70201","99999","WI","Waukesha WI","Milwaukee-Waukesha-West Allis, WI Metropolitan Statistical Area","99999","Brookfield, WI","Waukesha County (East)","Milwaukee, WI Urbanized Area",3932,0.003 
"33340","55","55133","2009.02","53005","U","57466","70201","99999","WI","Waukesha WI","Milwaukee-Waukesha-West Allis, WI Metropolitan Statistical Area","99999","Brookfield, WI","Waukesha County (East)","Milwaukee, WI Urbanized Area",4005,0.003 
"33340","55","55133","2010.00","53005","U","57466","70201","99999","WI","Waukesha WI","Milwaukee-Waukesha-West Allis, WI Metropolitan Statistical Area","99999","Brookfield, WI","Waukesha County (East)","Milwaukee, WI Urbanized Area",42,0 
"33340","55","55133","2010.00","53122","U","57466","70201","99999","WI","Waukesha WI","Milwaukee-Waukesha-West Allis, WI Metropolitan Statistical Area","99999","Elm Grove, WI","Waukesha County (East)","Milwaukee, WI Urbanized Area",5985,0.004 
"33340","55","55133","2011.01","53005","U","57466","70201","99999","WI","Waukesha WI","Milwaukee-Waukesha-West Allis, WI Metropolitan Statistical Area","99999","Brookfield, WI","Waukesha County (East)","Milwaukee, WI Urbanized Area",4656,0.003 
"33340","55","55133","2011.02","53005","U","57466","70201","99999","WI","Waukesha WI","Milwaukee-Waukesha-West Allis, WI Metropolitan Statistical Area","99999","Brookfield, WI","Waukesha County (East)","Milwaukee, WI Urbanized Area",2867,0.002 
"33340","55","55133","2012.01","53045","U","57466","70201","99999","WI","Waukesha WI","Milwaukee-Waukesha-West Allis, WI Metropolitan Statistical Area","99999","Brookfield, WI","Waukesha County (East)","Milwaukee, WI Urbanized Area",1795,0.001 
"33340","55","55133","2012.01","53186","U","57466","70201","99999","WI","Waukesha WI","Milwaukee-Waukesha-West Allis, WI Metropolitan Statistical Area","99999","Waukesha, WI","Waukesha County (East)","Milwaukee, WI Urbanized Area",324,0 
"33340","55","55133","2012.02","53045","U","57466","70201","99999","WI","Waukesha WI","Milwaukee-Waukesha-West Allis, WI Metropolitan Statistical Area","99999","Brookfield, WI","Waukesha County (East)","Milwaukee, WI Urbanized Area",6032,0.004 
"33340","55","55133","2012.03","53005","U","57466","70201","99999","WI","Waukesha WI","Milwaukee-Waukesha-West Allis, WI Metropolitan Statistical Area","99999","Brookfield, WI","Waukesha County (East)","Milwaukee, WI Urbanized Area",115,0 
"33340","55","55133","2012.03","53045","U","57466","70201","99999","WI","Waukesha WI","Milwaukee-Waukesha-West Allis, WI Metropolitan Statistical Area","99999","Brookfield, WI","Waukesha County (East)","Milwaukee, WI Urbanized Area",3118,0.002 
"33340","55","55133","2013.00","53146","R"," ","70201","99999","WI","Waukesha WI","Milwaukee-Waukesha-West Allis, WI Metropolitan Statistical Area","99999","New Berlin, WI","Waukesha County (East)"," ",836,0.001 
"33340","55","55133","2013.00","53146","U","57466","70201","99999","WI","Waukesha WI","Milwaukee-Waukesha-West Allis, WI Metropolitan Statistical Area","99999","New Berlin, WI","Waukesha County (East)","Milwaukee, WI Urbanized Area",2032,0.001 
"33340","55","55133","2013.00","53151","U","57466","70201","99999","WI","Waukesha WI","Milwaukee-Waukesha-West Allis, WI Metropolitan Statistical Area","99999","New Berlin, WI","Waukesha County (East)","Milwaukee, WI Urbanized Area",396,0 
"33340","55","55133","2013.00","53186","U","57466","70201","99999","WI","Waukesha WI","Milwaukee-Waukesha-West Allis, WI Metropolitan Statistical Area","99999","Waukesha, WI","Waukesha County (East)","Milwaukee, WI Urbanized Area",1520,0.001 
"33340","55","55133","2013.00","53189","R"," ","70201","99999","WI","Waukesha WI","Milwaukee-Waukesha-West Allis, WI Metropolitan Statistical Area","99999","Waukesha, WI","Waukesha County (East)"," ",14,0 
"33340","55","55133","2013.00","53189","U","57466","70201","99999","WI","Waukesha WI","Milwaukee-Waukesha-West Allis, WI Metropolitan Statistical Area","99999","Waukesha, WI","Waukesha County (East)","Milwaukee, WI Urbanized Area",57,0 
"33340","55","55133","2014.02","53151","U","57466","70201","99999","WI","Waukesha WI","Milwaukee-Waukesha-West Allis, WI Metropolitan Statistical Area","99999","New Berlin, WI","Waukesha County (East)","Milwaukee, WI Urbanized Area",4656,0.003 
"33340","55","55133","2014.03","53151","U","57466","70201","99999","WI","Waukesha WI","Milwaukee-Waukesha-West Allis, WI Metropolitan Statistical Area","99999","New Berlin, WI","Waukesha County (East)","Milwaukee, WI Urbanized Area",4265,0.003 
"33340","55","55133","2014.04","53151","U","57466","70201","99999","WI","Waukesha WI","Milwaukee-Waukesha-West Allis, WI Metropolitan Statistical Area","99999","New Berlin, WI","Waukesha County (East)","Milwaukee, WI Urbanized Area",3844,0.002 
"33340","55","55133","2015.03","53151","U","57466","70201","99999","WI","Waukesha WI","Milwaukee-Waukesha-West Allis, WI Metropolitan Statistical Area","99999","New Berlin, WI","Waukesha County (East)","Milwaukee, WI Urbanized Area",6647,0.004 
"33340","55","55133","2015.04","53150","U","57466","70201","99999","WI","Waukesha WI","Milwaukee-Waukesha-West Allis, WI Metropolitan Statistical Area","99999","Muskego, WI","Waukesha County (East)","Milwaukee, WI Urbanized Area",1629,0.001 
"33340","55","55133","2015.04","53151","U","57466","70201","99999","WI","Waukesha WI","Milwaukee-Waukesha-West Allis, WI Metropolitan Statistical Area","99999","New Berlin, WI","Waukesha County (East)","Milwaukee, WI Urbanized Area",4581,0.003 
"33340","55","55133","2015.05","53151","U","57466","70201","99999","WI","Waukesha WI","Milwaukee-Waukesha-West Allis, WI Metropolitan Statistical Area","99999","New Berlin, WI","Waukesha County (East)","Milwaukee, WI Urbanized Area",2936,0.002 
"33340","55","55133","2015.06","53150","U","57466","70201","99999","WI","Waukesha WI","Milwaukee-Waukesha-West Allis, WI Metropolitan Statistical Area","99999","Muskego, WI","Waukesha County (East)","Milwaukee, WI Urbanized Area",35,0 
"33340","55","55133","2015.06","53151","U","57466","70201","99999","WI","Waukesha WI","Milwaukee-Waukesha-West Allis, WI Metropolitan Statistical Area","99999","New Berlin, WI","Waukesha County (East)","Milwaukee, WI Urbanized Area",4662,0.003 
"33340","55","55133","2016.00","53146","R"," ","70201","99999","WI","Waukesha WI","Milwaukee-Waukesha-West Allis, WI Metropolitan Statistical Area","99999","New Berlin, WI","Waukesha County (East)"," ",1309,0.001 
"33340","55","55133","2016.00","53146","U","57466","70201","99999","WI","Waukesha WI","Milwaukee-Waukesha-West Allis, WI Metropolitan Statistical Area","99999","New Berlin, WI","Waukesha County (East)","Milwaukee, WI Urbanized Area",3151,0.002 
"33340","55","55133","2016.00","53189","R"," ","70201","99999","WI","Waukesha WI","Milwaukee-Waukesha-West Allis, WI Metropolitan Statistical Area","99999","Waukesha, WI","Waukesha County (East)"," ",164,0 
"33340","55","55133","2016.00","53189","U","57466","70201","99999","WI","Waukesha WI","Milwaukee-Waukesha-West Allis, WI Metropolitan Statistical Area","99999","Waukesha, WI","Waukesha County (East)","Milwaukee, WI Urbanized Area",493,0 
"33340","55","55133","2017.01","53150","U","57466","70201","99999","WI","Waukesha WI","Milwaukee-Waukesha-West Allis, WI Metropolitan Statistical Area","99999","Muskego, WI","Waukesha County (East)","Milwaukee, WI Urbanized Area",4594,0.003 
"33340","55","55133","2017.03","53150","U","57466","70201","99999","WI","Waukesha WI","Milwaukee-Waukesha-West Allis, WI Metropolitan Statistical Area","99999","Muskego, WI","Waukesha County (East)","Milwaukee, WI Urbanized Area",6097,0.004 
"33340","55","55133","2017.04","53150","R"," ","70201","99999","WI","Waukesha WI","Milwaukee-Waukesha-West Allis, WI Metropolitan Statistical Area","99999","Muskego, WI","Waukesha County (East)"," ",541,0 
"33340","55","55133","2017.04","53150","U","57466","70201","99999","WI","Waukesha WI","Milwaukee-Waukesha-West Allis, WI Metropolitan Statistical Area","99999","Muskego, WI","Waukesha County (East)","Milwaukee, WI Urbanized Area",4665,0.003 
"33340","55","55133","2018.00","53150","U","57466","70201","99999","WI","Waukesha WI","Milwaukee-Waukesha-West Allis, WI Metropolitan Statistical Area","99999","Muskego, WI","Waukesha County (East)","Milwaukee, WI Urbanized Area",1503,0.001 
"33340","55","55133","2019.00","53150","R"," ","70201","99999","WI","Waukesha WI","Milwaukee-Waukesha-West Allis, WI Metropolitan Statistical Area","99999","Muskego, WI","Waukesha County (East)"," ",1011,0.001 
"33340","55","55133","2019.00","53150","U","57466","70201","99999","WI","Waukesha WI","Milwaukee-Waukesha-West Allis, WI Metropolitan Statistical Area","99999","Muskego, WI","Waukesha County (East)","Milwaukee, WI Urbanized Area",4158,0.003 
"33340","55","55133","2020.01","53103","R"," ","70101","99999","WI","Waukesha WI","Milwaukee-Waukesha-West Allis, WI Metropolitan Statistical Area","99999","Big Bend, WI","Waukesha County (West)"," ",253,0 
"33340","55","55133","2020.01","53149","R"," ","70101","99999","WI","Waukesha WI","Milwaukee-Waukesha-West Allis, WI Metropolitan Statistical Area","99999","Mukwonago, WI","Waukesha County (West)"," ",1378,0.001 
"33340","55","55133","2020.01","53149","U","57466","70101","99999","WI","Waukesha WI","Milwaukee-Waukesha-West Allis, WI Metropolitan Statistical Area","99999","Mukwonago, WI","Waukesha County (West)","Milwaukee, WI Urbanized Area",49,0 
"33340","55","55133","2020.01","53149","U","60517","70101","99999","WI","Waukesha WI","Milwaukee-Waukesha-West Allis, WI Metropolitan Statistical Area","99999","Mukwonago, WI","Waukesha County (West)","Mukwonago, WI Urban Cluster",525,0 
"33340","55","55133","2020.01","53189","R"," ","70101","99999","WI","Waukesha WI","Milwaukee-Waukesha-West Allis, WI Metropolitan Statistical Area","99999","Waukesha, WI","Waukesha County (West)"," ",1807,0.001 
"33340","55","55133","2020.01","53189","U","57466","70101","99999","WI","Waukesha WI","Milwaukee-Waukesha-West Allis, WI Metropolitan Statistical Area","99999","Waukesha, WI","Waukesha County (West)","Milwaukee, WI Urbanized Area",983,0.001 
"33340","55","55133","2020.02","53103","R"," ","70101","99999","WI","Waukesha WI","Milwaukee-Waukesha-West Allis, WI Metropolitan Statistical Area","99999","Big Bend, WI","Waukesha County (West)"," ",1106,0.001 
"33340","55","55133","2020.02","53103","U","57466","70101","99999","WI","Waukesha WI","Milwaukee-Waukesha-West Allis, WI Metropolitan Statistical Area","99999","Big Bend, WI","Waukesha County (West)","Milwaukee, WI Urbanized Area",2365,0.002 
"33340","55","55133","2020.02","53149","R"," ","70101","99999","WI","Waukesha WI","Milwaukee-Waukesha-West Allis, WI Metropolitan Statistical Area","99999","Mukwonago, WI","Waukesha County (West)"," ",314,0 
"33340","55","55133","2020.02","53150","R"," ","70101","99999","WI","Waukesha WI","Milwaukee-Waukesha-West Allis, WI Metropolitan Statistical Area","99999","Muskego, WI","Waukesha County (West)"," ",22,0 
"33340","55","55133","2020.02","53150","U","57466","70101","99999","WI","Waukesha WI","Milwaukee-Waukesha-West Allis, WI Metropolitan Statistical Area","99999","Muskego, WI","Waukesha County (West)","Milwaukee, WI Urbanized Area",223,0 
"33340","55","55133","2021.01","53189","R"," ","70301","99999","WI","Waukesha WI","Milwaukee-Waukesha-West Allis, WI Metropolitan Statistical Area","99999","Waukesha, WI","Waukesha County (Central)"," ",303,0 
"33340","55","55133","2021.01","53189","U","57466","70301","99999","WI","Waukesha WI","Milwaukee-Waukesha-West Allis, WI Metropolitan Statistical Area","99999","Waukesha, WI","Waukesha County (Central)","Milwaukee, WI Urbanized Area",3791,0.002 
"33340","55","55133","2021.02","53189","R"," ","70301","99999","WI","Waukesha WI","Milwaukee-Waukesha-West Allis, WI Metropolitan Statistical Area","99999","Waukesha, WI","Waukesha County (Central)"," ",376,0 
"33340","55","55133","2021.02","53189","U","57466","70301","99999","WI","Waukesha WI","Milwaukee-Waukesha-West Allis, WI Metropolitan Statistical Area","99999","Waukesha, WI","Waukesha County (Central)","Milwaukee, WI Urbanized Area",4274,0.003 
"33340","55","55133","2021.03","53189","R"," ","70301","99999","WI","Waukesha WI","Milwaukee-Waukesha-West Allis, WI Metropolitan Statistical Area","99999","Waukesha, WI","Waukesha County (Central)"," ",408,0 
"33340","55","55133","2021.03","53189","U","57466","70301","99999","WI","Waukesha WI","Milwaukee-Waukesha-West Allis, WI Metropolitan Statistical Area","99999","Waukesha, WI","Waukesha County (Central)","Milwaukee, WI Urbanized Area",3001,0.002 
"33340","55","55133","2022.01","53188","U","57466","70301","99999","WI","Waukesha WI","Milwaukee-Waukesha-West Allis, WI Metropolitan Statistical Area","99999","Waukesha, WI","Waukesha County (Central)","Milwaukee, WI Urbanized Area",4329,0.003 
"33340","55","55133","2022.02","53188","U","57466","70301","99999","WI","Waukesha WI","Milwaukee-Waukesha-West Allis, WI Metropolitan Statistical Area","99999","Waukesha, WI","Waukesha County (Central)","Milwaukee, WI Urbanized Area",5774,0.004 
"33340","55","55133","2023.01","53186","U","57466","70301","99999","WI","Waukesha WI","Milwaukee-Waukesha-West Allis, WI Metropolitan Statistical Area","99999","Waukesha, WI","Waukesha County (Central)","Milwaukee, WI Urbanized Area",394,0 
"33340","55","55133","2023.01","53189","U","57466","70301","99999","WI","Waukesha WI","Milwaukee-Waukesha-West Allis, WI Metropolitan Statistical Area","99999","Waukesha, WI","Waukesha County (Central)","Milwaukee, WI Urbanized Area",4100,0.003 
"33340","55","55133","2023.02","53186","U","57466","70301","99999","WI","Waukesha WI","Milwaukee-Waukesha-West Allis, WI Metropolitan Statistical Area","99999","Waukesha, WI","Waukesha County (Central)","Milwaukee, WI Urbanized Area",3456,0.002 
"33340","55","55133","2023.02","53189","U","57466","70301","99999","WI","Waukesha WI","Milwaukee-Waukesha-West Allis, WI Metropolitan Statistical Area","99999","Waukesha, WI","Waukesha County (Central)","Milwaukee, WI Urbanized Area",3376,0.002 
"33340","55","55133","2024.00","53186","U","57466","70301","99999","WI","Waukesha WI","Milwaukee-Waukesha-West Allis, WI Metropolitan Statistical Area","99999","Waukesha, WI","Waukesha County (Central)","Milwaukee, WI Urbanized Area",4988,0.003 
"33340","55","55133","2024.00","53189","U","57466","70301","99999","WI","Waukesha WI","Milwaukee-Waukesha-West Allis, WI Metropolitan Statistical Area","99999","Waukesha, WI","Waukesha County (Central)","Milwaukee, WI Urbanized Area",15,0 
"33340","55","55133","2025.00","53186","U","57466","70301","99999","WI","Waukesha WI","Milwaukee-Waukesha-West Allis, WI Metropolitan Statistical Area","99999","Waukesha, WI","Waukesha County (Central)","Milwaukee, WI Urbanized Area",3998,0.003 
"33340","55","55133","2026.00","53186","U","57466","70301","99999","WI","Waukesha WI","Milwaukee-Waukesha-West Allis, WI Metropolitan Statistical Area","99999","Waukesha, WI","Waukesha County (Central)","Milwaukee, WI Urbanized Area",3498,0.002 
"33340","55","55133","2027.00","53186","U","57466","70301","99999","WI","Waukesha WI","Milwaukee-Waukesha-West Allis, WI Metropolitan Statistical Area","99999","Waukesha, WI","Waukesha County (Central)","Milwaukee, WI Urbanized Area",1264,0.001 
"33340","55","55133","2027.00","53188","U","57466","70301","99999","WI","Waukesha WI","Milwaukee-Waukesha-West Allis, WI Metropolitan Statistical Area","99999","Waukesha, WI","Waukesha County (Central)","Milwaukee, WI Urbanized Area",288,0 
"33340","55","55133","2028.00","53186","U","57466","70301","99999","WI","Waukesha WI","Milwaukee-Waukesha-West Allis, WI Metropolitan Statistical Area","99999","Waukesha, WI","Waukesha County (Central)","Milwaukee, WI Urbanized Area",4219,0.003 
"33340","55","55133","2029.01","53186","U","57466","70301","99999","WI","Waukesha WI","Milwaukee-Waukesha-West Allis, WI Metropolitan Statistical Area","99999","Waukesha, WI","Waukesha County (Central)","Milwaukee, WI Urbanized Area",4452,0.003 
"33340","55","55133","2029.02","53146","U","57466","70301","99999","WI","Waukesha WI","Milwaukee-Waukesha-West Allis, WI Metropolitan Statistical Area","99999","New Berlin, WI","Waukesha County (Central)","Milwaukee, WI Urbanized Area",130,0 
"33340","55","55133","2029.02","53186","U","57466","70301","99999","WI","Waukesha WI","Milwaukee-Waukesha-West Allis, WI Metropolitan Statistical Area","99999","Waukesha, WI","Waukesha County (Central)","Milwaukee, WI Urbanized Area",3383,0.002 
"33340","55","55133","2030.00","53186","U","57466","70301","99999","WI","Waukesha WI","Milwaukee-Waukesha-West Allis, WI Metropolitan Statistical Area","99999","Waukesha, WI","Waukesha County (Central)","Milwaukee, WI Urbanized Area",6,0 
"33340","55","55133","2030.00","53188","U","57466","70301","99999","WI","Waukesha WI","Milwaukee-Waukesha-West Allis, WI Metropolitan Statistical Area","99999","Waukesha, WI","Waukesha County (Central)","Milwaukee, WI Urbanized Area",2635,0.002 
"33340","55","55133","2031.01","53072","U","57466","70301","99999","WI","Waukesha WI","Milwaukee-Waukesha-West Allis, WI Metropolitan Statistical Area","99999","Pewaukee, WI","Waukesha County (Central)","Milwaukee, WI Urbanized Area",115,0 
"33340","55","55133","2031.01","53188","U","57466","70301","99999","WI","Waukesha WI","Milwaukee-Waukesha-West Allis, WI Metropolitan Statistical Area","99999","Waukesha, WI","Waukesha County (Central)","Milwaukee, WI Urbanized Area",6421,0.004 
"33340","55","55133","2031.02","53188","R"," ","70301","99999","WI","Waukesha WI","Milwaukee-Waukesha-West Allis, WI Metropolitan Statistical Area","99999","Waukesha, WI","Waukesha County (Central)"," ",169,0 
"33340","55","55133","2031.02","53188","U","57466","70301","99999","WI","Waukesha WI","Milwaukee-Waukesha-West Allis, WI Metropolitan Statistical Area","99999","Waukesha, WI","Waukesha County (Central)","Milwaukee, WI Urbanized Area",6532,0.004 
"33340","55","55133","2031.03","53188","U","57466","70301","99999","WI","Waukesha WI","Milwaukee-Waukesha-West Allis, WI Metropolitan Statistical Area","99999","Waukesha, WI","Waukesha County (Central)","Milwaukee, WI Urbanized Area",4528,0.003 
"33340","55","55133","2032.00","53018","U","57466","70301","99999","WI","Waukesha WI","Milwaukee-Waukesha-West Allis, WI Metropolitan Statistical Area","99999","Delafield, WI","Waukesha County (Central)","Milwaukee, WI Urbanized Area",53,0 
"33340","55","55133","2032.00","53072","U","57466","70301","99999","WI","Waukesha WI","Milwaukee-Waukesha-West Allis, WI Metropolitan Statistical Area","99999","Pewaukee, WI","Waukesha County (Central)","Milwaukee, WI Urbanized Area",4040,0.003 
"33340","55","55133","2032.00","53188","U","57466","70301","99999","WI","Waukesha WI","Milwaukee-Waukesha-West Allis, WI Metropolitan Statistical Area","99999","Waukesha, WI","Waukesha County (Central)","Milwaukee, WI Urbanized Area",13,0 
"33340","55","55133","2033.03","53072","R"," ","70301","99999","WI","Waukesha WI","Milwaukee-Waukesha-West Allis, WI Metropolitan Statistical Area","99999","Pewaukee, WI","Waukesha County (Central)"," ",537,0 
"33340","55","55133","2033.03","53072","U","57466","70301","99999","WI","Waukesha WI","Milwaukee-Waukesha-West Allis, WI Metropolitan Statistical Area","99999","Pewaukee, WI","Waukesha County (Central)","Milwaukee, WI Urbanized Area",3004,0.002 
"33340","55","55133","2033.03","53089","R"," ","70301","99999","WI","Waukesha WI","Milwaukee-Waukesha-West Allis, WI Metropolitan Statistical Area","99999","Sussex, WI","Waukesha County (Central)"," ",110,0 
"33340","55","55133","2033.03","53089","U","57466","70301","99999","WI","Waukesha WI","Milwaukee-Waukesha-West Allis, WI Metropolitan Statistical Area","99999","Sussex, WI","Waukesha County (Central)","Milwaukee, WI Urbanized Area",98,0 
"33340","55","55133","2033.04","53072","U","57466","70301","99999","WI","Waukesha WI","Milwaukee-Waukesha-West Allis, WI Metropolitan Statistical Area","99999","Pewaukee, WI","Waukesha County (Central)","Milwaukee, WI Urbanized Area",4037,0.003 
"33340","55","55133","2033.05","53072","U","57466","70301","99999","WI","Waukesha WI","Milwaukee-Waukesha-West Allis, WI Metropolitan Statistical Area","99999","Pewaukee, WI","Waukesha County (Central)","Milwaukee, WI Urbanized Area",4328,0.003 
"33340","55","55133","2033.06","53072","U","57466","70301","99999","WI","Waukesha WI","Milwaukee-Waukesha-West Allis, WI Metropolitan Statistical Area","99999","Pewaukee, WI","Waukesha County (Central)","Milwaukee, WI Urbanized Area",5693,0.004 
"33340","55","55133","2033.06","53186","U","57466","70301","99999","WI","Waukesha WI","Milwaukee-Waukesha-West Allis, WI Metropolitan Statistical Area","99999","Waukesha, WI","Waukesha County (Central)","Milwaukee, WI Urbanized Area",29,0 
"33340","55","55133","2033.06","53188","U","57466","70301","99999","WI","Waukesha WI","Milwaukee-Waukesha-West Allis, WI Metropolitan Statistical Area","99999","Waukesha, WI","Waukesha County (Central)","Milwaukee, WI Urbanized Area",117,0 
"33340","55","55133","2033.06","53702","U","57466","70301","99999","WI","Waukesha WI","Milwaukee-Waukesha-West Allis, WI Metropolitan Statistical Area","99999","State Capitol, Madison, WI","Waukesha County (Central)","Milwaukee, WI Urbanized Area",50,0 
"33340","55","55133","2034.02","53089","U","57466","70301","99999","WI","Waukesha WI","Milwaukee-Waukesha-West Allis, WI Metropolitan Statistical Area","99999","Sussex, WI","Waukesha County (Central)","Milwaukee, WI Urbanized Area",4011,0.003 
"33340","55","55133","2034.03","53089","R"," ","70301","99999","WI","Waukesha WI","Milwaukee-Waukesha-West Allis, WI Metropolitan Statistical Area","99999","Sussex, WI","Waukesha County (Central)"," ",164,0 
"33340","55","55133","2034.03","53089","U","57466","70301","99999","WI","Waukesha WI","Milwaukee-Waukesha-West Allis, WI Metropolitan Statistical Area","99999","Sussex, WI","Waukesha County (Central)","Milwaukee, WI Urbanized Area",5340,0.003 
"33340","55","55133","2034.04","53089","U","57466","70301","99999","WI","Waukesha WI","Milwaukee-Waukesha-West Allis, WI Metropolitan Statistical Area","99999","Sussex, WI","Waukesha County (Central)","Milwaukee, WI Urbanized Area",3035,0.002 
"33340","55","55133","2034.05","53029","U","57466","70101","99999","WI","Waukesha WI","Milwaukee-Waukesha-West Allis, WI Metropolitan Statistical Area","99999","Hartland, WI","Waukesha County (West)","Milwaukee, WI Urbanized Area",3387,0.002 
"33340","55","55133","2034.05","53089","R"," ","70101","99999","WI","Waukesha WI","Milwaukee-Waukesha-West Allis, WI Metropolitan Statistical Area","99999","Sussex, WI","Waukesha County (West)"," ",160,0 
"33340","55","55133","2034.05","53089","U","57466","70101","99999","WI","Waukesha WI","Milwaukee-Waukesha-West Allis, WI Metropolitan Statistical Area","99999","Sussex, WI","Waukesha County (West)","Milwaukee, WI Urbanized Area",592,0 
"33340","55","55133","2034.06","53017","U","57466","70301","99999","WI","Waukesha WI","Milwaukee-Waukesha-West Allis, WI Metropolitan Statistical Area","99999","Richfield, WI","Waukesha County (Central)","Milwaukee, WI Urbanized Area",754,0 
"33340","55","55133","2034.06","53029","R"," ","70301","99999","WI","Waukesha WI","Milwaukee-Waukesha-West Allis, WI Metropolitan Statistical Area","99999","Hartland, WI","Waukesha County (Central)"," ",108,0 
"33340","55","55133","2034.06","53029","U","57466","70301","99999","WI","Waukesha WI","Milwaukee-Waukesha-West Allis, WI Metropolitan Statistical Area","99999","Hartland, WI","Waukesha County (Central)","Milwaukee, WI Urbanized Area",474,0 
"33340","55","55133","2034.06","53051","R"," ","70301","99999","WI","Waukesha WI","Milwaukee-Waukesha-West Allis, WI Metropolitan Statistical Area","99999","Menomonee Falls, WI","Waukesha County (Central)"," ",31,0 
"33340","55","55133","2034.06","53089","R"," ","70301","99999","WI","Waukesha WI","Milwaukee-Waukesha-West Allis, WI Metropolitan Statistical Area","99999","Sussex, WI","Waukesha County (Central)"," ",1365,0.001 
"33340","55","55133","2034.06","53089","U","57466","70301","99999","WI","Waukesha WI","Milwaukee-Waukesha-West Allis, WI Metropolitan Statistical Area","99999","Sussex, WI","Waukesha County (Central)","Milwaukee, WI Urbanized Area",3693,0.002 
"33340","55","55133","2035.00","53017","R"," ","70101","99999","WI","Waukesha WI","Milwaukee-Waukesha-West Allis, WI Metropolitan Statistical Area","99999","Richfield, WI","Waukesha County (West)"," ",37,0 
"33340","55","55133","2035.00","53017","U","57466","70101","99999","WI","Waukesha WI","Milwaukee-Waukesha-West Allis, WI Metropolitan Statistical Area","99999","Richfield, WI","Waukesha County (West)","Milwaukee, WI Urbanized Area",187,0 
"33340","55","55133","2035.00","53029","R"," ","70101","99999","WI","Waukesha WI","Milwaukee-Waukesha-West Allis, WI Metropolitan Statistical Area","99999","Hartland, WI","Waukesha County (West)"," ",1590,0.001 
"33340","55","55133","2035.00","53029","U","57466","70101","99999","WI","Waukesha WI","Milwaukee-Waukesha-West Allis, WI Metropolitan Statistical Area","99999","Hartland, WI","Waukesha County (West)","Milwaukee, WI Urbanized Area",4375,0.003 
"33340","55","55133","2035.00","53058","R"," ","70101","99999","WI","Waukesha WI","Milwaukee-Waukesha-West Allis, WI Metropolitan Statistical Area","99999","Nashotah, WI","Waukesha County (West)"," ",255,0 
"33340","55","55133","2035.00","53058","U","57466","70101","99999","WI","Waukesha WI","Milwaukee-Waukesha-West Allis, WI Metropolitan Statistical Area","99999","Nashotah, WI","Waukesha County (West)","Milwaukee, WI Urbanized Area",119,0 
"33340","55","55133","2036.01","53029","R"," ","70101","99999","WI","Waukesha WI","Milwaukee-Waukesha-West Allis, WI Metropolitan Statistical Area","99999","Hartland, WI","Waukesha County (West)"," ",82,0 
"33340","55","55133","2036.01","53029","U","57466","70101","99999","WI","Waukesha WI","Milwaukee-Waukesha-West Allis, WI Metropolitan Statistical Area","99999","Hartland, WI","Waukesha County (West)","Milwaukee, WI Urbanized Area",4020,0.003 
"33340","55","55133","2036.02","53029","U","57466","70101","99999","WI","Waukesha WI","Milwaukee-Waukesha-West Allis, WI Metropolitan Statistical Area","99999","Hartland, WI","Waukesha County (West)","Milwaukee, WI Urbanized Area",5056,0.003 
"33340","55","55133","2036.02","53072","U","57466","70101","99999","WI","Waukesha WI","Milwaukee-Waukesha-West Allis, WI Metropolitan Statistical Area","99999","Pewaukee, WI","Waukesha County (West)","Milwaukee, WI Urbanized Area",841,0.001 
"33340","55","55133","2037.02","53018","R"," ","70101","99999","WI","Waukesha WI","Milwaukee-Waukesha-West Allis, WI Metropolitan Statistical Area","99999","Delafield, WI","Waukesha County (West)"," ",1745,0.001 
"33340","55","55133","2037.02","53018","U","57466","70101","99999","WI","Waukesha WI","Milwaukee-Waukesha-West Allis, WI Metropolitan Statistical Area","99999","Delafield, WI","Waukesha County (West)","Milwaukee, WI Urbanized Area",1576,0.001 
"33340","55","55133","2037.02","53066","R"," ","70101","99999","WI","Waukesha WI","Milwaukee-Waukesha-West Allis, WI Metropolitan Statistical Area","99999","Oconomowoc, WI","Waukesha County (West)"," ",350,0 
"33340","55","55133","2037.02","53072","U","57466","70101","99999","WI","Waukesha WI","Milwaukee-Waukesha-West Allis, WI Metropolitan Statistical Area","99999","Pewaukee, WI","Waukesha County (West)","Milwaukee, WI Urbanized Area",95,0 
"33340","55","55133","2037.02","53183","U","57466","70101","99999","WI","Waukesha WI","Milwaukee-Waukesha-West Allis, WI Metropolitan Statistical Area","99999","Wales, WI","Waukesha County (West)","Milwaukee, WI Urbanized Area",126,0 
"33340","55","55133","2037.02","53188","R"," ","70101","99999","WI","Waukesha WI","Milwaukee-Waukesha-West Allis, WI Metropolitan Statistical Area","99999","Waukesha, WI","Waukesha County (West)"," ",673,0 
"33340","55","55133","2037.02","53188","U","57466","70101","99999","WI","Waukesha WI","Milwaukee-Waukesha-West Allis, WI Metropolitan Statistical Area","99999","Waukesha, WI","Waukesha County (West)","Milwaukee, WI Urbanized Area",481,0 
"33340","55","55133","2037.03","53018","U","57466","70101","99999","WI","Waukesha WI","Milwaukee-Waukesha-West Allis, WI Metropolitan Statistical Area","99999","Delafield, WI","Waukesha County (West)","Milwaukee, WI Urbanized Area",2429,0.002 
"33340","55","55133","2037.03","53058","R"," ","70101","99999","WI","Waukesha WI","Milwaukee-Waukesha-West Allis, WI Metropolitan Statistical Area","99999","Nashotah, WI","Waukesha County (West)"," ",47,0 
"33340","55","55133","2037.03","53058","U","57466","70101","99999","WI","Waukesha WI","Milwaukee-Waukesha-West Allis, WI Metropolitan Statistical Area","99999","Nashotah, WI","Waukesha County (West)","Milwaukee, WI Urbanized Area",1322,0.001 
"33340","55","55133","2037.03","53066","U","57466","70101","99999","WI","Waukesha WI","Milwaukee-Waukesha-West Allis, WI Metropolitan Statistical Area","99999","Oconomowoc, WI","Waukesha County (West)","Milwaukee, WI Urbanized Area",21,0 
"33340","55","55133","2037.04","53018","U","57466","70101","99999","WI","Waukesha WI","Milwaukee-Waukesha-West Allis, WI Metropolitan Statistical Area","99999","Delafield, WI","Waukesha County (West)","Milwaukee, WI Urbanized Area",2029,0.001 
"33340","55","55133","2037.04","53029","R"," ","70101","99999","WI","Waukesha WI","Milwaukee-Waukesha-West Allis, WI Metropolitan Statistical Area","99999","Hartland, WI","Waukesha County (West)"," ",74,0 
"33340","55","55133","2037.04","53029","U","57466","70101","99999","WI","Waukesha WI","Milwaukee-Waukesha-West Allis, WI Metropolitan Statistical Area","99999","Hartland, WI","Waukesha County (West)","Milwaukee, WI Urbanized Area",1483,0.001 
"33340","55","55133","2037.04","53066","U","57466","70101","99999","WI","Waukesha WI","Milwaukee-Waukesha-West Allis, WI Metropolitan Statistical Area","99999","Oconomowoc, WI","Waukesha County (West)","Milwaukee, WI Urbanized Area",44,0 
"33340","55","55133","2037.04","53072","U","57466","70101","99999","WI","Waukesha WI","Milwaukee-Waukesha-West Allis, WI Metropolitan Statistical Area","99999","Pewaukee, WI","Waukesha County (West)","Milwaukee, WI Urbanized Area",839,0.001 
"33340","55","55133","2038.02","53149","R"," ","70101","99999","WI","Waukesha WI","Milwaukee-Waukesha-West Allis, WI Metropolitan Statistical Area","99999","Mukwonago, WI","Waukesha County (West)"," ",1942,0.001 
"33340","55","55133","2038.02","53149","U","60517","70101","99999","WI","Waukesha WI","Milwaukee-Waukesha-West Allis, WI Metropolitan Statistical Area","99999","Mukwonago, WI","Waukesha County (West)","Mukwonago, WI Urban Cluster",4104,0.003 
"33340","55","55133","2038.02","53189","R"," ","70101","99999","WI","Waukesha WI","Milwaukee-Waukesha-West Allis, WI Metropolitan Statistical Area","99999","Waukesha, WI","Waukesha County (West)"," ",99,0 
"33340","55","55133","2038.03","53118","R"," ","70101","99999","WI","Waukesha WI","Milwaukee-Waukesha-West Allis, WI Metropolitan Statistical Area","99999","Dousman, WI","Waukesha County (West)"," ",70,0 
"33340","55","55133","2038.03","53119","R"," ","70101","99999","WI","Waukesha WI","Milwaukee-Waukesha-West Allis, WI Metropolitan Statistical Area","99999","Eagle, WI","Waukesha County (West)"," ",82,0 
"33340","55","55133","2038.03","53149","R"," ","70101","99999","WI","Waukesha WI","Milwaukee-Waukesha-West Allis, WI Metropolitan Statistical Area","99999","Mukwonago, WI","Waukesha County (West)"," ",240,0 
"33340","55","55133","2038.03","53149","U","57466","70101","99999","WI","Waukesha WI","Milwaukee-Waukesha-West Allis, WI Metropolitan Statistical Area","99999","Mukwonago, WI","Waukesha County (West)","Milwaukee, WI Urbanized Area",6,0 
"33340","55","55133","2038.03","53149","U","60517","70101","99999","WI","Waukesha WI","Milwaukee-Waukesha-West Allis, WI Metropolitan Statistical Area","99999","Mukwonago, WI","Waukesha County (West)","Mukwonago, WI Urban Cluster",308,0 
"33340","55","55133","2038.03","53153","R"," ","70101","99999","WI","Waukesha WI","Milwaukee-Waukesha-West Allis, WI Metropolitan Statistical Area","99999","North Prairie, WI","Waukesha County (West)"," ",387,0 
"33340","55","55133","2038.03","53153","U","60517","70101","99999","WI","Waukesha WI","Milwaukee-Waukesha-West Allis, WI Metropolitan Statistical Area","99999","North Prairie, WI","Waukesha County (West)","Mukwonago, WI Urban Cluster",1941,0.001 
"33340","55","55133","2038.03","53183","U","57466","70101","99999","WI","Waukesha WI","Milwaukee-Waukesha-West Allis, WI Metropolitan Statistical Area","99999","Wales, WI","Waukesha County (West)","Milwaukee, WI Urbanized Area",29,0 
"33340","55","55133","2038.03","53189","R"," ","70101","99999","WI","Waukesha WI","Milwaukee-Waukesha-West Allis, WI Metropolitan Statistical Area","99999","Waukesha, WI","Waukesha County (West)"," ",637,0 
"33340","55","55133","2038.03","53189","U","57466","70101","99999","WI","Waukesha WI","Milwaukee-Waukesha-West Allis, WI Metropolitan Statistical Area","99999","Waukesha, WI","Waukesha County (West)","Milwaukee, WI Urbanized Area",245,0 
"33340","55","55133","2038.04","53149","U","60517","70101","99999","WI","Waukesha WI","Milwaukee-Waukesha-West Allis, WI Metropolitan Statistical Area","99999","Mukwonago, WI","Waukesha County (West)","Mukwonago, WI Urban Cluster",91,0 
"33340","55","55133","2038.04","53183","R"," ","70101","99999","WI","Waukesha WI","Milwaukee-Waukesha-West Allis, WI Metropolitan Statistical Area","99999","Wales, WI","Waukesha County (West)"," ",177,0 
"33340","55","55133","2038.04","53183","U","57466","70101","99999","WI","Waukesha WI","Milwaukee-Waukesha-West Allis, WI Metropolitan Statistical Area","99999","Wales, WI","Waukesha County (West)","Milwaukee, WI Urbanized Area",1622,0.001 
"33340","55","55133","2038.04","53188","R"," ","70101","99999","WI","Waukesha WI","Milwaukee-Waukesha-West Allis, WI Metropolitan Statistical Area","99999","Waukesha, WI","Waukesha County (West)"," ",505,0 
"33340","55","55133","2038.04","53188","U","57466","70101","99999","WI","Waukesha WI","Milwaukee-Waukesha-West Allis, WI Metropolitan Statistical Area","99999","Waukesha, WI","Waukesha County (West)","Milwaukee, WI Urbanized Area",2730,0.002 
"33340","55","55133","2038.04","53189","R"," ","70101","99999","WI","Waukesha WI","Milwaukee-Waukesha-West Allis, WI Metropolitan Statistical Area","99999","Waukesha, WI","Waukesha County (West)"," ",1501,0.001 
"33340","55","55133","2038.04","53189","U","57466","70101","99999","WI","Waukesha WI","Milwaukee-Waukesha-West Allis, WI Metropolitan Statistical Area","99999","Waukesha, WI","Waukesha County (West)","Milwaukee, WI Urbanized Area",248,0 
"33340","55","55133","2038.04","53189","U","60517","70101","99999","WI","Waukesha WI","Milwaukee-Waukesha-West Allis, WI Metropolitan Statistical Area","99999","Waukesha, WI","Waukesha County (West)","Mukwonago, WI Urban Cluster",336,0 
"33340","55","55133","2039.01","53149","R"," ","70101","99999","WI","Waukesha WI","Milwaukee-Waukesha-West Allis, WI Metropolitan Statistical Area","99999","Mukwonago, WI","Waukesha County (West)"," ",327,0 
"33340","55","55133","2039.01","53149","U","60517","70101","99999","WI","Waukesha WI","Milwaukee-Waukesha-West Allis, WI Metropolitan Statistical Area","99999","Mukwonago, WI","Waukesha County (West)","Mukwonago, WI Urban Cluster",4205,0.003 
"33340","55","55133","2039.02","53149","R"," ","70101","99999","WI","Waukesha WI","Milwaukee-Waukesha-West Allis, WI Metropolitan Statistical Area","99999","Mukwonago, WI","Waukesha County (West)"," ",93,0 
"33340","55","55133","2039.02","53149","U","60517","70101","99999","WI","Waukesha WI","Milwaukee-Waukesha-West Allis, WI Metropolitan Statistical Area","99999","Mukwonago, WI","Waukesha County (West)","Mukwonago, WI Urban Cluster",4215,0.003 
"33340","55","55133","2040.02","53118","R"," ","70101","99999","WI","Waukesha WI","Milwaukee-Waukesha-West Allis, WI Metropolitan Statistical Area","99999","Dousman, WI","Waukesha County (West)"," ",30,0 
"33340","55","55133","2040.02","53119","R"," ","70101","99999","WI","Waukesha WI","Milwaukee-Waukesha-West Allis, WI Metropolitan Statistical Area","99999","Eagle, WI","Waukesha County (West)"," ",2337,0.002 
"33340","55","55133","2040.02","53119","U","60517","70101","99999","WI","Waukesha WI","Milwaukee-Waukesha-West Allis, WI Metropolitan Statistical Area","99999","Eagle, WI","Waukesha County (West)","Mukwonago, WI Urban Cluster",2790,0.002 
"33340","55","55133","2040.02","53149","R"," ","70101","99999","WI","Waukesha WI","Milwaukee-Waukesha-West Allis, WI Metropolitan Statistical Area","99999","Mukwonago, WI","Waukesha County (West)"," ",146,0 
"33340","55","55133","2040.02","53149","U","60517","70101","99999","WI","Waukesha WI","Milwaukee-Waukesha-West Allis, WI Metropolitan Statistical Area","99999","Mukwonago, WI","Waukesha County (West)","Mukwonago, WI Urban Cluster",176,0 
"33340","55","55133","2040.03","53066","R"," ","70101","99999","WI","Waukesha WI","Milwaukee-Waukesha-West Allis, WI Metropolitan Statistical Area","99999","Oconomowoc, WI","Waukesha County (West)"," ",102,0 
"33340","55","55133","2040.03","53118","R"," ","70101","99999","WI","Waukesha WI","Milwaukee-Waukesha-West Allis, WI Metropolitan Statistical Area","99999","Dousman, WI","Waukesha County (West)"," ",782,0.001 
"33340","55","55133","2040.03","53118","U","57466","70101","99999","WI","Waukesha WI","Milwaukee-Waukesha-West Allis, WI Metropolitan Statistical Area","99999","Dousman, WI","Waukesha County (West)","Milwaukee, WI Urbanized Area",2942,0.002 
"33340","55","55133","2040.04","53018","R"," ","70101","99999","WI","Waukesha WI","Milwaukee-Waukesha-West Allis, WI Metropolitan Statistical Area","99999","Delafield, WI","Waukesha County (West)"," ",6,0 
"33340","55","55133","2040.04","53066","R"," ","70101","99999","WI","Waukesha WI","Milwaukee-Waukesha-West Allis, WI Metropolitan Statistical Area","99999","Oconomowoc, WI","Waukesha County (West)"," ",597,0 
"33340","55","55133","2040.04","53118","R"," ","70101","99999","WI","Waukesha WI","Milwaukee-Waukesha-West Allis, WI Metropolitan Statistical Area","99999","Dousman, WI","Waukesha County (West)"," ",2773,0.002 
"33340","55","55133","2040.04","53118","U","57466","70101","99999","WI","Waukesha WI","Milwaukee-Waukesha-West Allis, WI Metropolitan Statistical Area","99999","Dousman, WI","Waukesha County (West)","Milwaukee, WI Urbanized Area",104,0 
"33340","55","55133","2040.04","53119","R"," ","70101","99999","WI","Waukesha WI","Milwaukee-Waukesha-West Allis, WI Metropolitan Statistical Area","99999","Eagle, WI","Waukesha County (West)"," ",38,0 
"33340","55","55133","2040.04","53183","U","57466","70101","99999","WI","Waukesha WI","Milwaukee-Waukesha-West Allis, WI Metropolitan Statistical Area","99999","Wales, WI","Waukesha County (West)","Milwaukee, WI Urbanized Area",861,0.001 
"33340","55","55133","2041.00","53018","U","57466","70101","99999","WI","Waukesha WI","Milwaukee-Waukesha-West Allis, WI Metropolitan Statistical Area","99999","Delafield, WI","Waukesha County (West)","Milwaukee, WI Urbanized Area",61,0 
"33340","55","55133","2041.00","53058","U","57466","70101","99999","WI","Waukesha WI","Milwaukee-Waukesha-West Allis, WI Metropolitan Statistical Area","99999","Nashotah, WI","Waukesha County (West)","Milwaukee, WI Urbanized Area",95,0 
"33340","55","55133","2041.00","53066","R"," ","70101","99999","WI","Waukesha WI","Milwaukee-Waukesha-West Allis, WI Metropolitan Statistical Area","99999","Oconomowoc, WI","Waukesha County (West)"," ",2314,0.001 
"33340","55","55133","2041.00","53066","U","57466","70101","99999","WI","Waukesha WI","Milwaukee-Waukesha-West Allis, WI Metropolitan Statistical Area","99999","Oconomowoc, WI","Waukesha County (West)","Milwaukee, WI Urbanized Area",2550,0.002 
"33340","55","55133","2041.00","53118","U","57466","70101","99999","WI","Waukesha WI","Milwaukee-Waukesha-West Allis, WI Metropolitan Statistical Area","99999","Dousman, WI","Waukesha County (West)","Milwaukee, WI Urbanized Area",12,0 
"33340","55","55133","2042.00","53066","R"," ","70101","99999","WI","Waukesha WI","Milwaukee-Waukesha-West Allis, WI Metropolitan Statistical Area","99999","Oconomowoc, WI","Waukesha County (West)"," ",93,0 
"33340","55","55133","2042.00","53066","U","57466","70101","99999","WI","Waukesha WI","Milwaukee-Waukesha-West Allis, WI Metropolitan Statistical Area","99999","Oconomowoc, WI","Waukesha County (West)","Milwaukee, WI Urbanized Area",7104,0.005 
"33340","55","55133","2043.01","53066","R"," ","70101","99999","WI","Waukesha WI","Milwaukee-Waukesha-West Allis, WI Metropolitan Statistical Area","99999","Oconomowoc, WI","Waukesha County (West)"," ",338,0 
"33340","55","55133","2043.01","53066","U","57466","70101","99999","WI","Waukesha WI","Milwaukee-Waukesha-West Allis, WI Metropolitan Statistical Area","99999","Oconomowoc, WI","Waukesha County (West)","Milwaukee, WI Urbanized Area",4514,0.003 
"33340","55","55133","2043.02","53066","U","57466","70101","99999","WI","Waukesha WI","Milwaukee-Waukesha-West Allis, WI Metropolitan Statistical Area","99999","Oconomowoc, WI","Waukesha County (West)","Milwaukee, WI Urbanized Area",3755,0.002 
"33340","55","55133","2044.00","53066","R"," ","70101","99999","WI","Waukesha WI","Milwaukee-Waukesha-West Allis, WI Metropolitan Statistical Area","99999","Oconomowoc, WI","Waukesha County (West)"," ",223,0 
"33340","55","55133","2044.00","53066","U","57466","70101","99999","WI","Waukesha WI","Milwaukee-Waukesha-West Allis, WI Metropolitan Statistical Area","99999","Oconomowoc, WI","Waukesha County (West)","Milwaukee, WI Urbanized Area",1856,0.001 
"33340","55","55133","2045.01","53029","R"," ","70101","99999","WI","Waukesha WI","Milwaukee-Waukesha-West Allis, WI Metropolitan Statistical Area","99999","Hartland, WI","Waukesha County (West)"," ",56,0 
"33340","55","55133","2045.01","53036","R"," ","70101","99999","WI","Waukesha WI","Milwaukee-Waukesha-West Allis, WI Metropolitan Statistical Area","99999","Ixonia, WI","Waukesha County (West)"," ",43,0 
"33340","55","55133","2045.01","53058","R"," ","70101","99999","WI","Waukesha WI","Milwaukee-Waukesha-West Allis, WI Metropolitan Statistical Area","99999","Nashotah, WI","Waukesha County (West)"," ",7,0 
"33340","55","55133","2045.01","53066","R"," ","70101","99999","WI","Waukesha WI","Milwaukee-Waukesha-West Allis, WI Metropolitan Statistical Area","99999","Oconomowoc, WI","Waukesha County (West)"," ",2245,0.001 
"33340","55","55133","2045.01","53066","U","57466","70101","99999","WI","Waukesha WI","Milwaukee-Waukesha-West Allis, WI Metropolitan Statistical Area","99999","Oconomowoc, WI","Waukesha County (West)","Milwaukee, WI Urbanized Area",144,0 
"33340","55","55133","2045.02","53058","R"," ","70101","99999","WI","Waukesha WI","Milwaukee-Waukesha-West Allis, WI Metropolitan Statistical Area","99999","Nashotah, WI","Waukesha County (West)"," ",255,0 
"33340","55","55133","2045.02","53058","U","57466","70101","99999","WI","Waukesha WI","Milwaukee-Waukesha-West Allis, WI Metropolitan Statistical Area","99999","Nashotah, WI","Waukesha County (West)","Milwaukee, WI Urbanized Area",1143,0.001 
"33340","55","55133","2045.02","53066","U","57466","70101","99999","WI","Waukesha WI","Milwaukee-Waukesha-West Allis, WI Metropolitan Statistical Area","99999","Oconomowoc, WI","Waukesha County (West)","Milwaukee, WI Urbanized Area",3966,0.003 
"33340","55","55133","2045.02","53069","U","57466","70101","99999","WI","Waukesha WI","Milwaukee-Waukesha-West Allis, WI Metropolitan Statistical Area","99999","Okauchee Lake, WI","Waukesha County (West)","Milwaukee, WI Urbanized Area",697,0 
